{"type":"FeatureCollection","features":[{"type":"Feature","properties":{"id":"bl-al-1","kind":"allotment","name":"Three Creeks","acres":84403.0,"editable":false,"source":"stub (fake demo data)","allot_no":"UT00024"},"geometry":{"type":"Polygon","coordinates":[[[-111.4,41.855],[-111.2,41.855],[-111.2,41.999],[-111.4,41.999],[-111.4,41.855]]]}},{"type":"Feature","properties":{"id":"bl-al-2","kind":"allotment","name":"Fish Haven 1","acres":4100.0,"editable":false,"source":"stub (fake demo data)","allot_no":"ID14111"},"geometry":{"type":"Polygon","coordinates":[[[-111.4,42.001],[-111.25,42.001],[-111.25,42.1],[-111.4,42.1],[-111.4,42.001]]]}}]}