{"type":"FeatureCollection","features":[{"type":"Feature","properties":{"id":"bl-ex-1","kind":"exclusion","name":"Three Creeks \u2014 south","acres":28.0,"editable":true,"source":"stub (fake demo data)","strm_type":"Perennial","veg_pct":71},"geometry":{"type":"Polygon","coordinates":[[[-111.291,41.8626],[-111.2784,41.8725],[-111.2784,41.8713],[-111.291,41.8614],[-111.291,41.8626]]]}},{"type":"Feature","properties":{"id":"bl-ex-2","kind":"exclusion","name":"Three Creeks \u2014 north","acres":31.0,"editable":true,"source":"stub (fake demo data)","strm_type":"Perennial","veg_pct":68},"geometry":{"type":"Polygon","coordinates":[[[-111.27784,41.87294],[-111.263,41.8846],[-111.263,41.8834],[-111.27784,41.87174],[-111.27784,41.87294]]]}}]}