{"type":"FeatureCollection","features":[{"type":"Feature","properties":{"id":"bl-own-1","kind":"ownership","name":"BLM","acres":9100.0,"editable":false,"source":"stub (fake demo data)","owner":"BLM"},"geometry":{"type":"Polygon","coordinates":[[[-111.4,41.85],[-111.3,41.85],[-111.3,41.95],[-111.4,41.95],[-111.4,41.85]]]}},{"type":"Feature","properties":{"id":"bl-own-2","kind":"ownership","name":"USFWS","acres":1200.0,"editable":false,"source":"stub (fake demo data)","owner":"USFWS"},"geometry":{"type":"Polygon","coordinates":[[[-111.3,42.02],[-111.22,42.02],[-111.22,42.09],[-111.3,42.09],[-111.3,42.02]]]}},{"type":"Feature","properties":{"id":"bl-own-3","kind":"ownership","name":"Private","acres":2600.0,"editable":false,"source":"stub (fake demo data)","owner":"Private"},"geometry":{"type":"Polygon","coordinates":[[[-111.3,41.85],[-111.2,41.85],[-111.2,41.95],[-111.3,41.95],[-111.3,41.85]]]}}]}