{"type":"FeatureCollection","features":[{"type":"Feature","properties":{"id":"bl-gap-1","kind":"water_gap","name":"South drink gap","acres":null,"editable":true,"source":"stub (fake demo data)","width_m":30,"open":true},"geometry":{"type":"Point","coordinates":[-111.27812,41.87212]}},{"type":"Feature","properties":{"id":"bl-gap-2","kind":"water_gap","name":"Bench gap","acres":null,"editable":true,"source":"stub (fake demo data)","width_m":30,"open":true},"geometry":{"type":"Polygon","coordinates":[[[-111.267181,41.879865],[-111.266819,41.879865],[-111.266819,41.880135],[-111.267181,41.880135],[-111.267181,41.879865]]]}}]}