{"type":"FeatureCollection","features":[{"type":"Feature","properties":{"id":"allot-mt20152","kind":"allotment","name":"Shambo Unit","acres":14042.1,"editable":false,"source":"BLM National Grazing Allotments","allot_no":"MT20152"},"geometry":{"type":"Polygon","coordinates":[[[-112.019712,44.551206],[-112.020145,44.556581],[-112.021195,44.557871],[-112.024831,44.559556],[-112.025552,44.560478],[-112.025911,44.56186],[-112.025917,44.565377],[-112.027361,44.574565],[-112.028166,44.575662],[-112.027618,44.581279],[-112.026596,44.582178],[-112.029987,44.587044],[-112.025365,44.586846],[-112.012703,44.591954],[-112.008133,44.594206],[-112.00368,44.594544],[-111.994489,44.591969],[-111.994505,44.586775],[-111.953982,44.586589],[-111.95399,44.576127],[-111.933715,44.576155],[-111.933709,44.572529],[-111.923627,44.572525],[-111.9236,44.587027],[-111.928689,44.593777],[-111.943878,44.59379],[-111.94381,44.600974],[-111.933702,44.600944],[-111.933675,44.606184],[-111.930775,44.608526],[-111.922251,44.610917],[-111.914955,44.611728],[-111.910062,44.612802],[-111.899242,44.61214],[-111.887608,44.612141],[-111.882808,44.611733],[-111.882881,44.607822],[-111.882246,44.607811],[-111.882128,44.560598],[-111.883102,44.561575],[-111.886141,44.562357],[-111.889759,44.564693],[-111.894735,44.559588],[-111.898242,44.558378],[-111.900077,44.557402],[-111.902954,44.556635],[-111.905141,44.557085],[-111.908041,44.556411],[-111.909,44.556631],[-111.912468,44.55627],[-111.916718,44.556292],[-111.919894,44.557609],[-111.922142,44.557703],[-111.925012,44.557182],[-111.92851,44.557649],[-111.930397,44.557303],[-111.932406,44.557467],[-111.934234,44.558099],[-111.93774,44.557501],[-111.940931,44.55613],[-111.943494,44.55642],[-111.945612,44.557046],[-111.947829,44.557023],[-111.948987,44.555965],[-111.950191,44.551571],[-111.951625,44.549563],[-111.954141,44.548696],[-111.956734,44.548717],[-111.960565,44.549615],[-111.961306,44.548925],[-111.961251,44.547537],[-111.962301,44.545],[-112.021153,44.545],[-112.019712,44.551206]]]}},{"type":"Feature","properties":{"id":"allot-mt03470","kind":"allotment","name":"Unleased_Cent","acres":5.4,"editable":false,"source":"BLM National Grazing Allotments","allot_no":"MT03470"},"geometry":{"type":"Polygon","coordinates":[[[-111.932349,44.607111],[-111.933675,44.606184],[-111.933649,44.608124],[-111.931315,44.608099],[-111.932349,44.607111]]]}},{"type":"Feature","properties":{"id":"allot-mt10125","kind":"allotment","name":"Bean Place","acres":40.3,"editable":false,"source":"BLM National Grazing Allotments","allot_no":"MT10125"},"geometry":{"type":"Polygon","coordinates":[[[-111.943783,44.615373],[-111.938704,44.61538],[-111.938714,44.611741],[-111.943791,44.611726],[-111.943783,44.615373]]]}},{"type":"Feature","properties":{"id":"allot-mt20153","kind":"allotment","name":"7L  Sgc","acres":201.0,"editable":false,"source":"BLM National Grazing Allotments","allot_no":"MT20153"},"geometry":{"type":"Polygon","coordinates":[[[-111.938613,44.629926],[-111.938648,44.626294],[-111.943735,44.626301],[-111.943638,44.637202],[-111.933448,44.637137],[-111.933523,44.629916],[-111.938613,44.629926]]]}},{"type":"Feature","properties":{"id":"allot-mt20735","kind":"allotment","name":"Oxbow","acres":7342.6,"editable":false,"source":"BLM National Grazing Allotments","allot_no":"MT20735"},"geometry":{"type":"Polygon","coordinates":[[[-112.02745,44.651441],[-112.025185,44.647536],[-112.004795,44.650704],[-111.997189,44.64848],[-111.991843,44.648129],[-111.990388,44.652153],[-111.982268,44.652148],[-111.981769,44.652729],[-111.979598,44.652248],[-111.97894,44.649645],[-111.981213,44.644498],[-111.984686,44.638156],[-111.984623,44.63114],[-111.994598,44.63105],[-111.994658,44.62312],[-111.999739,44.623177],[-111.999713,44.626806],[-112.025429,44.62701],[-112.040715,44.627054],[-112.040739,44.623417],[-112.06,44.62344],[-112.06,44.653208],[-112.046627,44.652259],[-112.02745,44.651441]]]}},{"type":"Feature","properties":{"id":"allot-mt01582","kind":"allotment","name":"Brundage Spring","acres":5021.2,"editable":false,"source":"BLM National Grazing Allotments","allot_no":"MT01582"},"geometry":{"type":"Polygon","coordinates":[[[-111.981769,44.652729],[-111.982268,44.652148],[-111.990394,44.652153],[-111.99185,44.648129],[-111.997183,44.64848],[-112.004789,44.650705],[-112.025178,44.647536],[-112.026518,44.649834],[-112.025185,44.650231],[-112.025188,44.667085],[-112.024873,44.669837],[-112.020673,44.67727],[-112.019857,44.680733],[-112.022476,44.682548],[-112.023943,44.68399],[-112.025605,44.685866],[-112.025811,44.68661],[-112.000828,44.682995],[-112.000828,44.685074],[-111.996412,44.685482],[-111.991976,44.684917],[-111.989668,44.683992],[-111.985772,44.683323],[-111.984611,44.682861],[-111.983958,44.682289],[-111.983952,44.681789],[-111.982022,44.680848],[-111.979141,44.678605],[-111.977155,44.67819],[-111.974668,44.675651],[-111.974458,44.674108],[-111.97608,44.666331],[-111.95866,44.666337],[-111.95868,44.662751],[-111.953581,44.662783],[-111.953606,44.659174],[-111.943423,44.659191],[-111.943346,44.666506],[-111.933464,44.666653],[-111.933327,44.651843],[-111.940468,44.651965],[-111.94074,44.646868],[-111.944756,44.64687],[-111.94511,44.644489],[-111.954147,44.64451],[-111.971897,44.652109],[-111.9791,44.652166],[-111.981769,44.652729]],[[-111.979094,44.652167],[-111.979101,44.652172],[-111.9791,44.652168],[-111.979094,44.652167]]]}},{"type":"Feature","properties":{"id":"allot-mt10696","kind":"allotment","name":"Mata-Stib Sgc","acres":471.7,"editable":false,"source":"BLM National Grazing Allotments","allot_no":"MT10696"},"geometry":{"type":"Polygon","coordinates":[[[-111.923156,44.673494],[-111.943374,44.673666],[-111.9405,44.676501],[-111.912913,44.685828],[-111.91295,44.67343],[-111.923156,44.673494]]]}},{"type":"Feature","properties":{"id":"allot-mt20708","kind":"allotment","name":"Brundage Creek","acres":3008.0,"editable":false,"source":"BLM National Grazing Allotments","allot_no":"MT20708"},"geometry":{"type":"Polygon","coordinates":[[[-111.92918,44.698614],[-111.926176,44.700009],[-111.924102,44.700411],[-111.913114,44.698778],[-111.909942,44.69889],[-111.909582,44.69803],[-111.908775,44.697611],[-111.906766,44.697184],[-111.899862,44.693948],[-111.903462,44.69199],[-111.905352,44.689172],[-111.905399,44.688079],[-111.919056,44.683866],[-111.9405,44.676501],[-111.943374,44.673666],[-111.943373,44.672016],[-111.940971,44.670698],[-111.943353,44.668296],[-111.943423,44.659193],[-111.953598,44.659174],[-111.953581,44.662783],[-111.958673,44.662751],[-111.958993,44.69674],[-111.961427,44.709541],[-111.956209,44.707072],[-111.947098,44.703638],[-111.937038,44.698912],[-111.93469,44.698272],[-111.92918,44.698614]]]}},{"type":"Feature","properties":{"id":"allot-mt20688","kind":"allotment","name":"Duff Creek","acres":5492.5,"editable":false,"source":"BLM National Grazing Allotments","allot_no":"MT20688"},"geometry":{"type":"Polygon","coordinates":[[[-111.845622,44.610618],[-111.841483,44.609226],[-111.838532,44.607082],[-111.835721,44.605915],[-111.830976,44.605307],[-111.826561,44.60556],[-111.826557,44.599989],[-111.816426,44.599998],[-111.816421,44.596367],[-111.81135,44.596372],[-111.811345,44.592726],[-111.818071,44.592739],[-111.819655,44.588402],[-111.825473,44.582768],[-111.829508,44.57732],[-111.831265,44.572783],[-111.831831,44.569355],[-111.834155,44.566667],[-111.836365,44.564955],[-111.839119,44.563923],[-111.840845,44.563933],[-111.842679,44.564399],[-111.845871,44.564014],[-111.850245,44.564035],[-111.852332,44.564506],[-111.853469,44.56518],[-111.858518,44.566138],[-111.861718,44.566186],[-111.863153,44.565862],[-111.868709,44.566347],[-111.869361,44.566632],[-111.869728,44.564679],[-111.870739,44.563214],[-111.875411,44.562021],[-111.879351,44.560437],[-111.881819,44.560498],[-111.882128,44.560598],[-111.8822,44.56288],[-111.882246,44.607811],[-111.862296,44.607428],[-111.862276,44.61045],[-111.856304,44.609765],[-111.845622,44.610618]]]}},{"type":"Feature","properties":{"id":"allot-mt20732","kind":"allotment","name":"Sand Dunes","acres":775.3,"editable":false,"source":"BLM National Grazing Allotments","allot_no":"MT20732"},"geometry":{"type":"Polygon","coordinates":[[[-111.837109,44.676654],[-111.837509,44.677088],[-111.835892,44.677108],[-111.836467,44.680366],[-111.831589,44.69477],[-111.811834,44.694628],[-111.81172,44.687425],[-111.817001,44.68011],[-111.826742,44.676597],[-111.837109,44.676654]]]}},{"type":"Feature","properties":{"id":"allot-mt20710","kind":"allotment","name":"Centennial","acres":5681.0,"editable":false,"source":"BLM National Grazing Allotments","allot_no":"MT20710"},"geometry":{"type":"Polygon","coordinates":[[[-111.744794,44.712298],[-111.744798,44.708685],[-111.720427,44.708441],[-111.720735,44.693825],[-111.705486,44.693773],[-111.705133,44.679448],[-111.715358,44.679452],[-111.715473,44.683017],[-111.720622,44.683009],[-111.720755,44.686577],[-111.740821,44.686819],[-111.740783,44.694142],[-111.761187,44.694212],[-111.761177,44.679606],[-111.817001,44.68011],[-111.81172,44.687425],[-111.811834,44.694628],[-111.796553,44.694445],[-111.79638,44.716561],[-111.781131,44.716089],[-111.761137,44.715968],[-111.761135,44.720709],[-111.750815,44.720765],[-111.750891,44.712315],[-111.744794,44.712298]]]}},{"type":"Feature","properties":{"id":"allot-mt20641","kind":"allotment","name":"Centennial Isolated","acres":40.5,"editable":false,"source":"BLM National Grazing Allotments","allot_no":"MT20641"},"geometry":{"type":"Polygon","coordinates":[[[-111.887861,44.698577],[-111.887836,44.702198],[-111.882707,44.70211],[-111.882699,44.698497],[-111.887861,44.698577]]]}},{"type":"Feature","properties":{"id":"allot-mt00763","kind":"allotment","name":"Lousy Springs ","acres":153.1,"editable":false,"source":"BLM National Grazing Allotments","allot_no":"MT00763"},"geometry":{"type":"Polygon","coordinates":[[[-111.963699,44.680789],[-111.963639,44.695306],[-111.95895,44.695319],[-111.958632,44.680824],[-111.963699,44.680789]]]}},{"type":"Feature","properties":{"id":"allot-mt20172","kind":"allotment","name":"Fish Creek","acres":6634.8,"editable":false,"source":"BLM National Grazing Allotments","allot_no":"MT20172"},"geometry":{"type":"Polygon","coordinates":[[[-111.881702,44.727995],[-111.883773,44.727682],[-111.884492,44.727236],[-111.887162,44.722534],[-111.890209,44.720393],[-111.890657,44.720781],[-111.890398,44.721747],[-111.90301,44.720754],[-111.903578,44.70885],[-111.905428,44.702609],[-111.903029,44.702335],[-111.902353,44.698804],[-111.913114,44.698778],[-111.924102,44.700411],[-111.926176,44.700009],[-111.92918,44.698614],[-111.93469,44.698272],[-111.937038,44.698912],[-111.947098,44.703638],[-111.956209,44.707072],[-111.964471,44.710981],[-111.965262,44.718163],[-111.966981,44.720213],[-111.969783,44.721331],[-111.97224,44.724079],[-111.974228,44.724137],[-111.981618,44.720446],[-111.994423,44.720934],[-111.994416,44.730215],[-111.984063,44.731533],[-111.983761,44.734271],[-111.984262,44.738718],[-111.903051,44.738688],[-111.903051,44.73782],[-111.878247,44.737809],[-111.879136,44.735552],[-111.879819,44.730137],[-111.880573,44.728927],[-111.881702,44.727995]]]}},{"type":"Feature","properties":{"id":"allot-mt03234","kind":"allotment","name":"Cayuse","acres":1504.6,"editable":false,"source":"BLM National Grazing Allotments","allot_no":"MT03234"},"geometry":{"type":"Polygon","coordinates":[[[-111.86249,44.701325],[-111.877645,44.704589],[-111.87762,44.700842],[-111.882704,44.700847],[-111.882707,44.70211],[-111.886061,44.702167],[-111.88253,44.705818],[-111.882755,44.707721],[-111.884172,44.709477],[-111.889788,44.709608],[-111.889934,44.709806],[-111.890158,44.71114],[-111.88942,44.712269],[-111.890442,44.713079],[-111.890783,44.714095],[-111.889968,44.715345],[-111.890192,44.716751],[-111.889184,44.719378],[-111.890209,44.720393],[-111.887162,44.722534],[-111.884492,44.727236],[-111.883773,44.727682],[-111.881702,44.727995],[-111.880976,44.728374],[-111.880306,44.729294],[-111.879819,44.730137],[-111.879136,44.735552],[-111.878247,44.737809],[-111.872529,44.737807],[-111.872522,44.733348],[-111.870016,44.731633],[-111.869168,44.73066],[-111.868632,44.72946],[-111.867802,44.723365],[-111.862356,44.723331],[-111.86249,44.701325]]]}}]}