{"type":"FeatureCollection","features":[{"type":"Feature","properties":{"id":"own-b-blm","kind":"ownership","name":"BLM","acres":9572.0,"editable":false,"source":"BLM Surface Management Agency"},"geometry":{"type":"MultiPolygon","coordinates":[[[[-111.761129,44.715969],[-111.754931,44.715951],[-111.754939,44.708717],[-111.740778,44.708673],[-111.740798,44.701406],[-111.761191,44.701473],[-111.761129,44.715969]]],[[[-111.842206,44.680297],[-111.842191,44.687544],[-111.847261,44.68755],[-111.84727,44.691192],[-111.837127,44.691155],[-111.837141,44.694782],[-111.811822,44.69463],[-111.811708,44.687428],[-111.806691,44.687404],[-111.806505,44.68013],[-111.842206,44.680297]]],[[[-111.86252,44.705615],[-111.867546,44.705655],[-111.867572,44.709269],[-111.862536,44.709212],[-111.86252,44.705615]]],[[[-111.903044,44.738681],[-111.903043,44.737813],[-111.872522,44.737801],[-111.872496,44.723339],[-111.882645,44.723351],[-111.882685,44.698494],[-111.887847,44.698575],[-111.887801,44.705819],[-111.892894,44.705909],[-111.892809,44.716829],[-111.898107,44.716951],[-111.898103,44.719741],[-111.903043,44.719744],[-111.903043,44.724207],[-111.98,44.724201],[-111.98,44.738713],[-111.903044,44.738681]]],[[[-111.88803,44.607804],[-111.887906,44.615046],[-111.882793,44.614981],[-111.882882,44.607742],[-111.882246,44.607731],[-111.882259,44.6],[-111.903331,44.6],[-111.903328,44.608041],[-111.88803,44.607804]]],[[[-111.912972,44.698921],[-111.912976,44.706129],[-111.908005,44.706114],[-111.908012,44.709739],[-111.903046,44.709742],[-111.903022,44.702455],[-111.898192,44.702372],[-111.898227,44.698738],[-111.912972,44.698921]]],[[[-111.91293,44.673429],[-111.943358,44.67366],[-111.943406,44.659185],[-111.95359,44.659167],[-111.953565,44.662776],[-111.958665,44.662743],[-111.958625,44.680792],[-111.963691,44.680781],[-111.963624,44.695298],[-111.943337,44.695357],[-111.943374,44.684454],[-111.933247,44.684461],[-111.933219,44.688082],[-111.9231,44.688074],[-111.923123,44.691741],[-111.933191,44.691717],[-111.933163,44.695352],[-111.903006,44.695171],[-111.902952,44.687915],[-111.912912,44.687994],[-111.91293,44.673429]]],[[[-111.923224,44.641426],[-111.924354,44.6426],[-111.925455,44.642385],[-111.926266,44.642983],[-111.925144,44.646014],[-111.923515,44.646599],[-111.924259,44.648],[-111.923188,44.647987],[-111.923209,44.64437],[-111.911844,44.644312],[-111.913562,44.642309],[-111.916635,44.640152],[-111.923224,44.641426]]],[[[-111.928581,44.615306],[-111.923503,44.615311],[-111.923542,44.61169],[-111.928605,44.611682],[-111.928581,44.615306]]],[[[-111.923581,44.60807],[-111.923646,44.6],[-111.943853,44.6],[-111.943844,44.600893],[-111.933734,44.600865],[-111.933675,44.608045],[-111.923581,44.60807]]],[[[-111.94365,44.637176],[-111.933401,44.63712],[-111.933521,44.629861],[-111.938638,44.629872],[-111.938695,44.626225],[-111.943808,44.626235],[-111.94365,44.637176]]],[[[-111.943846,44.611643],[-111.943851,44.615292],[-111.938755,44.615297],[-111.938757,44.611658],[-111.943846,44.611643]]],[[[-111.938753,44.618938],[-111.933651,44.618936],[-111.933659,44.615302],[-111.938755,44.615297],[-111.938753,44.618938]]],[[[-111.964239,44.619077],[-111.964267,44.622733],[-111.959166,44.622696],[-111.959137,44.619043],[-111.964239,44.619077]]],[[[-111.963807,44.652024],[-111.98,44.652162],[-111.98,44.655619],[-111.968877,44.655598],[-111.968864,44.659125],[-111.963778,44.659148],[-111.963807,44.652024]]],[[[-111.979232,44.641083],[-111.98,44.64109],[-111.98,44.644736],[-111.979174,44.644728],[-111.979232,44.641083]]]]}},{"type":"Feature","properties":{"id":"own-b-state","kind":"ownership","name":"State","acres":25432.3,"editable":false,"source":"BLM Surface Management Agency"},"geometry":{"type":"MultiPolygon","coordinates":[[[[-111.71535,44.679453],[-111.715464,44.683018],[-111.720614,44.68301],[-111.72042,44.70844],[-111.719392,44.70844],[-111.719391,44.712223],[-111.724455,44.712235],[-111.724448,44.726721],[-111.734597,44.726754],[-111.734619,44.723135],[-111.739693,44.723151],[-111.73965,44.730391],[-111.734576,44.730374],[-111.734536,44.737641],[-111.66,44.737573],[-111.66,44.67945],[-111.674693,44.679223],[-111.71535,44.679453]]],[[[-111.821783,44.737762],[-111.821751,44.726913],[-111.831905,44.726919],[-111.831889,44.71968],[-111.806502,44.719667],[-111.806491,44.716049],[-111.801415,44.716046],[-111.801407,44.713097],[-111.796378,44.712943],[-111.796371,44.71656],[-111.781123,44.716089],[-111.781123,44.719703],[-111.776377,44.719678],[-111.776369,44.716061],[-111.761129,44.715969],[-111.761185,44.686942],[-111.756094,44.686913],[-111.756076,44.694201],[-111.740773,44.694146],[-111.740812,44.686824],[-111.751002,44.686883],[-111.751029,44.679604],[-111.740868,44.679527],[-111.740791,44.672233],[-111.761353,44.672364],[-111.761521,44.665035],[-111.811625,44.665665],[-111.872807,44.665887],[-111.872683,44.673116],[-111.801431,44.672825],[-111.801418,44.680099],[-111.771331,44.679664],[-111.771355,44.694223],[-111.811822,44.69463],[-111.811818,44.70939],[-111.821708,44.709197],[-111.821724,44.716057],[-111.831883,44.716061],[-111.831877,44.712441],[-111.836954,44.712443],[-111.836961,44.716063],[-111.84204,44.716064],[-111.842203,44.694793],[-111.862228,44.694814],[-111.862347,44.723327],[-111.867421,44.723333],[-111.867435,44.730569],[-111.872509,44.730577],[-111.872522,44.737801],[-111.852231,44.737784],[-111.852223,44.734172],[-111.831924,44.734158],[-111.831934,44.737766],[-111.821783,44.737762]]],[[[-111.902846,44.666102],[-111.902796,44.651561],[-111.912985,44.651648],[-111.913028,44.644318],[-111.923209,44.64437],[-111.923188,44.647987],[-111.924259,44.648],[-111.92509,44.648945],[-111.925547,44.648945],[-111.926402,44.646856],[-111.926917,44.643429],[-111.928024,44.64164],[-111.928181,44.639377],[-111.929224,44.640156],[-111.930425,44.639959],[-111.93043,44.637783],[-111.929051,44.63617],[-111.930054,44.636359],[-111.930212,44.635921],[-111.926656,44.634064],[-111.925942,44.634937],[-111.926208,44.636148],[-111.924843,44.638012],[-111.925301,44.638205],[-111.925111,44.639571],[-111.926418,44.640626],[-111.925823,44.641779],[-111.921841,44.640472],[-111.91749,44.639963],[-111.915339,44.639869],[-111.913047,44.641181],[-111.913116,44.633411],[-111.933461,44.63349],[-111.933401,44.63712],[-111.94365,44.637176],[-111.943358,44.67366],[-111.91293,44.673429],[-111.912912,44.687994],[-111.902952,44.687915],[-111.902599,44.680661],[-111.887789,44.68044],[-111.888116,44.665972],[-111.902846,44.666102]]],[[[-111.903043,44.724207],[-111.903046,44.709742],[-111.908012,44.709739],[-111.908005,44.706114],[-111.912976,44.706129],[-111.912972,44.698921],[-111.893009,44.698656],[-111.893067,44.695029],[-111.923146,44.695408],[-111.98,44.695292],[-111.98,44.724201],[-111.903043,44.724207]]]]}},{"type":"Feature","properties":{"id":"own-b-usfs","kind":"ownership","name":"USFS","acres":56906.1,"editable":false,"source":"BLM Surface Management Agency"},"geometry":{"type":"Polygon","coordinates":[[[-111.903043,44.737813],[-111.903044,44.738681],[-111.98,44.738713],[-111.98,44.82],[-111.66,44.82],[-111.66,44.737573],[-111.903043,44.737813]],[[-111.677318,44.763218],[-111.681758,44.757772],[-111.680821,44.755746],[-111.668505,44.760524],[-111.668511,44.767072],[-111.677318,44.763218]]]}},{"type":"Feature","properties":{"id":"own-b-usfws","kind":"ownership","name":"USFWS","acres":32193.8,"editable":false,"source":"BLM Surface Management Agency"},"geometry":{"type":"MultiPolygon","coordinates":[[[[-111.862308,44.607344],[-111.861879,44.621666],[-111.87229,44.621952],[-111.872309,44.629314],[-111.882606,44.629547],[-111.882562,44.633204],[-111.887637,44.633243],[-111.887742,44.644162],[-111.892841,44.644197],[-111.892664,44.636936],[-111.897735,44.636953],[-111.897912,44.644232],[-111.90794,44.644292],[-111.90789,44.651604],[-111.902796,44.651561],[-111.902828,44.658833],[-111.893082,44.658751],[-111.893144,44.666022],[-111.888116,44.665972],[-111.887871,44.694955],[-111.882676,44.694882],[-111.882683,44.691255],[-111.877586,44.691252],[-111.877615,44.702085],[-111.872536,44.702063],[-111.872512,44.687598],[-111.842191,44.687544],[-111.842206,44.680297],[-111.801418,44.680099],[-111.801431,44.672825],[-111.872683,44.673116],[-111.872807,44.665887],[-111.811625,44.665665],[-111.761521,44.665035],[-111.761353,44.672364],[-111.740791,44.672233],[-111.740868,44.679527],[-111.751029,44.679604],[-111.751002,44.686883],[-111.740812,44.686824],[-111.740773,44.694146],[-111.756076,44.694201],[-111.756094,44.686913],[-111.761185,44.686942],[-111.761191,44.701473],[-111.740798,44.701406],[-111.740778,44.708673],[-111.754939,44.708717],[-111.754931,44.715951],[-111.724458,44.715859],[-111.724455,44.712235],[-111.719391,44.712223],[-111.719392,44.70844],[-111.72042,44.70844],[-111.720614,44.68301],[-111.715464,44.683018],[-111.71535,44.679453],[-111.680107,44.679184],[-111.66,44.67945],[-111.66,44.6],[-111.694293,44.6],[-111.691249,44.602264],[-111.690281,44.605476],[-111.691909,44.605302],[-111.69586,44.605928],[-111.692719,44.6098],[-111.695427,44.611454],[-111.6982,44.612359],[-111.697149,44.613284],[-111.696092,44.616097],[-111.696168,44.618097],[-111.707335,44.619901],[-111.712949,44.62129],[-111.730776,44.627084],[-111.74235,44.630119],[-111.744075,44.631163],[-111.748686,44.632147],[-111.750263,44.631878],[-111.751468,44.629691],[-111.750995,44.625912],[-111.752785,44.627439],[-111.754204,44.628047],[-111.753802,44.629001],[-111.754062,44.630328],[-111.751787,44.633973],[-111.751927,44.636807],[-111.75242,44.636994],[-111.753795,44.636194],[-111.757012,44.637648],[-111.759212,44.637534],[-111.760853,44.635927],[-111.760852,44.635401],[-111.759602,44.634629],[-111.758918,44.634629],[-111.757699,44.635547],[-111.755729,44.635892],[-111.755312,44.634977],[-111.758038,44.631063],[-111.75532,44.629143],[-111.75522,44.626962],[-111.753505,44.62663],[-111.751738,44.625019],[-111.750724,44.625005],[-111.751743,44.62295],[-111.750051,44.619769],[-111.747676,44.619119],[-111.746794,44.620107],[-111.745057,44.618532],[-111.746113,44.617183],[-111.746178,44.616276],[-111.744778,44.614753],[-111.743192,44.61507],[-111.7435,44.614002],[-111.743054,44.612959],[-111.742353,44.613167],[-111.741962,44.614943],[-111.740466,44.616392],[-111.739189,44.615605],[-111.738376,44.612744],[-111.740974,44.610756],[-111.738987,44.60303],[-111.740243,44.602004],[-111.740435,44.600388],[-111.741363,44.6],[-111.81131,44.6],[-111.81131,44.60085],[-111.81087,44.600847],[-111.810824,44.607108],[-111.821441,44.607089],[-111.82144,44.60626],[-111.826517,44.605648],[-111.826512,44.6],[-111.882259,44.6],[-111.882246,44.607731],[-111.862308,44.607344]],[[-111.743656,44.635905],[-111.740518,44.632312],[-111.731003,44.629736],[-111.717061,44.624894],[-111.71385,44.625426],[-111.712862,44.624507],[-111.711497,44.624897],[-111.711396,44.626525],[-111.712811,44.628002],[-111.712806,44.631498],[-111.714625,44.633008],[-111.716071,44.63349],[-111.71653,44.634714],[-111.713238,44.635666],[-111.712055,44.637013],[-111.713128,44.640182],[-111.720217,44.639789],[-111.725265,44.640165],[-111.726532,44.643106],[-111.731576,44.643514],[-111.736674,44.642402],[-111.743656,44.635905]],[[-111.824941,44.62171],[-111.824071,44.622997],[-111.827366,44.625247],[-111.826249,44.626498],[-111.826517,44.628005],[-111.824364,44.629535],[-111.823903,44.630851],[-111.822034,44.630603],[-111.82377,44.631763],[-111.821084,44.63449],[-111.824981,44.636161],[-111.824469,44.640185],[-111.821614,44.643391],[-111.815744,44.645429],[-111.811443,44.645429],[-111.809147,44.645429],[-111.801275,44.64339],[-111.792352,44.647104],[-111.789856,44.650672],[-111.794965,44.653173],[-111.806818,44.653222],[-111.814186,44.652862],[-111.821705,44.653846],[-111.827545,44.653971],[-111.835316,44.657167],[-111.842164,44.657759],[-111.852548,44.656054],[-111.866203,44.656281],[-111.867789,44.653811],[-111.870385,44.652674],[-111.874697,44.652783],[-111.875993,44.655334],[-111.880321,44.653438],[-111.882734,44.648756],[-111.889539,44.647052],[-111.891059,44.647009],[-111.892863,44.646073],[-111.893511,44.645295],[-111.902173,44.645433],[-111.902125,44.644946],[-111.896838,44.644496],[-111.89408,44.64479],[-111.891414,44.645871],[-111.880026,44.647145],[-111.876469,44.644932],[-111.871741,44.643935],[-111.86792,44.641619],[-111.867422,44.639841],[-111.866858,44.640048],[-111.864455,44.639587],[-111.863241,44.638632],[-111.862143,44.637395],[-111.861471,44.635175],[-111.860253,44.633351],[-111.858924,44.629335],[-111.855955,44.626516],[-111.854548,44.626189],[-111.853885,44.624036],[-111.851235,44.622202],[-111.847704,44.621432],[-111.847465,44.62084],[-111.846718,44.620734],[-111.846701,44.621313],[-111.845829,44.621195],[-111.845637,44.620188],[-111.844479,44.620307],[-111.843771,44.619866],[-111.843331,44.620415],[-111.842807,44.619589],[-111.836915,44.618917],[-111.832283,44.617392],[-111.826447,44.617782],[-111.82481,44.6184],[-111.823902,44.620919],[-111.824941,44.62171]]],[[[-111.81161,44.6],[-111.813409,44.6],[-111.81336,44.601457],[-111.811609,44.601385],[-111.81161,44.6]]],[[[-111.882723,44.709353],[-111.872609,44.709327],[-111.872572,44.705695],[-111.882708,44.70573],[-111.882723,44.709353]]]]}},{"type":"Feature","properties":{"id":"own-b-ranch-martinell","kind":"ownership","name":"Ranch land (Martinell)","acres":4742.2,"editable":false,"source":"Montana State Library cadastral parcels"},"geometry":{"type":"MultiPolygon","coordinates":[[[[-111.887879,44.69497],[-111.887878,44.69497],[-111.887877,44.694969],[-111.887876,44.694969],[-111.887875,44.694968],[-111.887874,44.694968],[-111.887873,44.694967],[-111.887873,44.694966],[-111.887872,44.694965],[-111.887872,44.694964],[-111.887871,44.694964],[-111.887871,44.694963],[-111.887871,44.694962],[-111.887851,44.691335],[-111.88783,44.687709],[-111.887809,44.684078],[-111.887789,44.680446],[-111.887789,44.680445],[-111.887789,44.680444],[-111.88779,44.680443],[-111.88779,44.680442],[-111.887791,44.680441],[-111.887792,44.680441],[-111.887792,44.68044],[-111.887793,44.680439],[-111.887794,44.680439],[-111.887795,44.680438],[-111.887797,44.680438],[-111.887798,44.680438],[-111.887799,44.680437],[-111.8878,44.680437],[-111.887802,44.680437],[-111.892886,44.6805],[-111.892887,44.6805],[-111.897966,44.680583],[-111.902612,44.680658],[-111.902613,44.680659],[-111.902614,44.680659],[-111.902615,44.680659],[-111.902617,44.680659],[-111.902618,44.68066],[-111.902619,44.68066],[-111.90262,44.680661],[-111.902621,44.680661],[-111.902621,44.680662],[-111.902622,44.680663],[-111.902623,44.680664],[-111.902624,44.680665],[-111.902624,44.680666],[-111.902624,44.680667],[-111.9028,44.684294],[-111.902977,44.687921],[-111.903004,44.691549],[-111.903031,44.695177],[-111.903031,44.695178],[-111.903031,44.695179],[-111.90303,44.69518],[-111.90303,44.695181],[-111.903029,44.695182],[-111.903028,44.695183],[-111.903027,44.695184],[-111.903026,44.695184],[-111.903025,44.695185],[-111.903024,44.695185],[-111.903023,44.695186],[-111.903022,44.695186],[-111.90302,44.695186],[-111.903019,44.695186],[-111.903018,44.695186],[-111.898275,44.695119],[-111.893079,44.695045],[-111.887884,44.694971],[-111.887882,44.694971],[-111.887881,44.694971],[-111.88788,44.69497],[-111.887879,44.69497]]],[[[-111.781122,44.71965],[-111.781122,44.716095],[-111.781122,44.716094],[-111.781123,44.716093],[-111.781123,44.716092],[-111.781124,44.716091],[-111.781125,44.71609],[-111.781125,44.716089],[-111.781126,44.716089],[-111.781127,44.716088],[-111.781128,44.716088],[-111.781129,44.716087],[-111.781131,44.716087],[-111.781132,44.716087],[-111.781133,44.716086],[-111.781134,44.716086],[-111.781136,44.716086],[-111.786237,44.716244],[-111.791338,44.716402],[-111.796384,44.716557],[-111.801417,44.716712],[-111.801415,44.716052],[-111.801415,44.716051],[-111.801415,44.71605],[-111.801416,44.716049],[-111.801416,44.716048],[-111.801417,44.716047],[-111.801418,44.716047],[-111.801419,44.716046],[-111.80142,44.716045],[-111.801421,44.716045],[-111.801422,44.716044],[-111.801423,44.716044],[-111.801424,44.716044],[-111.801425,44.716043],[-111.801426,44.716043],[-111.801428,44.716043],[-111.806504,44.716046],[-111.806505,44.716046],[-111.806506,44.716047],[-111.806507,44.716047],[-111.806509,44.716047],[-111.80651,44.716047],[-111.806511,44.716048],[-111.806512,44.716048],[-111.806513,44.716049],[-111.806514,44.71605],[-111.806515,44.716051],[-111.806515,44.716052],[-111.806516,44.716053],[-111.806516,44.716054],[-111.806516,44.716055],[-111.806527,44.719665],[-111.81159,44.719667],[-111.816668,44.71967],[-111.821745,44.719673],[-111.826823,44.719676],[-111.831902,44.719678],[-111.831903,44.719678],[-111.831904,44.719678],[-111.831905,44.719678],[-111.831906,44.719678],[-111.831908,44.719679],[-111.831909,44.719679],[-111.83191,44.71968],[-111.831911,44.719681],[-111.831912,44.719682],[-111.831913,44.719683],[-111.831914,44.719684],[-111.831914,44.719685],[-111.831914,44.719686],[-111.831914,44.719687],[-111.83192,44.723306],[-111.83193,44.726926],[-111.83193,44.726927],[-111.831929,44.726928],[-111.831929,44.726929],[-111.831928,44.72693],[-111.831928,44.726931],[-111.831927,44.726931],[-111.831926,44.726932],[-111.831925,44.726933],[-111.831924,44.726933],[-111.831923,44.726934],[-111.831922,44.726934],[-111.831921,44.726934],[-111.83192,44.726934],[-111.831919,44.726935],[-111.831917,44.726935],[-111.82684,44.726931],[-111.821776,44.726928],[-111.821786,44.730538],[-111.821797,44.734156],[-111.821808,44.737768],[-111.821807,44.737769],[-111.821807,44.73777],[-111.821807,44.737771],[-111.821807,44.737772],[-111.821806,44.737772],[-111.821805,44.737773],[-111.821805,44.737774],[-111.821804,44.737774],[-111.821803,44.737775],[-111.821802,44.737776],[-111.821801,44.737776],[-111.8218,44.737776],[-111.821799,44.737777],[-111.821797,44.737777],[-111.821796,44.737777],[-111.821795,44.737777],[-111.816717,44.737774],[-111.811639,44.737771],[-111.80656,44.737769],[-111.801482,44.737766],[-111.796405,44.73776],[-111.791328,44.737754],[-111.786251,44.737749],[-111.781175,44.737743],[-111.781174,44.737743],[-111.775126,44.737734],[-111.770052,44.737728],[-111.764981,44.737718],[-111.760863,44.737711],[-111.75991,44.737709],[-111.75484,44.737697],[-111.749769,44.737686],[-111.744698,44.737674],[-111.740552,44.737665],[-111.739628,44.737662],[-111.734549,44.737657],[-111.734548,44.737657],[-111.734546,44.737657],[-111.734545,44.737657],[-111.734544,44.737656],[-111.734543,44.737656],[-111.734542,44.737655],[-111.734541,44.737655],[-111.73454,44.737654],[-111.734539,44.737654],[-111.734538,44.737653],[-111.734538,44.737652],[-111.734537,44.737651],[-111.734537,44.73765],[-111.734536,44.73765],[-111.734536,44.737649],[-111.734536,44.737648],[-111.734556,44.734],[-111.734575,44.730381],[-111.734575,44.73038],[-111.734575,44.730379],[-111.734576,44.730378],[-111.734576,44.730377],[-111.734577,44.730376],[-111.734578,44.730375],[-111.734579,44.730374],[-111.73458,44.730374],[-111.734581,44.730373],[-111.734582,44.730373],[-111.734583,44.730372],[-111.734584,44.730372],[-111.734585,44.730372],[-111.734587,44.730372],[-111.734588,44.730372],[-111.73965,44.730389],[-111.739671,44.726778],[-111.739693,44.723167],[-111.734643,44.72315],[-111.734622,44.726761],[-111.734622,44.726762],[-111.734622,44.726763],[-111.734622,44.726764],[-111.734621,44.726764],[-111.734621,44.726765],[-111.73462,44.726766],[-111.734619,44.726767],[-111.734618,44.726767],[-111.734617,44.726768],[-111.734616,44.726768],[-111.734615,44.726769],[-111.734614,44.726769],[-111.734613,44.72677],[-111.734612,44.72677],[-111.734611,44.72677],[-111.734609,44.72677],[-111.729535,44.726753],[-111.72446,44.726736],[-111.724459,44.726736],[-111.724458,44.726736],[-111.724456,44.726736],[-111.724455,44.726736],[-111.724454,44.726735],[-111.724453,44.726735],[-111.724452,44.726734],[-111.724451,44.726734],[-111.72445,44.726733],[-111.72445,44.726732],[-111.724449,44.726732],[-111.724449,44.726731],[-111.724448,44.72673],[-111.724448,44.726729],[-111.724448,44.726728],[-111.724448,44.726727],[-111.72447,44.723108],[-111.724464,44.719487],[-111.724458,44.715866],[-111.724458,44.715865],[-111.724458,44.715864],[-111.724458,44.715863],[-111.724459,44.715862],[-111.72446,44.715861],[-111.724461,44.71586],[-111.724462,44.715859],[-111.724463,44.715859],[-111.724464,44.715858],[-111.724465,44.715858],[-111.724466,44.715857],[-111.724467,44.715857],[-111.724468,44.715857],[-111.724469,44.715857],[-111.724471,44.715857],[-111.729539,44.715873],[-111.734628,44.715888],[-111.739716,44.715904],[-111.744794,44.715919],[-111.749871,44.715934],[-111.754943,44.715949],[-111.761141,44.715967],[-111.766213,44.715997],[-111.771284,44.716028],[-111.776381,44.716058],[-111.776382,44.716058],[-111.776384,44.716058],[-111.776385,44.716059],[-111.776386,44.716059],[-111.776387,44.716059],[-111.776388,44.71606],[-111.776389,44.71606],[-111.77639,44.716061],[-111.776391,44.716061],[-111.776391,44.716062],[-111.776392,44.716063],[-111.776393,44.716064],[-111.776393,44.716065],[-111.776394,44.716066],[-111.776394,44.716067],[-111.776402,44.719676],[-111.781122,44.719701],[-111.781122,44.71965]]]]}}]}