{"type":"FeatureCollection","features":[{"type":"Feature","properties":{"id":"road-b1","kind":"road","name":"nan","acres":null,"editable":false,"source":"TIGER/UGRC road centerlines"},"geometry":{"type":"LineString","coordinates":[[-111.820063,44.658463],[-111.821569,44.658851],[-111.823747,44.658943],[-111.825701,44.659377],[-111.827335,44.659971],[-111.830027,44.660702],[-111.831629,44.661731],[-111.835635,44.66388],[-111.837013,44.665],[-111.837815,44.66597],[-111.838232,44.666962],[-111.83833,44.668446],[-111.838491,44.66927],[-111.838428,44.670118],[-111.837853,44.671722],[-111.836892,44.673517],[-111.836894,44.674508],[-111.837184,44.67677]]}},{"type":"Feature","properties":{"id":"road-b2","kind":"road","name":"nan","acres":null,"editable":false,"source":"TIGER/UGRC road centerlines"},"geometry":{"type":"LineString","coordinates":[[-111.739648,44.709752],[-111.73918,44.709796],[-111.737749,44.710294],[-111.737135,44.710816]]}},{"type":"Feature","properties":{"id":"road-b3","kind":"road","name":"nan","acres":null,"editable":false,"source":"TIGER/UGRC road centerlines"},"geometry":{"type":"LineString","coordinates":[[-111.965137,44.676573],[-111.965572,44.677688],[-111.965576,44.678706],[-111.964379,44.6803],[-111.963337,44.681425],[-111.963227,44.681588],[-111.96316,44.682138],[-111.963396,44.682649],[-111.963789,44.682772],[-111.964699,44.682881],[-111.965094,44.683085],[-111.96537,44.684523],[-111.965464,44.687133],[-111.965114,44.688108],[-111.964419,44.688807],[-111.964249,44.689997],[-111.964462,44.691409],[-111.96399,44.691577],[-111.962042,44.691215],[-111.952488,44.687527],[-111.945961,44.687965],[-111.945237,44.687631],[-111.944202,44.687281],[-111.940403,44.686525],[-111.938103,44.686386],[-111.936995,44.686505],[-111.934625,44.687118],[-111.933549,44.687098],[-111.93197,44.686819],[-111.930041,44.686615],[-111.928837,44.686736],[-111.928207,44.686981],[-111.927987,44.687173],[-111.927734,44.687202]]}},{"type":"Feature","properties":{"id":"road-b4","kind":"road","name":"nan","acres":null,"editable":false,"source":"TIGER/UGRC road centerlines"},"geometry":{"type":"LineString","coordinates":[[-111.920487,44.782111],[-111.921729,44.783102],[-111.922184,44.783607],[-111.922424,44.783639],[-111.923123,44.783536],[-111.923823,44.783868],[-111.924191,44.784277],[-111.924283,44.784906],[-111.924403,44.785116],[-111.924632,44.785294],[-111.9255,44.785573],[-111.925839,44.785753],[-111.928837,44.789453],[-111.929241,44.789553],[-111.929465,44.79028],[-111.930198,44.791138],[-111.930852,44.791653],[-111.931975,44.79234],[-111.933652,44.793732],[-111.933833,44.79393],[-111.933881,44.794484]]}},{"type":"Feature","properties":{"id":"road-b5","kind":"road","name":"nan","acres":null,"editable":false,"source":"TIGER/UGRC road centerlines"},"geometry":{"type":"LineString","coordinates":[[-111.901137,44.729841],[-111.900642,44.731053],[-111.900717,44.73145],[-111.901573,44.731255],[-111.902837,44.731335],[-111.903673,44.731472],[-111.90526,44.732009],[-111.908242,44.732066],[-111.909225,44.731977],[-111.910655,44.732173],[-111.911805,44.732182],[-111.915759,44.733059],[-111.917983,44.73315],[-111.919421,44.733039],[-111.921826,44.733344],[-111.922621,44.733337],[-111.924953,44.733003],[-111.925672,44.732979],[-111.927321,44.732633],[-111.927688,44.732675],[-111.93063,44.733389],[-111.931036,44.733548],[-111.934692,44.735471]]}},{"type":"Feature","properties":{"id":"road-b6","kind":"road","name":"Fish Creek Rd","acres":null,"editable":false,"source":"TIGER/UGRC road centerlines"},"geometry":{"type":"LineString","coordinates":[[-111.905343,44.699652],[-111.905514,44.699824],[-111.905802,44.69962],[-111.906306,44.699484],[-111.908418,44.699956],[-111.908979,44.700212],[-111.909959,44.700932],[-111.910206,44.700711],[-111.910894,44.701103],[-111.91259,44.701839],[-111.918444,44.70396],[-111.922232,44.705649],[-111.924551,44.706971],[-111.925062,44.707363],[-111.925255,44.707632],[-111.92541,44.70863],[-111.926016,44.709408],[-111.926514,44.709764],[-111.929009,44.711067],[-111.931131,44.711905],[-111.930881,44.71206],[-111.929086,44.712705],[-111.929213,44.713559],[-111.928869,44.714147],[-111.928678,44.714806],[-111.928309,44.715466],[-111.927946,44.716405],[-111.927635,44.716687],[-111.928812,44.71765],[-111.929421,44.71787],[-111.930024,44.717685],[-111.930509,44.718005],[-111.931699,44.718211],[-111.931965,44.718227],[-111.933161,44.718001],[-111.934163,44.717516],[-111.935201,44.716868],[-111.935962,44.715557],[-111.93648,44.715534],[-111.937127,44.715772],[-111.937446,44.715977],[-111.938895,44.717333],[-111.939468,44.71767],[-111.941295,44.71816],[-111.942155,44.718287],[-111.94285,44.7183],[-111.943623,44.718482],[-111.94458,44.719114],[-111.945304,44.719369],[-111.946493,44.720277],[-111.946688,44.720564],[-111.94689,44.722137],[-111.947009,44.722451],[-111.947728,44.723193],[-111.948221,44.724017],[-111.948489,44.724176],[-111.94967,44.725328],[-111.95023,44.725593],[-111.95163,44.727058],[-111.952039,44.727334],[-111.952929,44.727722],[-111.953216,44.728296],[-111.953524,44.728591],[-111.954389,44.72898],[-111.955564,44.729735],[-111.956796,44.730949],[-111.957533,44.731204],[-111.958966,44.732344],[-111.959893,44.732669],[-111.96045,44.73352],[-111.961701,44.734275],[-111.963329,44.735755],[-111.964343,44.735927],[-111.965032,44.7371],[-111.965248,44.737233],[-111.965565,44.737285],[-111.965846,44.737559],[-111.966019,44.737983],[-111.96599,44.738523],[-111.96652,44.738474],[-111.967233,44.738108],[-111.967556,44.737781],[-111.967832,44.737653],[-111.96806,44.737669],[-111.968381,44.737999],[-111.968634,44.738015],[-111.969022,44.737832],[-111.969309,44.737577],[-111.970367,44.737406],[-111.97102,44.737175],[-111.972113,44.736077],[-111.972938,44.735602],[-111.973462,44.735174],[-111.973659,44.734884],[-111.973705,44.734596],[-111.973667,44.733885],[-111.974191,44.733493],[-111.97523,44.732926],[-111.975457,44.732132],[-111.975916,44.731642],[-111.976317,44.73145],[-111.976933,44.731309],[-111.978169,44.7312],[-111.978684,44.731024],[-111.978777,44.730573],[-111.978774,44.729619],[-111.978917,44.729114],[-111.979115,44.728878],[-111.979717,44.728639],[-111.980417,44.728219],[-111.980696,44.728261],[-111.981044,44.728726],[-111.981272,44.728724],[-111.982048,44.728331],[-111.982207,44.728005],[-111.982443,44.727796],[-111.983098,44.727718],[-111.984625,44.72911],[-111.984893,44.729269],[-111.985426,44.729427],[-111.985841,44.730071],[-111.986304,44.730544],[-111.987386,44.731066],[-111.987656,44.731316],[-111.988827,44.731882],[-111.989597,44.731875],[-111.990079,44.731997],[-111.992079,44.732979],[-111.992943,44.733287],[-111.993438,44.732706],[-111.994667,44.730733],[-111.994632,44.729401],[-111.995435,44.729853],[-111.995694,44.730211],[-111.996076,44.730414],[-111.997767,44.731813],[-111.997963,44.732153],[-111.998891,44.733235],[-111.998944,44.733423],[-111.999327,44.733636],[-111.999895,44.735071],[-112.000464,44.735858],[-112.004495,44.737408],[-112.005096,44.737843],[-112.005828,44.738575],[-112.008761,44.73945],[-112.010149,44.739311],[-112.011565,44.739416],[-112.012415,44.739615],[-112.015251,44.740031],[-112.018957,44.740313],[-112.020856,44.740539],[-112.022042,44.740466],[-112.022916,44.74062],[-112.023092,44.740564],[-112.023141,44.740456],[-112.023145,44.739961],[-112.023356,44.739779],[-112.024008,44.739503],[-112.02509,44.738539],[-112.025864,44.738037],[-112.026841,44.73756],[-112.027936,44.737316],[-112.028383,44.737301]]}},{"type":"Feature","properties":{"id":"road-b7","kind":"road","name":"nan","acres":null,"editable":false,"source":"TIGER/UGRC road centerlines"},"geometry":{"type":"LineString","coordinates":[[-111.818535,44.731184],[-111.818604,44.731308],[-111.819402,44.731702],[-111.820039,44.732234],[-111.820893,44.733454],[-111.821037,44.73385]]}},{"type":"Feature","properties":{"id":"road-b8","kind":"road","name":"N Valley Rd","acres":null,"editable":false,"source":"TIGER/UGRC road centerlines"},"geometry":{"type":"LineString","coordinates":[[-111.753188,44.675435],[-111.758102,44.675909],[-111.760711,44.676051],[-111.762164,44.676842],[-111.7636,44.677187],[-111.764755,44.677742],[-111.766005,44.678094],[-111.767318,44.678691],[-111.769257,44.679335],[-111.770185,44.67952],[-111.800655,44.680146],[-111.802621,44.68008],[-111.807907,44.679428],[-111.820146,44.676445],[-111.822144,44.676413],[-111.83145,44.676643],[-111.833604,44.677008],[-111.835714,44.676755],[-111.836999,44.67673],[-111.837262,44.676805],[-111.837413,44.676985],[-111.837272,44.679259],[-111.837341,44.67959],[-111.837827,44.680607],[-111.837912,44.681393],[-111.837822,44.681809],[-111.837335,44.682592],[-111.836806,44.683719],[-111.836658,44.684305],[-111.836938,44.685059],[-111.837175,44.685317],[-111.837456,44.685452],[-111.838057,44.685575],[-111.840751,44.685814],[-111.841107,44.685955],[-111.842117,44.686577],[-111.843043,44.686955],[-111.844739,44.687292],[-111.846339,44.687819],[-111.846896,44.687931],[-111.847157,44.687952],[-111.850279,44.687571],[-111.851488,44.687514],[-111.857168,44.688179],[-111.875111,44.69324],[-111.876774,44.693809],[-111.877422,44.694199],[-111.878751,44.694669],[-111.881218,44.694717],[-111.885248,44.6945],[-111.888119,44.694693],[-111.889487,44.694952],[-111.891506,44.695015],[-111.896641,44.695458],[-111.896977,44.695383],[-111.89725,44.695226],[-111.899845,44.693355],[-111.903309,44.691427],[-111.903655,44.69101],[-111.905177,44.688533],[-111.90578,44.688078],[-111.906715,44.687819],[-111.909902,44.687563],[-111.910897,44.687412],[-111.913475,44.686345],[-111.916072,44.685465],[-111.919045,44.684135],[-111.921242,44.683301],[-111.924421,44.682453],[-111.931394,44.68103],[-111.931976,44.680718],[-111.933411,44.679443],[-111.934116,44.678989],[-111.937822,44.67776],[-111.940592,44.676525],[-111.941281,44.676009],[-111.942303,44.674985],[-111.94344,44.674097],[-111.944164,44.673348],[-111.944794,44.671717],[-111.945005,44.670488],[-111.94527,44.669706],[-111.94574,44.668978],[-111.946408,44.668571],[-111.947799,44.668294],[-111.954675,44.667692],[-111.958038,44.667133],[-111.962241,44.666586],[-111.964292,44.666406],[-111.979084,44.666443],[-111.979847,44.666371],[-111.980204,44.666196],[-111.980515,44.665792],[-111.980857,44.664579],[-111.980843,44.663932],[-111.980365,44.662394],[-111.980505,44.661626],[-111.980897,44.66108],[-111.981685,44.660248],[-111.983593,44.659046],[-111.984524,44.658742],[-111.986361,44.658524],[-111.987439,44.658612],[-111.989417,44.659044],[-111.990094,44.659125],[-111.991082,44.659055],[-111.993238,44.658688],[-111.993614,44.658541],[-111.994024,44.658216],[-111.995674,44.65643],[-111.997136,44.655718],[-111.997747,44.655594],[-111.998421,44.655587],[-112.000883,44.655824],[-112.001351,44.655766],[-112.001919,44.655548],[-112.003695,44.654271],[-112.004925,44.652599],[-112.005564,44.652129],[-112.006678,44.651854],[-112.008111,44.651158],[-112.010429,44.650621],[-112.011247,44.650512],[-112.013033,44.650512],[-112.013894,44.650368],[-112.014364,44.650123],[-112.015163,44.649394],[-112.015559,44.649229],[-112.016505,44.64927],[-112.019489,44.649649],[-112.02196,44.649804],[-112.025517,44.650229],[-112.026469,44.650617],[-112.02758,44.651507],[-112.028099,44.651644],[-112.049041,44.652509],[-112.055926,44.652984],[-112.064352,44.653726],[-112.065859,44.653701],[-112.068439,44.653535],[-112.070882,44.653591],[-112.07218,44.653827],[-112.079112,44.655505],[-112.079557,44.655558],[-112.080076,44.655416],[-112.084842,44.652829],[-112.085702,44.652559],[-112.111853,44.652593],[-112.11219,44.652407],[-112.112345,44.652006],[-112.112266,44.646529],[-112.112322,44.646243],[-112.112524,44.646047],[-112.112918,44.645972],[-112.122116,44.645455],[-112.122734,44.645503],[-112.124531,44.645998],[-112.125123,44.646003],[-112.126833,44.645791],[-112.127697,44.645616],[-112.128494,44.645345],[-112.136137,44.642412],[-112.142214,44.645626],[-112.143077,44.645778],[-112.146619,44.646024],[-112.1469,44.646096],[-112.147021,44.646273],[-112.14687,44.667391],[-112.147027,44.67696],[-112.14687,44.695852],[-112.146905,44.696136],[-112.147029,44.696269],[-112.147458,44.696349],[-112.159918,44.696416],[-112.160433,44.69619],[-112.161045,44.695353],[-112.161465,44.694957],[-112.161903,44.694751],[-112.162568,44.694675],[-112.163315,44.694753],[-112.164684,44.695111],[-112.167463,44.696511],[-112.168137,44.696663],[-112.170711,44.696516],[-112.174268,44.696451],[-112.196772,44.696635],[-112.197234,44.696545],[-112.197748,44.696272],[-112.203925,44.691681],[-112.204687,44.691321],[-112.205442,44.691185],[-112.206387,44.69141],[-112.212457,44.693552],[-112.217143,44.696073],[-112.217611,44.696268],[-112.218047,44.696346]]}},{"type":"Feature","properties":{"id":"road-b9","kind":"road","name":"Elk Lake Rd","acres":null,"editable":false,"source":"TIGER/UGRC road centerlines"},"geometry":{"type":"LineString","coordinates":[[-111.651329,44.615834],[-111.651669,44.61598],[-111.656133,44.616618],[-111.65629,44.616806],[-111.656514,44.618016],[-111.658176,44.618815],[-111.658805,44.619484],[-111.659008,44.619899],[-111.659057,44.620737],[-111.659219,44.62147],[-111.659215,44.624047],[-111.659079,44.62616],[-111.659096,44.642961],[-111.658895,44.643466],[-111.657601,44.644124],[-111.657242,44.644402],[-111.656671,44.645923],[-111.656907,44.6463],[-111.660116,44.648666],[-111.660211,44.64964],[-111.659993,44.650661],[-111.659316,44.651949],[-111.65907,44.652027],[-111.65784,44.651973],[-111.657219,44.652137],[-111.656508,44.652683],[-111.655227,44.653931],[-111.654626,44.654369],[-111.654221,44.654553],[-111.653742,44.654627],[-111.653097,44.654615],[-111.650814,44.654299],[-111.648589,44.654125],[-111.647492,44.654221],[-111.646363,44.654563],[-111.645287,44.655308],[-111.644386,44.656111],[-111.643793,44.656889],[-111.642759,44.658603],[-111.642038,44.6593],[-111.64139,44.659573],[-111.638807,44.660098],[-111.636848,44.660411],[-111.636222,44.66056],[-111.635974,44.660699],[-111.634857,44.662074],[-111.633928,44.662742],[-111.632574,44.663495],[-111.632046,44.664239],[-111.631912,44.664998],[-111.632002,44.666059],[-111.631833,44.667483],[-111.631315,44.669612],[-111.631294,44.670062],[-111.63137,44.67026],[-111.632196,44.671147],[-111.632576,44.671948],[-111.632462,44.672441],[-111.632028,44.672765],[-111.631179,44.672573],[-111.630778,44.672581],[-111.63005,44.672726],[-111.628656,44.673208],[-111.62826,44.673473],[-111.627382,44.673869],[-111.626899,44.674313],[-111.626014,44.674487],[-111.625151,44.675321],[-111.624418,44.675436],[-111.624332,44.675662],[-111.624645,44.676395],[-111.624782,44.677017],[-111.624452,44.677609],[-111.624013,44.677882]]}},{"type":"Feature","properties":{"id":"road-b10","kind":"road","name":"nan","acres":null,"editable":false,"source":"TIGER/UGRC road centerlines"},"geometry":{"type":"LineString","coordinates":[[-111.826225,44.69479],[-111.825487,44.695218],[-111.823466,44.696025],[-111.821748,44.69683],[-111.820963,44.697492],[-111.819547,44.698277],[-111.818585,44.698968],[-111.816401,44.700694],[-111.815859,44.701697],[-111.815237,44.702323],[-111.814833,44.703253]]}},{"type":"Feature","properties":{"id":"road-b11","kind":"road","name":"nan","acres":null,"editable":false,"source":"TIGER/UGRC road centerlines"},"geometry":{"type":"LineString","coordinates":[[-111.735332,44.718062],[-111.735869,44.719143],[-111.736688,44.720217],[-111.73688,44.720613],[-111.736888,44.721026],[-111.736773,44.72141],[-111.736924,44.722021],[-111.736567,44.723543],[-111.736854,44.724957],[-111.737244,44.72549],[-111.738524,44.726578],[-111.738621,44.726852],[-111.738605,44.727298]]}},{"type":"Feature","properties":{"id":"road-b12","kind":"road","name":"nan","acres":null,"editable":false,"source":"TIGER/UGRC road centerlines"},"geometry":{"type":"LineString","coordinates":[[-111.76869,44.730846],[-111.768869,44.731227],[-111.76883,44.731372],[-111.768137,44.731861],[-111.767246,44.73345],[-111.766739,44.733963],[-111.76648,44.734408],[-111.76511,44.735496],[-111.764046,44.736613],[-111.763426,44.737717],[-111.762637,44.738615],[-111.762423,44.739267],[-111.762354,44.740099],[-111.762044,44.740386],[-111.761776,44.740495],[-111.761357,44.74048],[-111.759078,44.740009],[-111.757527,44.73952],[-111.756543,44.739371],[-111.756336,44.739442],[-111.756261,44.739747],[-111.756499,44.740091],[-111.757499,44.740424],[-111.758293,44.741117]]}},{"type":"Feature","properties":{"id":"road-b13","kind":"road","name":"nan","acres":null,"editable":false,"source":"TIGER/UGRC road centerlines"},"geometry":{"type":"LineString","coordinates":[[-111.958214,44.745089],[-111.958031,44.74535],[-111.957555,44.745633],[-111.957643,44.746363],[-111.957397,44.74676],[-111.955393,44.747902],[-111.953917,44.748851],[-111.953074,44.749028],[-111.95261,44.749239],[-111.951773,44.749903],[-111.951107,44.751646],[-111.950985,44.752754],[-111.950707,44.753522],[-111.950814,44.753863],[-111.950712,44.754593],[-111.950351,44.755758],[-111.950102,44.756003],[-111.949101,44.756614],[-111.948378,44.757214],[-111.947797,44.758056],[-111.947186,44.759358],[-111.947109,44.760061],[-111.948658,44.762155],[-111.949389,44.762798],[-111.949635,44.763184],[-111.94976,44.763867],[-111.950017,44.76409],[-111.950085,44.764395],[-111.949937,44.764649],[-111.948615,44.765749],[-111.947593,44.766729],[-111.947687,44.7678],[-111.947399,44.76873],[-111.946797,44.769878],[-111.946709,44.770671],[-111.945799,44.772308],[-111.945886,44.772947],[-111.945814,44.773217],[-111.945388,44.774292],[-111.944992,44.774809],[-111.944671,44.776099],[-111.944036,44.77749],[-111.943815,44.779482],[-111.943511,44.780303],[-111.943172,44.782109]]}},{"type":"Feature","properties":{"id":"road-b14","kind":"road","name":"nan","acres":null,"editable":false,"source":"TIGER/UGRC road centerlines"},"geometry":{"type":"LineString","coordinates":[[-111.710888,44.66678],[-111.720679,44.666757],[-111.720538,44.675349],[-111.720456,44.675824],[-111.721925,44.676727],[-111.722715,44.677335],[-111.723324,44.677601],[-111.724286,44.677865],[-111.726521,44.677977],[-111.728859,44.678259],[-111.729112,44.678383],[-111.73026,44.679339],[-111.730767,44.679525],[-111.731727,44.679591],[-111.735411,44.679549],[-111.735929,44.679627],[-111.736107,44.679743],[-111.737718,44.681362],[-111.737987,44.681738],[-111.738768,44.68357],[-111.738746,44.683867],[-111.738512,44.684274],[-111.738453,44.684598],[-111.73837,44.686066],[-111.737967,44.68705],[-111.738032,44.688193],[-111.738169,44.688694]]}},{"type":"Feature","properties":{"id":"road-b15","kind":"road","name":"nan","acres":null,"editable":false,"source":"TIGER/UGRC road centerlines"},"geometry":{"type":"LineString","coordinates":[[-111.739648,44.709752],[-111.738981,44.710348],[-111.738541,44.711424],[-111.737379,44.7121],[-111.737186,44.712662],[-111.736579,44.713495],[-111.736064,44.713997],[-111.73539,44.715095],[-111.735666,44.716617],[-111.735356,44.717662],[-111.735332,44.718062]]}},{"type":"Feature","properties":{"id":"road-b16","kind":"road","name":"State Hwy 509","acres":null,"editable":false,"source":"TIGER/UGRC road centerlines"},"geometry":{"type":"LineString","coordinates":[[-111.745617,44.592129],[-111.747835,44.592033],[-111.760142,44.592265],[-111.781228,44.592538],[-111.795779,44.592628],[-111.796392,44.59269],[-111.798164,44.59334],[-111.801798,44.594953],[-111.804336,44.595934],[-111.805529,44.596577],[-111.806505,44.596993],[-111.808674,44.597716],[-111.810103,44.598049],[-111.810832,44.598386],[-111.810953,44.598542],[-111.811019,44.598941],[-111.811033,44.600852],[-111.811303,44.603716],[-111.811679,44.604848],[-111.812048,44.605621],[-111.812906,44.606812],[-111.813206,44.606966],[-111.813539,44.607019],[-111.81608,44.606999],[-111.817962,44.606905],[-111.828057,44.605507],[-111.831318,44.605432],[-111.835028,44.605901],[-111.835962,44.606138],[-111.838116,44.607056],[-111.839818,44.60837],[-111.841476,44.609336],[-111.842793,44.609858],[-111.844499,44.610412],[-111.845827,44.610691],[-111.847576,44.61067],[-111.850959,44.610404],[-111.854047,44.610003],[-111.856795,44.609852],[-111.865082,44.610873],[-111.871305,44.611428],[-111.873315,44.61148],[-111.877689,44.611287],[-111.878685,44.611385],[-111.881852,44.611936],[-111.887227,44.612293],[-111.904272,44.612624],[-111.910637,44.612959],[-111.911614,44.612864],[-111.913817,44.612214],[-111.920589,44.611336],[-111.92234,44.611223],[-111.923185,44.611075],[-111.923847,44.610842],[-111.924825,44.610263],[-111.925488,44.610018],[-111.928679,44.609556],[-111.930296,44.609078],[-111.931286,44.608536],[-111.932415,44.607353],[-111.933118,44.606845],[-111.933825,44.606467],[-111.93563,44.60584],[-111.938654,44.604973],[-111.939378,44.604826],[-111.942126,44.604887],[-111.945569,44.604408],[-111.948923,44.603408],[-111.950446,44.602803],[-111.960347,44.597571],[-111.962464,44.596584],[-111.979259,44.590863],[-111.980942,44.590361],[-111.98205,44.59021],[-111.983052,44.590193],[-111.988535,44.590624],[-112.001746,44.594072],[-112.003427,44.59444],[-112.004416,44.594491],[-112.007746,44.594186],[-112.008698,44.593999],[-112.012795,44.591918],[-112.024325,44.587208],[-112.025027,44.586973],[-112.025514,44.586907],[-112.060246,44.586979],[-112.064212,44.586896],[-112.071288,44.586944],[-112.075673,44.586869],[-112.080174,44.587073],[-112.082996,44.587549],[-112.091048,44.588417],[-112.091795,44.588732],[-112.094586,44.590406],[-112.098432,44.592417],[-112.102327,44.59387],[-112.103288,44.594091],[-112.106418,44.594291],[-112.10812,44.594584],[-112.109634,44.595007],[-112.112503,44.596111],[-112.113359,44.596265],[-112.11572,44.596499],[-112.118705,44.597188],[-112.124804,44.597717],[-112.131213,44.59756],[-112.132832,44.597647],[-112.156433,44.600006],[-112.157175,44.60011],[-112.158817,44.600553],[-112.160034,44.600767],[-112.169128,44.60153],[-112.170818,44.601827],[-112.172449,44.601967],[-112.174511,44.602343],[-112.177373,44.602585],[-112.178603,44.602398],[-112.180667,44.601544],[-112.181807,44.601212],[-112.185052,44.600915],[-112.191505,44.600153],[-112.192771,44.600174],[-112.200252,44.600821],[-112.200999,44.600778],[-112.201967,44.600577],[-112.217259,44.596198],[-112.226806,44.591707],[-112.233737,44.588291],[-112.242551,44.584506],[-112.245307,44.583636],[-112.246053,44.583596],[-112.247794,44.583774],[-112.251018,44.584515],[-112.25578,44.585267],[-112.257148,44.585358],[-112.259404,44.585381],[-112.262509,44.585102],[-112.263349,44.584911],[-112.264043,44.584528],[-112.266665,44.582585],[-112.267169,44.582312],[-112.267639,44.582181],[-112.268252,44.582135],[-112.268876,44.582195],[-112.270765,44.582702],[-112.271986,44.582923],[-112.273368,44.582964],[-112.275011,44.582892],[-112.281203,44.582052],[-112.286282,44.580257],[-112.289041,44.57937],[-112.289652,44.579392],[-112.290507,44.579762],[-112.29098,44.579854],[-112.292624,44.579808],[-112.294619,44.579938],[-112.295245,44.579863],[-112.29662,44.57924],[-112.297836,44.578097],[-112.299048,44.577318],[-112.299706,44.577075],[-112.301115,44.576717],[-112.302016,44.576107],[-112.302439,44.575929],[-112.303155,44.57579],[-112.304135,44.575856],[-112.304592,44.575717],[-112.30486,44.575535],[-112.305057,44.575214],[-112.305122,44.5745],[-112.305341,44.57373],[-112.305217,44.572929],[-112.305259,44.572405],[-112.306256,44.571294],[-112.306814,44.569822],[-112.308181,44.567734],[-112.314771,44.561238],[-112.315345,44.560904],[-112.31639,44.560581]]}},{"type":"Feature","properties":{"id":"road-b17","kind":"road","name":"nan","acres":null,"editable":false,"source":"TIGER/UGRC road centerlines"},"geometry":{"type":"LineString","coordinates":[[-111.854959,44.71927],[-111.854973,44.719379],[-111.855228,44.719522],[-111.856865,44.720086],[-111.857655,44.720557],[-111.858798,44.721034],[-111.860356,44.722193],[-111.861867,44.722812],[-111.861847,44.723118],[-111.860223,44.724337],[-111.860217,44.72476],[-111.860475,44.725154],[-111.860479,44.725415],[-111.859786,44.726329],[-111.859596,44.726769],[-111.859266,44.727036],[-111.858151,44.727674],[-111.856505,44.728254],[-111.855919,44.728735],[-111.855046,44.728643],[-111.854526,44.728494],[-111.853559,44.727988],[-111.85269,44.727256],[-111.852143,44.727044],[-111.851702,44.727056],[-111.850922,44.727287],[-111.850329,44.72731],[-111.849191,44.727237],[-111.848304,44.72701],[-111.847863,44.727058],[-111.846566,44.727374],[-111.845349,44.727905],[-111.84456,44.728352],[-111.841897,44.729335],[-111.841469,44.729419],[-111.840635,44.729362],[-111.837883,44.730364],[-111.836721,44.730345],[-111.835885,44.731009],[-111.835206,44.731239],[-111.834505,44.731685]]}},{"type":"Feature","properties":{"id":"road-b18","kind":"road","name":"nan","acres":null,"editable":false,"source":"TIGER/UGRC road centerlines"},"geometry":{"type":"LineString","coordinates":[[-111.834505,44.731685],[-111.834408,44.73192],[-111.834589,44.732242],[-111.835866,44.73325],[-111.838117,44.734314],[-111.839851,44.735418],[-111.841797,44.736348],[-111.84375,44.737783],[-111.845009,44.738341],[-111.846323,44.739241],[-111.847205,44.739981],[-111.848353,44.741575],[-111.851308,44.743273],[-111.853133,44.744519],[-111.855156,44.74554],[-111.856649,44.746501],[-111.857666,44.746934],[-111.858252,44.748109],[-111.858927,44.748518],[-111.85993,44.748835],[-111.860681,44.749234],[-111.861868,44.750071],[-111.863357,44.750789],[-111.863984,44.751333],[-111.864127,44.751585],[-111.864943,44.752101],[-111.865831,44.752337],[-111.866549,44.753034],[-111.868328,44.753749],[-111.870059,44.754555],[-111.870566,44.754704],[-111.871047,44.754728],[-111.872693,44.754148],[-111.873688,44.753934],[-111.874269,44.753893],[-111.874791,44.753969],[-111.875405,44.753848],[-111.875968,44.753502],[-111.8775,44.752032],[-111.878227,44.751648],[-111.879158,44.751353],[-111.879897,44.750978],[-111.881131,44.749834],[-111.881471,44.749813],[-111.881764,44.74991],[-111.882926,44.75072],[-111.883661,44.750904]]}},{"type":"Feature","properties":{"id":"road-b19","kind":"road","name":"nan","acres":null,"editable":false,"source":"TIGER/UGRC road centerlines"},"geometry":{"type":"LineString","coordinates":[[-111.738169,44.688694],[-111.739462,44.691523],[-111.740716,44.69382],[-111.74076,44.694315]]}},{"type":"Feature","properties":{"id":"road-b20","kind":"road","name":"nan","acres":null,"editable":false,"source":"TIGER/UGRC road centerlines"},"geometry":{"type":"LineString","coordinates":[[-111.735332,44.718062],[-111.734937,44.71815],[-111.733967,44.719163]]}},{"type":"Feature","properties":{"id":"road-b21","kind":"road","name":"nan","acres":null,"editable":false,"source":"TIGER/UGRC road centerlines"},"geometry":{"type":"LineString","coordinates":[[-111.97926,44.652332],[-111.97356,44.652479]]}},{"type":"Feature","properties":{"id":"road-b22","kind":"road","name":"nan","acres":null,"editable":false,"source":"TIGER/UGRC road centerlines"},"geometry":{"type":"LineString","coordinates":[[-111.814059,44.717477],[-111.811478,44.717006],[-111.809946,44.716648],[-111.806187,44.715981],[-111.804179,44.715986],[-111.801981,44.715903],[-111.801576,44.715834],[-111.80063,44.715912]]}},{"type":"Feature","properties":{"id":"road-b23","kind":"road","name":"nan","acres":null,"editable":false,"source":"TIGER/UGRC road centerlines"},"geometry":{"type":"LineString","coordinates":[[-111.814833,44.703253],[-111.814487,44.703742],[-111.814248,44.703833]]}},{"type":"Feature","properties":{"id":"road-b24","kind":"road","name":"Brundage Ln","acres":null,"editable":false,"source":"TIGER/UGRC road centerlines"},"geometry":{"type":"LineString","coordinates":[[-111.953535,44.601171],[-111.953659,44.6016],[-111.953994,44.614681],[-111.953765,44.622266],[-111.95379,44.622516],[-111.954112,44.623214],[-111.954228,44.625917],[-111.954272,44.637193],[-111.953994,44.644426],[-111.97126,44.651514],[-111.975188,44.653202],[-111.977017,44.654085],[-111.979099,44.655232],[-111.981143,44.657048],[-111.982969,44.657914],[-111.983552,44.658313]]}},{"type":"Feature","properties":{"id":"road-b25","kind":"road","name":"nan","acres":null,"editable":false,"source":"TIGER/UGRC road centerlines"},"geometry":{"type":"LineString","coordinates":[[-111.811038,44.600253],[-111.814808,44.600192]]}},{"type":"Feature","properties":{"id":"road-b26","kind":"road","name":"nan","acres":null,"editable":false,"source":"TIGER/UGRC road centerlines"},"geometry":{"type":"LineString","coordinates":[[-111.796708,44.727283],[-111.798425,44.727271],[-111.798957,44.727339],[-111.799928,44.727269],[-111.802808,44.727312],[-111.803542,44.727424],[-111.806757,44.727059],[-111.810063,44.727774],[-111.811509,44.728214],[-111.813649,44.728658],[-111.815023,44.729341],[-111.816899,44.730741],[-111.817991,44.731165],[-111.818535,44.731184]]}},{"type":"Feature","properties":{"id":"road-b27","kind":"road","name":"S Valley Rd","acres":null,"editable":false,"source":"TIGER/UGRC road centerlines"},"geometry":{"type":"LineString","coordinates":[[-112.31639,44.560581],[-112.315345,44.560904],[-112.314771,44.561238],[-112.308181,44.567734],[-112.306814,44.569822],[-112.306256,44.571294],[-112.305259,44.572405],[-112.305217,44.572929],[-112.305341,44.57373],[-112.305122,44.5745],[-112.305057,44.575214],[-112.30486,44.575535],[-112.304592,44.575717],[-112.304135,44.575856],[-112.303155,44.57579],[-112.302439,44.575929],[-112.302016,44.576107],[-112.301115,44.576717],[-112.299706,44.577075],[-112.299048,44.577318],[-112.297836,44.578097],[-112.29662,44.57924],[-112.295245,44.579863],[-112.294619,44.579938],[-112.292624,44.579808],[-112.29098,44.579854],[-112.290507,44.579762],[-112.289652,44.579392],[-112.289041,44.57937],[-112.286282,44.580257],[-112.281203,44.582052],[-112.275011,44.582892],[-112.273368,44.582964],[-112.271986,44.582923],[-112.270765,44.582702],[-112.268876,44.582195],[-112.268252,44.582135],[-112.267639,44.582181],[-112.267169,44.582312],[-112.266665,44.582585],[-112.264043,44.584528],[-112.263349,44.584911],[-112.262509,44.585102],[-112.259404,44.585381],[-112.257148,44.585358],[-112.25578,44.585267],[-112.251018,44.584515],[-112.247794,44.583774],[-112.246053,44.583596],[-112.245307,44.583636],[-112.242551,44.584506],[-112.233737,44.588291],[-112.226806,44.591707],[-112.217259,44.596198],[-112.201967,44.600577],[-112.200999,44.600778],[-112.200252,44.600821],[-112.192771,44.600174],[-112.191505,44.600153],[-112.185052,44.600915],[-112.181807,44.601212],[-112.180667,44.601544],[-112.178603,44.602398],[-112.177373,44.602585],[-112.174511,44.602343],[-112.172449,44.601967],[-112.170818,44.601827],[-112.169128,44.60153],[-112.160034,44.600767],[-112.158817,44.600553],[-112.157175,44.60011],[-112.156433,44.600006],[-112.132832,44.597647],[-112.131213,44.59756],[-112.124804,44.597717],[-112.118705,44.597188],[-112.11572,44.596499],[-112.113359,44.596265],[-112.112503,44.596111],[-112.109634,44.595007],[-112.10812,44.594584],[-112.106418,44.594291],[-112.103288,44.594091],[-112.102327,44.59387],[-112.098432,44.592417],[-112.094586,44.590406],[-112.091795,44.588732],[-112.091048,44.588417],[-112.082996,44.587549],[-112.080174,44.587073],[-112.075673,44.586869],[-112.071288,44.586944],[-112.064212,44.586896],[-112.060246,44.586979],[-112.025514,44.586907],[-112.025027,44.586973],[-112.024325,44.587208],[-112.012795,44.591918],[-112.008698,44.593999],[-112.007746,44.594186],[-112.004416,44.594491],[-112.003427,44.59444],[-112.001746,44.594072],[-111.988535,44.590624],[-111.983052,44.590193],[-111.98205,44.59021],[-111.980942,44.590361],[-111.979259,44.590863],[-111.962464,44.596584],[-111.960347,44.597571],[-111.950446,44.602803],[-111.948923,44.603408],[-111.945569,44.604408],[-111.942126,44.604887],[-111.939378,44.604826],[-111.938654,44.604973],[-111.93563,44.60584],[-111.933825,44.606467],[-111.933118,44.606845],[-111.932415,44.607353],[-111.931286,44.608536],[-111.930296,44.609078],[-111.928679,44.609556],[-111.925488,44.610018],[-111.924825,44.610263],[-111.923847,44.610842],[-111.923185,44.611075],[-111.92234,44.611223],[-111.920589,44.611336],[-111.913817,44.612214],[-111.911614,44.612864],[-111.910637,44.612959],[-111.904272,44.612624],[-111.887227,44.612293],[-111.881852,44.611936],[-111.878685,44.611385],[-111.877689,44.611287],[-111.873315,44.61148],[-111.871305,44.611428],[-111.865082,44.610873],[-111.856795,44.609852],[-111.854047,44.610003],[-111.850959,44.610404],[-111.847576,44.61067],[-111.845827,44.610691],[-111.844499,44.610412],[-111.842793,44.609858],[-111.841476,44.609336],[-111.839818,44.60837],[-111.838116,44.607056],[-111.835962,44.606138],[-111.835028,44.605901],[-111.831318,44.605432],[-111.828057,44.605507],[-111.817962,44.606905],[-111.815326,44.607014],[-111.813326,44.606992],[-111.812835,44.606743],[-111.811942,44.605454],[-111.811303,44.603716],[-111.811033,44.600852],[-111.811019,44.598941],[-111.810953,44.598542],[-111.810832,44.598386],[-111.810103,44.598049],[-111.808674,44.597716],[-111.806505,44.596993],[-111.805529,44.596577],[-111.804336,44.595934],[-111.801798,44.594953],[-111.798164,44.59334],[-111.796857,44.592821],[-111.79616,44.592652],[-111.778094,44.5925],[-111.747835,44.592033],[-111.743583,44.592155],[-111.737682,44.591836],[-111.735351,44.592157],[-111.732231,44.592248],[-111.730639,44.592625],[-111.729222,44.592807],[-111.728372,44.592643],[-111.727794,44.59245],[-111.726474,44.591624],[-111.72589,44.591483],[-111.720536,44.591752],[-111.718032,44.591777],[-111.705853,44.591686],[-111.704099,44.591644],[-111.701609,44.591473],[-111.693842,44.590431],[-111.685903,44.588719],[-111.68443,44.588225],[-111.683946,44.58815],[-111.659799,44.588261],[-111.659325,44.588363],[-111.659182,44.588499],[-111.659108,44.588762],[-111.65906,44.597835],[-111.658889,44.598069],[-111.657383,44.599268],[-111.656203,44.600545],[-111.654791,44.602544],[-111.654433,44.603501],[-111.654149,44.604924],[-111.654098,44.606985],[-111.654215,44.607427],[-111.654964,44.608569],[-111.655073,44.608914],[-111.654793,44.610046],[-111.654485,44.612183],[-111.653664,44.613677],[-111.652817,44.614677],[-111.651246,44.61589],[-111.650458,44.616309],[-111.649943,44.61641],[-111.648874,44.616178],[-111.647027,44.615259],[-111.646501,44.615068],[-111.639718,44.613437],[-111.637876,44.613311],[-111.633414,44.613256],[-111.632238,44.613174],[-111.613735,44.610654],[-111.612985,44.610647],[-111.612275,44.610775],[-111.61131,44.611299],[-111.609706,44.611853],[-111.607427,44.612295],[-111.606333,44.612293],[-111.605546,44.612025],[-111.599336,44.609183],[-111.595569,44.607676],[-111.594832,44.607074],[-111.593158,44.605138],[-111.59058,44.603196],[-111.590102,44.603011],[-111.588037,44.602924],[-111.586667,44.602983],[-111.583932,44.602947],[-111.580063,44.602757],[-111.577402,44.602899],[-111.568296,44.602813],[-111.563192,44.602849],[-111.562751,44.602717],[-111.562486,44.602375],[-111.562206,44.599845],[-111.561782,44.599432],[-111.561224,44.599186],[-111.556511,44.599127],[-111.54928,44.599167],[-111.545074,44.599094],[-111.544214,44.598933],[-111.535178,44.596525],[-111.534432,44.596404],[-111.533815,44.59644],[-111.533226,44.596627],[-111.532982,44.596827],[-111.532621,44.597372],[-111.531998,44.5978],[-111.530233,44.598315],[-111.52856,44.598706],[-111.52748,44.598859],[-111.52606,44.598921],[-111.523807,44.598611]]}},{"type":"Feature","properties":{"id":"road-b28","kind":"road","name":"Gravelly Range Rd","acres":null,"editable":false,"source":"TIGER/UGRC road centerlines"},"geometry":{"type":"LineString","coordinates":[[-111.905514,44.699824],[-111.90533,44.700418],[-111.904163,44.702647],[-111.903971,44.703815],[-111.903643,44.704839],[-111.903011,44.705639],[-111.902667,44.706615],[-111.90221,44.707024],[-111.901458,44.707368],[-111.900242,44.708624],[-111.900074,44.71056],[-111.900122,44.71096],[-111.90061,44.712456],[-111.901354,44.713281],[-111.901314,44.713785],[-111.90193,44.715297],[-111.902074,44.715985],[-111.902074,44.716513],[-111.901658,44.717249],[-111.902242,44.718241],[-111.902526,44.718999],[-111.902383,44.719964],[-111.902151,44.720465],[-111.901961,44.721242],[-111.902098,44.72191],[-111.902572,44.722907],[-111.902778,44.724224],[-111.902555,44.725465],[-111.901901,44.72694],[-111.901899,44.728167],[-111.901729,44.728449],[-111.901287,44.728827],[-111.90114,44.729275],[-111.901137,44.729841],[-111.900416,44.730735],[-111.900378,44.731729],[-111.900858,44.73316],[-111.901999,44.735123],[-111.902184,44.735589],[-111.902981,44.736492],[-111.903075,44.736906],[-111.902842,44.737331],[-111.902639,44.738043],[-111.900521,44.739942],[-111.899782,44.741154],[-111.899574,44.741615],[-111.899218,44.743067],[-111.898756,44.744232],[-111.898284,44.744749],[-111.897221,44.745432],[-111.897286,44.745594],[-111.897388,44.745611],[-111.89827,44.745487],[-111.899284,44.745686],[-111.899526,44.74581],[-111.899949,44.746248],[-111.899977,44.746428],[-111.899855,44.746717],[-111.898859,44.747625],[-111.898774,44.747833],[-111.898823,44.748597],[-111.898597,44.748653],[-111.898368,44.748556],[-111.897244,44.747773],[-111.896851,44.747704],[-111.896348,44.747816],[-111.895102,44.748924],[-111.894843,44.74934],[-111.894751,44.749908],[-111.894391,44.750334],[-111.89323,44.751279],[-111.893086,44.751766],[-111.893296,44.752269],[-111.894597,44.753042],[-111.89493,44.753354],[-111.895112,44.753686],[-111.895077,44.754686],[-111.895592,44.755348],[-111.895898,44.75548],[-111.896684,44.755645],[-111.898505,44.755784],[-111.898878,44.756213],[-111.899492,44.758306],[-111.899543,44.75917],[-111.899915,44.760337],[-111.899849,44.761013],[-111.900521,44.762754],[-111.900604,44.765688],[-111.900916,44.766262],[-111.901466,44.766672],[-111.902684,44.766968],[-111.904471,44.768151],[-111.904576,44.768403],[-111.903736,44.768814],[-111.903715,44.769103],[-111.904035,44.76936],[-111.904697,44.769625],[-111.905182,44.769963],[-111.906362,44.771043],[-111.90764,44.771951],[-111.911912,44.773538],[-111.912665,44.774],[-111.914216,44.775329],[-111.915831,44.775973],[-111.917545,44.777229],[-111.918178,44.77807],[-111.918832,44.778641],[-111.919915,44.779955],[-111.920197,44.781015],[-111.920094,44.781691],[-111.920211,44.781925],[-111.920487,44.782111]]}},{"type":"Feature","properties":{"id":"road-b29","kind":"road","name":"nan","acres":null,"editable":false,"source":"TIGER/UGRC road centerlines"},"geometry":{"type":"LineString","coordinates":[[-111.893638,44.78101],[-111.893414,44.781068],[-111.893535,44.781249],[-111.893518,44.781531],[-111.892843,44.781768],[-111.892687,44.781976],[-111.892791,44.782858],[-111.892748,44.783489],[-111.891623,44.784588],[-111.891623,44.785132],[-111.891442,44.785885],[-111.891623,44.786317],[-111.891666,44.788566],[-111.891838,44.789502],[-111.891135,44.791772],[-111.889721,44.793355],[-111.888906,44.794761],[-111.889424,44.796073],[-111.889074,44.796327],[-111.888599,44.796536],[-111.887358,44.796659],[-111.886744,44.797001],[-111.887069,44.79845],[-111.886876,44.79989],[-111.887131,44.802589],[-111.887015,44.80338],[-111.886575,44.804656],[-111.886887,44.805039],[-111.886945,44.805514],[-111.887348,44.806304],[-111.887546,44.807248],[-111.888024,44.807995],[-111.887918,44.809221],[-111.888163,44.809701],[-111.888752,44.809838],[-111.889069,44.809988],[-111.890839,44.811015],[-111.890949,44.811187],[-111.89084,44.811408],[-111.890468,44.811601],[-111.889035,44.811929]]}},{"type":"Feature","properties":{"id":"road-b30","kind":"road","name":"nan","acres":null,"editable":false,"source":"TIGER/UGRC road centerlines"},"geometry":{"type":"LineString","coordinates":[[-111.882657,44.643037],[-111.881538,44.644518],[-111.88051,44.64555],[-111.88019,44.646196],[-111.880144,44.646552]]}},{"type":"Feature","properties":{"id":"road-b31","kind":"road","name":"nan","acres":null,"editable":false,"source":"TIGER/UGRC road centerlines"},"geometry":{"type":"LineString","coordinates":[[-111.769621,44.69407],[-111.768741,44.694319],[-111.767638,44.694875],[-111.764799,44.696857],[-111.763921,44.697259],[-111.762877,44.697572],[-111.762075,44.698018],[-111.761472,44.698203],[-111.760245,44.699003],[-111.758702,44.699689],[-111.758,44.700107],[-111.756106,44.700993],[-111.755843,44.701175],[-111.755121,44.701963],[-111.754396,44.702481],[-111.753265,44.702866],[-111.751652,44.703084],[-111.751126,44.703412],[-111.750109,44.703877],[-111.749287,44.704684],[-111.747699,44.704938],[-111.746529,44.705242],[-111.745575,44.705627],[-111.744618,44.705786],[-111.743917,44.706259],[-111.742973,44.706526],[-111.742472,44.706781],[-111.741804,44.706894],[-111.740896,44.706927]]}},{"type":"Feature","properties":{"id":"road-b32","kind":"road","name":"nan","acres":null,"editable":false,"source":"TIGER/UGRC road centerlines"},"geometry":{"type":"LineString","coordinates":[[-111.930141,44.681313],[-111.930108,44.681639],[-111.929471,44.682157],[-111.928531,44.683155],[-111.927734,44.684394],[-111.927593,44.684919],[-111.927634,44.687146],[-111.927734,44.687202]]}},{"type":"Feature","properties":{"id":"road-b33","kind":"road","name":"Fox Rdg","acres":null,"editable":false,"source":"TIGER/UGRC road centerlines"},"geometry":{"type":"LineString","coordinates":[[-111.887015,44.80338],[-111.887295,44.803392],[-111.887846,44.803567],[-111.888551,44.803875],[-111.888882,44.803848]]}},{"type":"Feature","properties":{"id":"road-b34","kind":"road","name":"nan","acres":null,"editable":false,"source":"TIGER/UGRC road centerlines"},"geometry":{"type":"LineString","coordinates":[[-111.96276,44.663326],[-111.963138,44.666495]]}},{"type":"Feature","properties":{"id":"road-b35","kind":"road","name":"nan","acres":null,"editable":false,"source":"TIGER/UGRC road centerlines"},"geometry":{"type":"LineString","coordinates":[[-111.896819,44.695434],[-111.896983,44.695613],[-111.898879,44.696768],[-111.899498,44.697042],[-111.900508,44.697326],[-111.901134,44.69777],[-111.901714,44.69793],[-111.902434,44.698302],[-111.903114,44.69849],[-111.903658,44.698794],[-111.904746,44.699088],[-111.905343,44.699652]]}},{"type":"Feature","properties":{"id":"road-b36","kind":"road","name":"nan","acres":null,"editable":false,"source":"TIGER/UGRC road centerlines"},"geometry":{"type":"LineString","coordinates":[[-111.943172,44.782109],[-111.942536,44.783969],[-111.942069,44.784932],[-111.941478,44.785867],[-111.940892,44.786311],[-111.939583,44.78814],[-111.93932,44.788299],[-111.939002,44.78866],[-111.938398,44.789058],[-111.93794,44.789538],[-111.937997,44.790486],[-111.938111,44.790701],[-111.938499,44.790967],[-111.938614,44.791139],[-111.938457,44.792009],[-111.938844,44.792917],[-111.938948,44.79341],[-111.939496,44.793957],[-111.939679,44.794373]]}},{"type":"Feature","properties":{"id":"road-b37","kind":"road","name":"nan","acres":null,"editable":false,"source":"TIGER/UGRC road centerlines"},"geometry":{"type":"LineString","coordinates":[[-111.970391,44.668692],[-111.970004,44.669121],[-111.968327,44.671959],[-111.966018,44.676299],[-111.965511,44.67699]]}},{"type":"Feature","properties":{"id":"road-b38","kind":"road","name":"nan","acres":null,"editable":false,"source":"TIGER/UGRC road centerlines"},"geometry":{"type":"LineString","coordinates":[[-111.814833,44.703253],[-111.816016,44.704757],[-111.814248,44.703833]]}},{"type":"Feature","properties":{"id":"road-b39","kind":"road","name":"nan","acres":null,"editable":false,"source":"TIGER/UGRC road centerlines"},"geometry":{"type":"LineString","coordinates":[[-111.870326,44.632749],[-111.87413,44.637764],[-111.876942,44.641648],[-111.877433,44.641877],[-111.881986,44.64289]]}},{"type":"Feature","properties":{"id":"road-b40","kind":"road","name":"nan","acres":null,"editable":false,"source":"TIGER/UGRC road centerlines"},"geometry":{"type":"LineString","coordinates":[[-111.820778,44.709413],[-111.82066,44.709135],[-111.820136,44.708698],[-111.819595,44.707891],[-111.81684,44.705904],[-111.816411,44.705916],[-111.815733,44.7062],[-111.813816,44.708122],[-111.813963,44.708697],[-111.813989,44.709624],[-111.814252,44.710387],[-111.81464,44.71106],[-111.815525,44.712062],[-111.816824,44.713781],[-111.819268,44.715123],[-111.819921,44.715811],[-111.821095,44.716712],[-111.822937,44.717446],[-111.824681,44.718469],[-111.825061,44.718583],[-111.825535,44.719003],[-111.827645,44.719122],[-111.831407,44.719041],[-111.833416,44.719161],[-111.834024,44.719292],[-111.836426,44.719535],[-111.839406,44.719477],[-111.840595,44.719658],[-111.842223,44.719601],[-111.843096,44.71972],[-111.843626,44.71968],[-111.844575,44.719817],[-111.845402,44.72027],[-111.845743,44.720277],[-111.846687,44.72009],[-111.847513,44.720399],[-111.849141,44.720369],[-111.850639,44.720051],[-111.850916,44.719968],[-111.852331,44.719183],[-111.854354,44.719186],[-111.854959,44.71927]]}},{"type":"Feature","properties":{"id":"road-b41","kind":"road","name":"nan","acres":null,"editable":false,"source":"TIGER/UGRC road centerlines"},"geometry":{"type":"LineString","coordinates":[[-111.715428,44.649132],[-111.714916,44.649292],[-111.712416,44.649384],[-111.710559,44.650185],[-111.709855,44.651054],[-111.709799,44.653406],[-111.709534,44.653898],[-111.708626,44.653687],[-111.705958,44.653439],[-111.704979,44.653622],[-111.704145,44.654211],[-111.703366,44.654313]]}},{"type":"Feature","properties":{"id":"road-b42","kind":"road","name":"N Valley Rd","acres":null,"editable":false,"source":"TIGER/UGRC road centerlines"},"geometry":{"type":"LineString","coordinates":[[-111.750711,44.675125],[-111.751267,44.675161],[-111.751914,44.675368],[-111.753188,44.675435]]}},{"type":"Feature","properties":{"id":"road-b43","kind":"road","name":"nan","acres":null,"editable":false,"source":"TIGER/UGRC road centerlines"},"geometry":{"type":"LineString","coordinates":[[-111.96599,44.738523],[-111.965255,44.739898],[-111.964433,44.740607],[-111.964238,44.741059],[-111.964373,44.741571],[-111.964301,44.742517],[-111.963339,44.743947],[-111.961411,44.744972],[-111.959376,44.744953],[-111.958438,44.744718]]}},{"type":"Feature","properties":{"id":"road-b44","kind":"road","name":"nan","acres":null,"editable":false,"source":"TIGER/UGRC road centerlines"},"geometry":{"type":"LineString","coordinates":[[-111.818535,44.731184],[-111.81957,44.731154],[-111.820897,44.731252],[-111.821868,44.731137],[-111.823062,44.730724],[-111.824527,44.729813],[-111.825143,44.729664],[-111.826771,44.729572],[-111.827644,44.729682],[-111.828881,44.729655],[-111.830993,44.729829],[-111.832714,44.730086],[-111.833146,44.730263],[-111.834522,44.731109],[-111.834589,44.731378],[-111.834505,44.731685]]}},{"type":"Feature","properties":{"id":"road-b45","kind":"road","name":"nan","acres":null,"editable":false,"source":"TIGER/UGRC road centerlines"},"geometry":{"type":"LineString","coordinates":[[-111.854959,44.71927],[-111.855574,44.719259],[-111.856225,44.719505],[-111.858099,44.719887],[-111.859764,44.720577],[-111.86026,44.72087],[-111.861617,44.72122],[-111.862049,44.721433],[-111.863084,44.722254],[-111.863393,44.722674],[-111.864464,44.725916],[-111.86462,44.726212],[-111.865868,44.727715],[-111.866366,44.728116],[-111.867358,44.728559],[-111.868418,44.729334],[-111.870592,44.730317],[-111.871156,44.73087],[-111.872108,44.731187],[-111.873,44.731685],[-111.873422,44.73205],[-111.873578,44.732328],[-111.874088,44.736042],[-111.874652,44.737424],[-111.875011,44.737791],[-111.875823,44.737992],[-111.876537,44.738427],[-111.877216,44.739061],[-111.877944,44.740433],[-111.878872,44.740849],[-111.879028,44.741109],[-111.879009,44.741523],[-111.878241,44.741709],[-111.878065,44.741791],[-111.878055,44.741917],[-111.878082,44.742088],[-111.879157,44.742998],[-111.879428,44.743374],[-111.879382,44.743663],[-111.878958,44.744044],[-111.878774,44.744397],[-111.878758,44.745018],[-111.878954,44.745439],[-111.879975,44.746935],[-111.881605,44.748588],[-111.882128,44.748953],[-111.883661,44.750904]]}},{"type":"Feature","properties":{"id":"road-b46","kind":"road","name":"nan","acres":null,"editable":false,"source":"TIGER/UGRC road centerlines"},"geometry":{"type":"LineString","coordinates":[[-111.738169,44.688694],[-111.737908,44.688811],[-111.737184,44.689852],[-111.737031,44.69126],[-111.736533,44.692208],[-111.732854,44.697174],[-111.732277,44.697772],[-111.73151,44.698853],[-111.731063,44.700349],[-111.728921,44.703822]]}},{"type":"Feature","properties":{"id":"road-b47","kind":"road","name":"nan","acres":null,"editable":false,"source":"TIGER/UGRC road centerlines"},"geometry":{"type":"LineString","coordinates":[[-111.859998,44.631531],[-111.864176,44.63267],[-111.86506,44.632825],[-111.870326,44.632749]]}},{"type":"Feature","properties":{"id":"road-b48","kind":"road","name":"NFS Rd 8384","acres":null,"editable":false,"source":"TIGER/UGRC road centerlines"},"geometry":{"type":"LineString","coordinates":[[-111.651329,44.615834],[-111.651669,44.61598],[-111.656133,44.616618],[-111.65629,44.616806],[-111.656514,44.618016],[-111.658176,44.618815],[-111.658805,44.619484],[-111.659008,44.619899],[-111.659057,44.620737],[-111.659219,44.62147],[-111.659215,44.624047],[-111.659079,44.62616],[-111.659096,44.642961],[-111.658895,44.643466],[-111.657601,44.644124],[-111.657242,44.644402],[-111.656671,44.645923],[-111.656738,44.646115],[-111.657019,44.646389],[-111.660057,44.648585],[-111.660184,44.648843],[-111.660215,44.649236],[-111.660079,44.650448],[-111.659316,44.651949],[-111.65907,44.652027],[-111.65784,44.651973],[-111.657219,44.652137],[-111.656508,44.652683],[-111.655227,44.653931],[-111.654626,44.654369],[-111.654221,44.654553],[-111.653742,44.654627],[-111.653097,44.654615],[-111.650814,44.654299],[-111.648589,44.654125],[-111.647492,44.654221],[-111.646363,44.654563],[-111.645287,44.655308],[-111.644386,44.656111],[-111.643793,44.656889],[-111.642759,44.658603],[-111.642038,44.6593],[-111.641503,44.659539],[-111.640913,44.659683],[-111.636848,44.660411],[-111.636046,44.660646],[-111.634857,44.662074],[-111.633928,44.662742],[-111.632574,44.663495],[-111.632046,44.664239],[-111.631912,44.664998],[-111.632002,44.666059],[-111.631833,44.667483],[-111.631315,44.669612],[-111.631294,44.670062],[-111.63137,44.67026],[-111.632196,44.671147],[-111.632576,44.671948],[-111.632516,44.672345],[-111.632308,44.672607],[-111.632028,44.672765],[-111.630925,44.672566],[-111.63005,44.672726],[-111.629313,44.672992]]}},{"type":"Feature","properties":{"id":"road-b49","kind":"road","name":"nan","acres":null,"editable":false,"source":"TIGER/UGRC road centerlines"},"geometry":{"type":"LineString","coordinates":[[-111.813273,44.60698],[-111.81309,44.607143],[-111.812635,44.607282],[-111.805476,44.607669],[-111.804847,44.607766],[-111.802943,44.609056],[-111.802641,44.609552]]}},{"type":"Feature","properties":{"id":"road-b50","kind":"road","name":"nan","acres":null,"editable":false,"source":"TIGER/UGRC road centerlines"},"geometry":{"type":"LineString","coordinates":[[-111.97926,44.652332],[-111.979346,44.652706],[-111.979233,44.65421],[-111.979409,44.655476]]}},{"type":"Feature","properties":{"id":"road-b51","kind":"road","name":"nan","acres":null,"editable":false,"source":"TIGER/UGRC road centerlines"},"geometry":{"type":"LineString","coordinates":[[-111.811695,44.703053],[-111.814248,44.703833]]}},{"type":"Feature","properties":{"id":"road-b52","kind":"road","name":"nan","acres":null,"editable":false,"source":"TIGER/UGRC road centerlines"},"geometry":{"type":"LineString","coordinates":[[-111.84184,44.60949],[-111.841732,44.614283],[-111.841509,44.615383],[-111.841889,44.618144]]}},{"type":"Feature","properties":{"id":"road-b53","kind":"road","name":"nan","acres":null,"editable":false,"source":"TIGER/UGRC road centerlines"},"geometry":{"type":"LineString","coordinates":[[-111.984546,44.636143],[-111.984554,44.637699],[-111.984389,44.638394],[-111.9818,44.643394],[-111.980873,44.644528],[-111.980507,44.645971],[-111.978699,44.649444],[-111.978611,44.650255],[-111.97926,44.652332]]}},{"type":"Feature","properties":{"id":"road-b54","kind":"road","name":"nan","acres":null,"editable":false,"source":"TIGER/UGRC road centerlines"},"geometry":{"type":"LineString","coordinates":[[-111.954226,44.626449],[-111.954812,44.626609],[-111.955593,44.626952],[-111.957416,44.627456],[-111.958525,44.628119],[-111.959991,44.6286],[-111.962462,44.628736],[-111.963502,44.628896],[-111.964867,44.628851],[-111.965909,44.629057],[-111.984221,44.636143],[-111.984546,44.636143]]}},{"type":"Feature","properties":{"id":"road-b55","kind":"road","name":"Elk River","acres":null,"editable":false,"source":"TIGER/UGRC road centerlines"},"geometry":{"type":"LineString","coordinates":[[-111.65722,44.801568],[-111.657644,44.801431],[-111.657199,44.800876],[-111.657038,44.800403],[-111.656773,44.800023],[-111.657014,44.799766],[-111.657941,44.800287],[-111.658262,44.80039],[-111.658894,44.800255],[-111.659688,44.80031],[-111.660184,44.800483],[-111.660884,44.800293],[-111.66214,44.800381],[-111.66407,44.801184],[-111.665376,44.801544],[-111.667739,44.80182],[-111.669297,44.803266],[-111.670445,44.803934],[-111.671016,44.804047],[-111.671408,44.803961],[-111.673144,44.803865],[-111.67538,44.80437],[-111.677366,44.804617],[-111.678244,44.804595],[-111.679172,44.804459],[-111.680108,44.804609],[-111.681385,44.805167],[-111.683628,44.805673],[-111.684677,44.806034],[-111.685925,44.806649],[-111.687791,44.807861],[-111.689101,44.807845],[-111.690589,44.808062],[-111.69257,44.808192],[-111.693179,44.808329],[-111.693853,44.808648],[-111.694623,44.808663],[-111.695666,44.808573],[-111.696248,44.808632],[-111.698842,44.809274],[-111.70029,44.809823],[-111.70251,44.810421],[-111.703853,44.81062],[-111.704489,44.810917]]}},{"type":"Feature","properties":{"id":"road-b56","kind":"road","name":"nan","acres":null,"editable":false,"source":"TIGER/UGRC road centerlines"},"geometry":{"type":"LineString","coordinates":[[-111.836813,44.798709],[-111.836378,44.799992],[-111.836706,44.800595],[-111.836631,44.802201],[-111.836346,44.80337],[-111.836347,44.804412],[-111.836047,44.80591],[-111.835586,44.806878],[-111.834789,44.808007],[-111.834097,44.808545],[-111.833032,44.808783],[-111.83261,44.808841],[-111.831946,44.808677],[-111.831357,44.808632],[-111.829969,44.809052],[-111.829315,44.809087],[-111.829095,44.809163],[-111.827888,44.809772],[-111.826863,44.810558],[-111.826564,44.810807],[-111.826151,44.811516],[-111.8258,44.81183],[-111.823704,44.812354],[-111.823238,44.81257],[-111.822612,44.813253],[-111.822344,44.813847],[-111.822001,44.814126],[-111.821986,44.814274],[-111.822818,44.815828],[-111.823353,44.816196],[-111.823618,44.816267],[-111.82405,44.816577],[-111.824743,44.816899]]}},{"type":"Feature","properties":{"id":"road-b57","kind":"road","name":"nan","acres":null,"editable":false,"source":"TIGER/UGRC road centerlines"},"geometry":{"type":"LineString","coordinates":[[-111.85869,44.610053],[-111.860255,44.61797],[-111.861775,44.621588],[-111.870326,44.632749]]}},{"type":"Feature","properties":{"id":"road-b58","kind":"road","name":"Gravelly Range","acres":null,"editable":false,"source":"TIGER/UGRC road centerlines"},"geometry":{"type":"LineString","coordinates":[[-111.929549,44.795701],[-111.928631,44.794867],[-111.928574,44.794411],[-111.928681,44.79423],[-111.92927,44.793854],[-111.929927,44.792996],[-111.930104,44.792536],[-111.930121,44.792023],[-111.92963,44.790805],[-111.928983,44.790098],[-111.928837,44.789453]]}},{"type":"Feature","properties":{"id":"road-b59","kind":"road","name":"Eureka Basin Rd","acres":null,"editable":false,"source":"TIGER/UGRC road centerlines"},"geometry":{"type":"LineString","coordinates":[[-112.01459,44.8084],[-112.014316,44.808187],[-112.013651,44.806131],[-112.012156,44.805151],[-112.011438,44.805007],[-112.010635,44.804685],[-112.010389,44.804477],[-112.010088,44.803879],[-112.008272,44.802849],[-112.007863,44.802747],[-112.007284,44.802786],[-112.006,44.803037],[-112.005297,44.803272],[-112.004853,44.803784],[-112.004391,44.803948],[-112.003858,44.804402],[-112.002641,44.805169],[-112.002065,44.805414],[-112.001494,44.80542],[-112.000722,44.805283],[-111.999951,44.805028],[-111.999429,44.804476],[-111.998215,44.803643],[-111.99811,44.803178],[-111.997782,44.802832],[-111.997509,44.802334],[-111.996965,44.801777],[-111.995954,44.801294],[-111.993896,44.800907],[-111.993238,44.801056],[-111.992334,44.801578],[-111.991495,44.801709],[-111.990833,44.80223],[-111.990134,44.802532],[-111.989665,44.802519],[-111.988894,44.802327],[-111.987485,44.802226],[-111.985145,44.802376],[-111.983959,44.802587],[-111.982358,44.803227],[-111.981421,44.803339],[-111.980701,44.803188],[-111.980211,44.80321],[-111.979849,44.803287],[-111.979359,44.803599],[-111.979141,44.80355],[-111.978667,44.803221],[-111.97767,44.803234],[-111.976412,44.803013],[-111.975634,44.802574],[-111.974456,44.802244],[-111.972185,44.801191],[-111.971945,44.801283],[-111.971523,44.801903],[-111.970987,44.802307],[-111.969742,44.802624],[-111.969161,44.80264],[-111.968558,44.8023],[-111.967995,44.801743],[-111.967665,44.801568],[-111.966609,44.801235],[-111.965744,44.800719],[-111.965135,44.800696],[-111.964889,44.800579],[-111.964536,44.800007],[-111.964502,44.799799],[-111.964983,44.79936],[-111.965358,44.798839],[-111.96532,44.798707],[-111.965118,44.798654],[-111.964587,44.798802],[-111.964371,44.798786],[-111.963313,44.797678],[-111.962393,44.796944],[-111.961971,44.796685],[-111.95984,44.795816],[-111.958682,44.794728],[-111.958313,44.793697],[-111.957686,44.792829],[-111.957292,44.792631],[-111.956892,44.792549],[-111.954928,44.792493],[-111.954084,44.792596],[-111.952422,44.793056],[-111.948693,44.793369],[-111.947267,44.793699],[-111.946489,44.79374],[-111.945072,44.793682],[-111.943706,44.793507],[-111.942893,44.793651],[-111.941462,44.794141],[-111.940718,44.794303],[-111.939776,44.794375],[-111.938514,44.794294],[-111.937564,44.794505],[-111.937004,44.794546],[-111.935854,44.794545],[-111.934436,44.79436],[-111.933222,44.79464],[-111.931126,44.794935],[-111.929904,44.795447],[-111.929549,44.795701],[-111.929097,44.79665],[-111.928447,44.797552],[-111.927581,44.799468],[-111.92643,44.80037],[-111.925305,44.801083],[-111.9239,44.801559],[-111.923554,44.801586],[-111.922725,44.801398],[-111.921552,44.801428],[-111.921078,44.801375],[-111.918258,44.800354],[-111.916921,44.800055],[-111.916355,44.80018],[-111.915014,44.801118],[-111.914821,44.801482],[-111.914807,44.802144],[-111.915082,44.802936],[-111.915151,44.803693],[-111.915001,44.805567],[-111.914764,44.806727],[-111.914528,44.807258],[-111.913679,44.80786],[-111.911472,44.808482],[-111.909209,44.808275],[-111.905489,44.808279],[-111.904529,44.808342],[-111.9037,44.807915],[-111.903418,44.807875],[-111.902232,44.808159],[-111.901302,44.809233],[-111.901011,44.810368],[-111.900487,44.811579],[-111.90023,44.812466],[-111.899543,44.813938],[-111.89901,44.814819],[-111.898757,44.815045],[-111.898198,44.8153],[-111.897239,44.815441],[-111.895886,44.815246],[-111.895227,44.814953],[-111.894287,44.814978],[-111.892909,44.814788],[-111.891908,44.814531],[-111.891166,44.814557],[-111.890709,44.814451],[-111.890092,44.814114],[-111.889541,44.813659],[-111.889133,44.812888],[-111.889139,44.812052],[-111.889035,44.811929]]}},{"type":"Feature","properties":{"id":"road-b60","kind":"road","name":"nan","acres":null,"editable":false,"source":"TIGER/UGRC road centerlines"},"geometry":{"type":"LineString","coordinates":[[-111.750553,44.675136],[-111.750949,44.676063],[-111.750966,44.676468],[-111.751123,44.67689],[-111.751108,44.679627],[-111.751655,44.67993],[-111.753162,44.68037],[-111.753493,44.680601],[-111.753522,44.680853],[-111.753351,44.681341],[-111.752795,44.682253],[-111.752749,44.682596],[-111.752916,44.683765],[-111.752178,44.686201],[-111.751941,44.686445],[-111.74955,44.687965],[-111.742245,44.693036],[-111.741258,44.693744],[-111.74076,44.694315]]}},{"type":"Feature","properties":{"id":"road-b61","kind":"road","name":"nan","acres":null,"editable":false,"source":"TIGER/UGRC road centerlines"},"geometry":{"type":"LineString","coordinates":[[-111.881986,44.64289],[-111.882657,44.643037]]}},{"type":"Feature","properties":{"id":"road-b62","kind":"road","name":"nan","acres":null,"editable":false,"source":"TIGER/UGRC road centerlines"},"geometry":{"type":"LineString","coordinates":[[-111.824743,44.816899],[-111.825862,44.817479],[-111.826424,44.81759],[-111.828625,44.817752],[-111.830718,44.818046],[-111.832033,44.818399],[-111.833442,44.818972],[-111.834432,44.819666],[-111.835036,44.820343],[-111.83536,44.821293],[-111.835387,44.822834],[-111.835741,44.82409],[-111.836384,44.824794],[-111.837133,44.824966],[-111.838103,44.825038],[-111.838598,44.825238],[-111.839854,44.826269],[-111.841064,44.826999],[-111.841863,44.827315],[-111.844749,44.827969],[-111.846281,44.827991],[-111.847768,44.827591],[-111.848331,44.827542],[-111.849716,44.827761],[-111.850595,44.828424],[-111.850806,44.828811],[-111.850853,44.829196],[-111.850683,44.829739],[-111.850767,44.830305],[-111.852093,44.831737],[-111.852875,44.832823],[-111.853698,44.833335],[-111.855129,44.833767],[-111.856291,44.833718],[-111.857013,44.833548],[-111.858237,44.832962],[-111.859394,44.832561],[-111.86247,44.832294],[-111.864185,44.831844],[-111.865266,44.83146],[-111.867101,44.830486],[-111.867553,44.83043]]}},{"type":"Feature","properties":{"id":"road-b63","kind":"road","name":"Landon Ridge Rd","acres":null,"editable":false,"source":"TIGER/UGRC road centerlines"},"geometry":{"type":"LineString","coordinates":[[-111.781865,44.732276],[-111.782331,44.732453],[-111.78265,44.732459],[-111.784889,44.732263],[-111.785722,44.732038],[-111.787074,44.731305],[-111.787654,44.7309],[-111.788599,44.73003],[-111.790298,44.729497],[-111.791516,44.728994],[-111.795613,44.727525],[-111.796708,44.727283],[-111.796955,44.726885],[-111.796823,44.726445],[-111.796298,44.725944],[-111.794563,44.724997],[-111.794444,44.724553],[-111.794458,44.724093],[-111.794557,44.723787],[-111.795067,44.72322],[-111.795544,44.721803],[-111.79666,44.720772],[-111.797773,44.71996],[-111.798616,44.719117],[-111.799128,44.71876],[-111.799899,44.717929],[-111.800356,44.717076],[-111.800679,44.71604],[-111.800044,44.71339],[-111.799898,44.713158],[-111.799506,44.712969],[-111.799514,44.712826],[-111.799813,44.712755],[-111.801399,44.713116],[-111.801693,44.713049],[-111.801806,44.712833],[-111.801607,44.71242],[-111.801532,44.711799],[-111.801748,44.711111],[-111.803308,44.709575],[-111.804437,44.708971],[-111.805417,44.708626],[-111.807656,44.708109],[-111.808407,44.707731],[-111.808898,44.707103],[-111.809419,44.705905],[-111.809304,44.704986],[-111.809384,44.704719],[-111.810253,44.703814],[-111.810686,44.703464],[-111.812442,44.702673],[-111.814004,44.701656],[-111.814237,44.701405],[-111.81486,44.700341],[-111.815803,44.69953],[-111.817305,44.699006],[-111.8175,44.698871],[-111.81778,44.698089],[-111.817853,44.696391],[-111.818231,44.695307],[-111.818279,44.694253],[-111.81873,44.694061],[-111.81897,44.694041],[-111.82041,44.694121],[-111.821296,44.694276],[-111.821744,44.694723],[-111.821946,44.694776],[-111.824724,44.694837],[-111.826225,44.69479],[-111.826576,44.694589],[-111.827744,44.694167],[-111.829631,44.693739],[-111.832312,44.69326],[-111.835728,44.691218],[-111.838962,44.6897],[-111.842625,44.689025],[-111.847072,44.687949]]}},{"type":"Feature","properties":{"id":"road-b64","kind":"road","name":"nan","acres":null,"editable":false,"source":"TIGER/UGRC road centerlines"},"geometry":{"type":"LineString","coordinates":[[-111.78114,44.729308],[-111.781857,44.729578],[-111.782625,44.730326],[-111.783236,44.730716],[-111.784296,44.731114],[-111.785988,44.731],[-111.788471,44.730086]]}},{"type":"Feature","properties":{"id":"road-b65","kind":"road","name":"nan","acres":null,"editable":false,"source":"TIGER/UGRC road centerlines"},"geometry":{"type":"LineString","coordinates":[[-111.74076,44.694315],[-111.740862,44.694395],[-111.74095,44.695367],[-111.741006,44.697737],[-111.740939,44.703406],[-111.741014,44.704297],[-111.740833,44.705],[-111.740896,44.706927]]}},{"type":"Feature","properties":{"id":"road-b66","kind":"road","name":"nan","acres":null,"editable":false,"source":"TIGER/UGRC road centerlines"},"geometry":{"type":"LineString","coordinates":[[-111.758293,44.741117],[-111.756121,44.741675],[-111.753123,44.742182],[-111.752381,44.742109],[-111.751893,44.741962],[-111.749919,44.740858],[-111.748482,44.740531],[-111.74803,44.740496],[-111.747642,44.740348],[-111.746666,44.740327],[-111.745623,44.74042],[-111.742922,44.741853],[-111.74152,44.742303],[-111.740368,44.742515],[-111.737275,44.743452],[-111.736368,44.74397],[-111.735404,44.744829],[-111.734813,44.745235],[-111.732238,44.746056],[-111.729731,44.747053],[-111.729077,44.747175],[-111.727829,44.74726],[-111.72663,44.747489],[-111.725559,44.748055],[-111.724843,44.748605],[-111.723644,44.749034],[-111.721092,44.750131],[-111.720277,44.750307],[-111.718865,44.750755],[-111.717762,44.7509],[-111.716176,44.750906],[-111.713102,44.750515],[-111.711599,44.750478],[-111.709853,44.750739],[-111.70863,44.75109],[-111.707128,44.751259],[-111.704679,44.75189],[-111.702654,44.752289],[-111.697639,44.754254],[-111.692616,44.755545],[-111.691864,44.755664],[-111.690003,44.755679],[-111.688466,44.755555],[-111.68739,44.755678],[-111.686473,44.755915],[-111.684546,44.756158],[-111.683207,44.756147],[-111.68177,44.755976],[-111.680914,44.755692]]}},{"type":"Feature","properties":{"id":"road-b67","kind":"road","name":"N Valley Rd","acres":null,"editable":false,"source":"TIGER/UGRC road centerlines"},"geometry":{"type":"LineString","coordinates":[[-111.753188,44.675435],[-111.753035,44.675593],[-111.752506,44.675774],[-111.751648,44.675675],[-111.751198,44.675545],[-111.750801,44.675285],[-111.750711,44.675125]]}},{"type":"Feature","properties":{"id":"road-b68","kind":"road","name":"N Valley Rd","acres":null,"editable":false,"source":"TIGER/UGRC road centerlines"},"geometry":{"type":"LineString","coordinates":[[-111.750711,44.675125],[-111.748025,44.675253],[-111.745551,44.675281],[-111.7414,44.675866],[-111.740189,44.675972],[-111.731283,44.67584],[-111.727567,44.675876],[-111.720364,44.675813],[-111.720227,44.675697],[-111.720342,44.675239],[-111.720224,44.674877],[-111.719666,44.674353],[-111.719152,44.673689],[-111.7187,44.673336],[-111.716782,44.672238],[-111.715391,44.671261],[-111.714088,44.670727],[-111.713789,44.670201],[-111.713181,44.669576],[-111.712276,44.668164],[-111.710607,44.666479],[-111.710303,44.665896],[-111.710246,44.665044],[-111.710875,44.662234],[-111.710832,44.662003],[-111.709219,44.660982],[-111.703366,44.654313],[-111.678634,44.65416],[-111.677387,44.654081],[-111.674828,44.654155],[-111.67026,44.653597],[-111.669398,44.653362],[-111.668104,44.652816],[-111.659848,44.650972]]}},{"type":"Feature","properties":{"id":"road-b69","kind":"road","name":"nan","acres":null,"editable":false,"source":"TIGER/UGRC road centerlines"},"geometry":{"type":"LineString","coordinates":[[-111.882657,44.643037],[-111.886731,44.64432],[-111.887961,44.64439],[-111.889126,44.64428],[-111.889512,44.644441],[-111.890199,44.645569],[-111.894505,44.655203]]}},{"type":"Feature","properties":{"id":"road-b70","kind":"road","name":"nan","acres":null,"editable":false,"source":"TIGER/UGRC road centerlines"},"geometry":{"type":"LineString","coordinates":[[-111.903802,44.76919],[-111.903218,44.769445],[-111.901465,44.769751],[-111.90039,44.770375],[-111.899475,44.771136],[-111.898955,44.771368],[-111.898533,44.77137],[-111.89639,44.770741],[-111.895547,44.770768],[-111.895091,44.770954],[-111.894435,44.771806],[-111.893299,44.77188],[-111.892779,44.772112],[-111.892485,44.772389],[-111.891159,44.774854],[-111.890879,44.776328],[-111.890835,44.777088],[-111.892624,44.779303],[-111.893638,44.78101]]}},{"type":"Feature","properties":{"id":"road-b71","kind":"road","name":"Southside Centennial Rd","acres":null,"editable":false,"source":"TIGER/UGRC road centerlines"},"geometry":{"type":"LineString","coordinates":[[-111.523807,44.598611],[-111.52606,44.598921],[-111.52748,44.598859],[-111.52856,44.598706],[-111.530233,44.598315],[-111.531998,44.5978],[-111.532621,44.597372],[-111.532982,44.596827],[-111.533226,44.596627],[-111.533815,44.59644],[-111.534432,44.596404],[-111.535178,44.596525],[-111.544214,44.598933],[-111.545074,44.599094],[-111.54928,44.599167],[-111.556511,44.599127],[-111.561224,44.599186],[-111.561782,44.599432],[-111.562206,44.599845],[-111.562486,44.602375],[-111.562751,44.602717],[-111.563192,44.602849],[-111.568296,44.602813],[-111.577402,44.602899],[-111.580063,44.602757],[-111.583932,44.602947],[-111.586667,44.602983],[-111.588037,44.602924],[-111.590102,44.603011],[-111.59058,44.603196],[-111.593158,44.605138],[-111.594832,44.607074],[-111.595569,44.607676],[-111.599336,44.609183],[-111.606159,44.612254],[-111.606697,44.612334],[-111.607244,44.612316],[-111.609706,44.611853],[-111.61131,44.611299],[-111.612275,44.610775],[-111.612985,44.610647],[-111.613735,44.610654],[-111.632238,44.613174],[-111.633414,44.613256],[-111.637876,44.613311],[-111.639718,44.613437],[-111.646501,44.615068],[-111.647027,44.615259],[-111.648679,44.6161],[-111.649842,44.616409],[-111.650458,44.616309],[-111.651246,44.61589],[-111.652817,44.614677],[-111.653664,44.613677],[-111.654485,44.612183],[-111.654793,44.610046],[-111.655073,44.608914],[-111.654964,44.608569],[-111.654215,44.607427],[-111.654098,44.606985],[-111.654149,44.604924],[-111.654433,44.603501],[-111.654791,44.602544],[-111.656203,44.600545],[-111.657383,44.599268],[-111.658889,44.598069],[-111.65906,44.597835],[-111.659108,44.588762],[-111.659239,44.588428],[-111.659674,44.588267],[-111.683946,44.58815],[-111.68443,44.588225],[-111.685903,44.588719],[-111.693842,44.590431],[-111.701609,44.591473],[-111.704099,44.591644],[-111.705853,44.591686],[-111.718032,44.591777],[-111.720536,44.591752],[-111.72589,44.591483],[-111.726474,44.591624],[-111.727794,44.59245],[-111.728372,44.592643],[-111.729222,44.592807],[-111.730639,44.592625],[-111.732231,44.592248],[-111.735351,44.592157],[-111.737682,44.591836],[-111.743583,44.592155],[-111.747835,44.592033],[-111.778094,44.5925],[-111.79616,44.592652],[-111.796857,44.592821],[-111.798164,44.59334],[-111.801798,44.594953],[-111.804336,44.595934],[-111.805529,44.596577],[-111.806505,44.596993],[-111.808674,44.597716],[-111.810103,44.598049],[-111.810832,44.598386],[-111.810953,44.598542],[-111.811019,44.598941],[-111.811033,44.600852],[-111.811303,44.603716],[-111.811942,44.605454],[-111.812835,44.606743],[-111.813206,44.606966],[-111.813818,44.607029],[-111.815326,44.607014],[-111.817962,44.606905],[-111.828433,44.605472],[-111.830813,44.605416],[-111.832161,44.60552]]}},{"type":"Feature","properties":{"id":"road-b72","kind":"road","name":"nan","acres":null,"editable":false,"source":"TIGER/UGRC road centerlines"},"geometry":{"type":"LineString","coordinates":[[-111.970391,44.668692],[-111.970804,44.669893],[-111.971218,44.670484],[-111.970912,44.671035],[-111.970964,44.67117],[-111.971645,44.671857],[-111.971883,44.672548],[-111.972154,44.672897],[-111.972468,44.673588],[-111.972429,44.675749],[-111.972527,44.676351],[-111.972857,44.677203],[-111.973375,44.678009],[-111.973972,44.678247],[-111.974498,44.678756],[-111.974766,44.678907],[-111.975883,44.679356],[-111.977233,44.680056],[-111.979186,44.681407],[-111.980418,44.681901],[-111.981284,44.682371],[-111.982415,44.68282],[-111.983455,44.683117],[-111.984383,44.683523],[-111.985385,44.683821],[-111.986403,44.684343],[-111.988913,44.685023],[-111.989435,44.685271],[-111.99093,44.686374],[-111.991935,44.68759],[-111.993311,44.689054],[-111.993974,44.689324]]}},{"type":"Feature","properties":{"id":"road-b73","kind":"road","name":"nan","acres":null,"editable":false,"source":"TIGER/UGRC road centerlines"},"geometry":{"type":"LineString","coordinates":[[-111.802641,44.609552],[-111.800654,44.61124]]}}]}