{"type":"FeatureCollection","features":[{"type":"Feature","properties":{"id":"spr-b1","kind":"spring","name":"Spring","acres":null,"editable":false,"source":"USGS 3DHP hydrolocations"},"geometry":{"type":"Point","coordinates":[-111.820375,44.708339]}},{"type":"Feature","properties":{"id":"spr-b2","kind":"spring","name":"Spring","acres":null,"editable":false,"source":"USGS 3DHP hydrolocations"},"geometry":{"type":"Point","coordinates":[-111.865673,44.696547]}},{"type":"Feature","properties":{"id":"spr-b3","kind":"spring","name":"13S01W12DAAC01 Spring","acres":null,"editable":false,"source":"USGS 3DHP hydrolocations"},"geometry":{"type":"Point","coordinates":[-111.661128,44.712721]}},{"type":"Feature","properties":{"id":"spr-b4","kind":"spring","name":"Spring","acres":null,"editable":false,"source":"USGS 3DHP hydrolocations"},"geometry":{"type":"Point","coordinates":[-111.947793,44.728875]}},{"type":"Feature","properties":{"id":"spr-b5","kind":"spring","name":"Spring","acres":null,"editable":false,"source":"USGS 3DHP hydrolocations"},"geometry":{"type":"Point","coordinates":[-111.889394,44.702772]}},{"type":"Feature","properties":{"id":"spr-b6","kind":"spring","name":"Spring","acres":null,"editable":false,"source":"USGS 3DHP hydrolocations"},"geometry":{"type":"Point","coordinates":[-111.95056,44.815829]}},{"type":"Feature","properties":{"id":"spr-b7","kind":"spring","name":"Spring","acres":null,"editable":false,"source":"USGS 3DHP hydrolocations"},"geometry":{"type":"Point","coordinates":[-111.950682,44.815551]}},{"type":"Feature","properties":{"id":"spr-b8","kind":"spring","name":"13S03W22CCBC01 Spring","acres":null,"editable":false,"source":"USGS 3DHP hydrolocations"},"geometry":{"type":"Point","coordinates":[-111.963838,44.682618]}},{"type":"Feature","properties":{"id":"spr-b9","kind":"spring","name":"Spring","acres":null,"editable":false,"source":"USGS 3DHP hydrolocations"},"geometry":{"type":"Point","coordinates":[-111.661898,44.71295]}},{"type":"Feature","properties":{"id":"spr-b10","kind":"spring","name":"Spring","acres":null,"editable":false,"source":"USGS 3DHP hydrolocations"},"geometry":{"type":"Point","coordinates":[-111.899473,44.711504]}},{"type":"Feature","properties":{"id":"spr-b11","kind":"spring","name":"Spring","acres":null,"editable":false,"source":"USGS 3DHP hydrolocations"},"geometry":{"type":"Point","coordinates":[-111.966141,44.789728]}},{"type":"Feature","properties":{"id":"spr-b12","kind":"spring","name":"Spring","acres":null,"editable":false,"source":"USGS 3DHP hydrolocations"},"geometry":{"type":"Point","coordinates":[-111.87087,44.734847]}},{"type":"Feature","properties":{"id":"spr-b13","kind":"spring","name":"13S02W05CAAA01 Spring","acres":null,"editable":false,"source":"USGS 3DHP hydrolocations"},"geometry":{"type":"Point","coordinates":[-111.87119,44.730578]}},{"type":"Feature","properties":{"id":"spr-b14","kind":"spring","name":"Spring","acres":null,"editable":false,"source":"USGS 3DHP hydrolocations"},"geometry":{"type":"Point","coordinates":[-111.852993,44.723758]}},{"type":"Feature","properties":{"id":"spr-b15","kind":"spring","name":"Spring","acres":null,"editable":false,"source":"USGS 3DHP hydrolocations"},"geometry":{"type":"Point","coordinates":[-111.820902,44.709602]}},{"type":"Feature","properties":{"id":"spr-b16","kind":"spring","name":"Spring","acres":null,"editable":false,"source":"USGS 3DHP hydrolocations"},"geometry":{"type":"Point","coordinates":[-111.763274,44.722753]}},{"type":"Feature","properties":{"id":"spr-b17","kind":"spring","name":"Spring","acres":null,"editable":false,"source":"USGS 3DHP hydrolocations"},"geometry":{"type":"Point","coordinates":[-111.879613,44.699004]}},{"type":"Feature","properties":{"id":"spr-b18","kind":"spring","name":"Spring","acres":null,"editable":false,"source":"USGS 3DHP hydrolocations"},"geometry":{"type":"Point","coordinates":[-111.970698,44.690545]}},{"type":"Feature","properties":{"id":"spr-b19","kind":"spring","name":"Spring","acres":null,"editable":false,"source":"USGS 3DHP hydrolocations"},"geometry":{"type":"Point","coordinates":[-111.731,44.723043]}},{"type":"Feature","properties":{"id":"spr-b20","kind":"spring","name":"Long Creek Spring Number One","acres":null,"editable":false,"source":"USGS 3DHP hydrolocations"},"geometry":{"type":"Point","coordinates":[-111.977021,44.791494]}}]}