{"type":"FeatureCollection","features":[{"type":"Feature","properties":{"id":"allot-wy01901","kind":"allotment","name":"Atlantic City Common","acres":49793.7,"editable":false,"source":"BLM National Grazing Allotments","allot_no":"WY01901"},"geometry":{"type":"Polygon","coordinates":[[[-108.841173,42.480708],[-108.837802,42.482789],[-108.83322,42.48496],[-108.816074,42.489698],[-108.814382,42.490755],[-108.798235,42.497589],[-108.791119,42.50359],[-108.789726,42.505233],[-108.788594,42.507446],[-108.778165,42.507817],[-108.778476,42.514478],[-108.769186,42.519461],[-108.763136,42.523291],[-108.760595,42.52388],[-108.752548,42.52386],[-108.750666,42.523083],[-108.747534,42.520471],[-108.743005,42.519186],[-108.738072,42.519366],[-108.726048,42.522931],[-108.723472,42.524252],[-108.721753,42.527571],[-108.721115,42.530835],[-108.723464,42.53941],[-108.717573,42.540715],[-108.713534,42.536819],[-108.707036,42.537039],[-108.707137,42.538399],[-108.699011,42.541456],[-108.698791,42.542024],[-108.692124,42.540823],[-108.691971,42.540096],[-108.691065,42.540092],[-108.691023,42.542235],[-108.685645,42.541667],[-108.683914,42.541766],[-108.677127,42.53117],[-108.662235,42.527918],[-108.650807,42.521831],[-108.643337,42.518515],[-108.636399,42.517198],[-108.620195,42.515494],[-108.620361,42.500805],[-108.623082,42.497388],[-108.631149,42.497244],[-108.63861,42.495404],[-108.639026,42.485031],[-108.638962,42.472787],[-108.658982,42.472488],[-108.670467,42.474365],[-108.678374,42.474528],[-108.677963,42.457295],[-108.672358,42.455],[-108.763385,42.455],[-108.802751,42.459644],[-108.815073,42.45721],[-108.832781,42.465133],[-108.835438,42.464564],[-108.840334,42.466863],[-108.840406,42.474563],[-108.845,42.474484],[-108.844107,42.476808],[-108.841173,42.480708]],[[-108.679828,42.494011],[-108.679949,42.499096],[-108.687384,42.49874],[-108.687369,42.493852],[-108.679828,42.494011]],[[-108.680745,42.499421],[-108.679684,42.500119],[-108.680318,42.508529],[-108.6794,42.516034],[-108.689079,42.515989],[-108.689001,42.511596],[-108.689553,42.505025],[-108.688921,42.499396],[-108.680745,42.499421]]]}},{"type":"Feature","properties":{"id":"allot-wy01905","kind":"allotment","name":"Ellis Upper Beaver","acres":5084.8,"editable":false,"source":"BLM National Grazing Allotments","allot_no":"WY01905"},"geometry":{"type":"Polygon","coordinates":[[[-108.640506,42.559478],[-108.640308,42.562146],[-108.636244,42.563154],[-108.631508,42.56181],[-108.624993,42.561623],[-108.624977,42.5591],[-108.610257,42.559483],[-108.609993,42.556199],[-108.611195,42.548744],[-108.613399,42.548679],[-108.62049,42.545011],[-108.620506,42.54325],[-108.634916,42.539494],[-108.643421,42.539282],[-108.646678,42.537146],[-108.647823,42.537121],[-108.654458,42.53989],[-108.665809,42.543886],[-108.672087,42.54725],[-108.683914,42.541766],[-108.685645,42.541667],[-108.691023,42.542235],[-108.691065,42.540092],[-108.691971,42.540096],[-108.692124,42.540823],[-108.698791,42.542024],[-108.699011,42.541456],[-108.707137,42.538399],[-108.707036,42.537039],[-108.713534,42.536819],[-108.717573,42.540715],[-108.723464,42.53941],[-108.723865,42.540229],[-108.726102,42.542102],[-108.728889,42.543792],[-108.730794,42.54656],[-108.730366,42.54802],[-108.729006,42.5495],[-108.721338,42.553549],[-108.713162,42.559836],[-108.703366,42.563243],[-108.698801,42.566677],[-108.698793,42.566039],[-108.67946,42.565983],[-108.679332,42.559408],[-108.640506,42.559478]]]}},{"type":"Feature","properties":{"id":"allot-wy01908","kind":"allotment","name":"Little Popo Agie AMP","acres":13069.7,"editable":false,"source":"BLM National Grazing Allotments","allot_no":"WY01908"},"geometry":{"type":"Polygon","coordinates":[[[-108.670555,42.667387],[-108.67055,42.664854],[-108.668652,42.664196],[-108.668716,42.662225],[-108.662023,42.659556],[-108.659781,42.66138],[-108.657838,42.658116],[-108.65448,42.655927],[-108.653039,42.657635],[-108.649716,42.654504],[-108.649141,42.652034],[-108.633419,42.635337],[-108.636565,42.630705],[-108.633672,42.628378],[-108.630838,42.625124],[-108.63084,42.623756],[-108.634085,42.621162],[-108.634262,42.617704],[-108.640861,42.617637],[-108.640879,42.614187],[-108.65551,42.613846],[-108.665281,42.605741],[-108.663704,42.603187],[-108.660449,42.60313],[-108.660274,42.597287],[-108.656608,42.598401],[-108.652161,42.599206],[-108.640052,42.604294],[-108.634592,42.60511],[-108.625782,42.601624],[-108.624126,42.600403],[-108.623305,42.598916],[-108.619102,42.598941],[-108.622938,42.595936],[-108.625202,42.595335],[-108.628623,42.595046],[-108.639938,42.595019],[-108.643592,42.594707],[-108.646245,42.593466],[-108.650156,42.588561],[-108.652759,42.586689],[-108.654555,42.585889],[-108.657712,42.585468],[-108.661412,42.584545],[-108.668268,42.584864],[-108.673867,42.583295],[-108.679034,42.580242],[-108.680659,42.579753],[-108.685882,42.57913],[-108.694197,42.573538],[-108.698796,42.567519],[-108.698446,42.594148],[-108.699271,42.609056],[-108.718647,42.608889],[-108.718397,42.616262],[-108.719989,42.623376],[-108.720397,42.663138],[-108.714905,42.663292],[-108.714993,42.667057],[-108.680341,42.667374],[-108.680384,42.670967],[-108.675494,42.67095],[-108.675448,42.667381],[-108.670555,42.667387]]]}},{"type":"Feature","properties":{"id":"allot-wy02219","kind":"allotment","name":"Orchard Draw","acres":3058.2,"editable":false,"source":"BLM National Grazing Allotments","allot_no":"WY02219"},"geometry":{"type":"Polygon","coordinates":[[[-108.66253,42.688896],[-108.664441,42.686864],[-108.664616,42.684365],[-108.663929,42.683085],[-108.66399,42.681452],[-108.670752,42.681571],[-108.670555,42.667387],[-108.675448,42.667381],[-108.675494,42.67095],[-108.680384,42.670967],[-108.680341,42.667374],[-108.714993,42.667057],[-108.714905,42.663292],[-108.720397,42.663138],[-108.720467,42.666969],[-108.740226,42.666833],[-108.74045,42.67399],[-108.730577,42.67406],[-108.730807,42.681217],[-108.72094,42.681288],[-108.720996,42.684849],[-108.715392,42.684959],[-108.715534,42.692063],[-108.700608,42.692305],[-108.700439,42.68878],[-108.66253,42.688896]],[[-108.695171,42.678125],[-108.695206,42.681732],[-108.700102,42.681681],[-108.700071,42.678115],[-108.695171,42.678125]]]}},{"type":"Feature","properties":{"id":"allot-wy02210","kind":"allotment","name":"Willow Creek 24","acres":1109.2,"editable":false,"source":"BLM National Grazing Allotments","allot_no":"WY02210"},"geometry":{"type":"Polygon","coordinates":[[[-108.710664,42.695751],[-108.710559,42.692144],[-108.715534,42.692063],[-108.715463,42.688511],[-108.725928,42.688378],[-108.725901,42.684815],[-108.740612,42.684712],[-108.740674,42.681146],[-108.75552,42.681133],[-108.755192,42.688194],[-108.750311,42.688222],[-108.750248,42.698942],[-108.74537,42.698995],[-108.745632,42.706315],[-108.740622,42.706427],[-108.740427,42.695359],[-108.710664,42.695751]]]}},{"type":"Feature","properties":{"id":"allot-wy02206","kind":"allotment","name":"Wickstrom 17","acres":178.9,"editable":false,"source":"BLM National Grazing Allotments","allot_no":"WY02206"},"geometry":{"type":"Polygon","coordinates":[[[-108.710652,42.699323],[-108.710664,42.695751],[-108.721165,42.695551],[-108.7215,42.706312],[-108.715578,42.706423],[-108.7156,42.699222],[-108.710652,42.699323]]]}},{"type":"Feature","properties":{"id":"allot-wy02240","kind":"allotment","name":"Harvey Basin","acres":3377.5,"editable":false,"source":"BLM National Grazing Allotments","allot_no":"WY02240"},"geometry":{"type":"Polygon","coordinates":[[[-108.731465,42.742112],[-108.731381,42.72423],[-108.726572,42.724059],[-108.721721,42.720407],[-108.721679,42.716926],[-108.736189,42.716939],[-108.735952,42.709702],[-108.741104,42.70969],[-108.740622,42.706427],[-108.745632,42.706315],[-108.74537,42.698995],[-108.750248,42.698942],[-108.750311,42.688222],[-108.755192,42.688194],[-108.75552,42.681133],[-108.760469,42.681128],[-108.759352,42.701446],[-108.760662,42.705977],[-108.760992,42.709548],[-108.765915,42.709469],[-108.765542,42.720148],[-108.770281,42.720327],[-108.770099,42.723904],[-108.779314,42.724288],[-108.779477,42.727909],[-108.760845,42.727269],[-108.760729,42.738518],[-108.760111,42.746011],[-108.745747,42.746034],[-108.745951,42.742364],[-108.731465,42.742112]]]}},{"type":"Feature","properties":{"id":"allot-wy02229","kind":"allotment","name":"Kaper 59","acres":277.4,"editable":false,"source":"BLM National Grazing Allotments","allot_no":"WY02229"},"geometry":{"type":"Polygon","coordinates":[[[-108.680991,42.714247],[-108.685918,42.714152],[-108.68587,42.724903],[-108.676003,42.725042],[-108.676138,42.710746],[-108.681003,42.710661],[-108.680991,42.714247]]]}},{"type":"Feature","properties":{"id":"allot-wy02216","kind":"allotment","name":"Day 39","acres":106.6,"editable":false,"source":"BLM National Grazing Allotments","allot_no":"WY02216"},"geometry":{"type":"MultiPolygon","coordinates":[[[[-108.721763,42.723887],[-108.721721,42.720407],[-108.726572,42.724059],[-108.721763,42.723887]]],[[[-108.710578,42.724262],[-108.710587,42.72073],[-108.71555,42.720586],[-108.715547,42.724095],[-108.710578,42.724262]]],[[[-108.721679,42.716926],[-108.721721,42.720407],[-108.71555,42.720586],[-108.715554,42.717077],[-108.721679,42.716926]]]]}},{"type":"Feature","properties":{"id":"allot-wy02214","kind":"allotment","name":"Meyer Basin","acres":1275.3,"editable":false,"source":"BLM National Grazing Allotments","allot_no":"WY02214"},"geometry":{"type":"MultiPolygon","coordinates":[[[[-108.799388,42.738523],[-108.794549,42.738585],[-108.794485,42.734941],[-108.799358,42.734871],[-108.799388,42.738523]]],[[[-108.799329,42.73122],[-108.794421,42.731297],[-108.794369,42.727667],[-108.799323,42.727586],[-108.799329,42.73122]]],[[[-108.799287,42.713001],[-108.794412,42.713114],[-108.794359,42.705965],[-108.799206,42.70588],[-108.799287,42.713001]]],[[[-108.779409,42.702584],[-108.774799,42.702541],[-108.774412,42.695177],[-108.779325,42.695148],[-108.779409,42.702584]]],[[[-108.760992,42.709548],[-108.760662,42.705977],[-108.770513,42.705944],[-108.770839,42.70939],[-108.770281,42.720327],[-108.765542,42.720148],[-108.765915,42.709469],[-108.760992,42.709548]]],[[[-108.76516,42.749631],[-108.765176,42.746006],[-108.780028,42.745993],[-108.780024,42.753214],[-108.770104,42.753241],[-108.770173,42.749622],[-108.76516,42.749631]]],[[[-108.775078,42.713256],[-108.779504,42.713442],[-108.779568,42.709826],[-108.784588,42.709736],[-108.7845,42.706127],[-108.789512,42.706049],[-108.789536,42.713227],[-108.78452,42.713334],[-108.784452,42.716932],[-108.789464,42.716807],[-108.78939,42.720464],[-108.779378,42.720673],[-108.774829,42.7205],[-108.775078,42.713256]]],[[[-108.789709,42.738647],[-108.780031,42.738771],[-108.779314,42.724288],[-108.789316,42.72412],[-108.789709,42.738647]]]]}},{"type":"Feature","properties":{"id":"allot-wy01922","kind":"allotment","name":"French George Crossing","acres":1722.9,"editable":false,"source":"BLM National Grazing Allotments","allot_no":"WY01922"},"geometry":{"type":"Polygon","coordinates":[[[-108.481215,42.521674],[-108.48334,42.521503],[-108.482612,42.520173],[-108.486161,42.516632],[-108.487917,42.510628],[-108.489234,42.508783],[-108.492037,42.507746],[-108.491238,42.504353],[-108.493015,42.499622],[-108.503621,42.499596],[-108.507277,42.495781],[-108.512189,42.49575],[-108.512582,42.509952],[-108.514809,42.509997],[-108.518641,42.51106],[-108.520302,42.510896],[-108.522638,42.519655],[-108.516396,42.521089],[-108.510671,42.521885],[-108.504727,42.524679],[-108.503945,42.524438],[-108.502409,42.524534],[-108.488687,42.52575],[-108.482365,42.529369],[-108.480659,42.527671],[-108.481215,42.521674]]]}},{"type":"Feature","properties":{"id":"allot-wy01918","kind":"allotment","name":"Mc Graw Flt-U.Beaver","acres":16629.4,"editable":false,"source":"BLM National Grazing Allotments","allot_no":"WY01918"},"geometry":{"type":"Polygon","coordinates":[[[-108.573674,42.575806],[-108.573065,42.573318],[-108.569388,42.571142],[-108.560545,42.573877],[-108.560101,42.565054],[-108.547677,42.555306],[-108.540655,42.5555],[-108.538794,42.557825],[-108.536891,42.559543],[-108.532106,42.553914],[-108.530092,42.552696],[-108.530472,42.54134],[-108.529499,42.541306],[-108.526339,42.542389],[-108.519082,42.543196],[-108.51706,42.54146],[-108.515588,42.541623],[-108.514826,42.541315],[-108.514778,42.540476],[-108.5126,42.538737],[-108.482937,42.539217],[-108.482365,42.529369],[-108.488687,42.52575],[-108.502409,42.524534],[-108.503945,42.524438],[-108.504727,42.524679],[-108.510671,42.521885],[-108.516396,42.521089],[-108.522638,42.519655],[-108.520302,42.510896],[-108.527491,42.509727],[-108.532599,42.509333],[-108.538961,42.508164],[-108.54657,42.508106],[-108.548497,42.508191],[-108.550183,42.509324],[-108.554145,42.50925],[-108.555318,42.508857],[-108.557976,42.508662],[-108.566715,42.509561],[-108.573934,42.510871],[-108.577788,42.510508],[-108.594252,42.512719],[-108.604073,42.512609],[-108.604372,42.516873],[-108.620195,42.515494],[-108.636399,42.517198],[-108.643337,42.518515],[-108.650807,42.521831],[-108.662235,42.527918],[-108.677127,42.53117],[-108.683914,42.541766],[-108.672087,42.54725],[-108.665809,42.543886],[-108.654458,42.53989],[-108.649374,42.537572],[-108.647823,42.537121],[-108.646678,42.537146],[-108.643421,42.539282],[-108.634916,42.539494],[-108.620506,42.54325],[-108.62049,42.545011],[-108.613399,42.548679],[-108.611195,42.548744],[-108.609993,42.556199],[-108.610257,42.559483],[-108.624977,42.5591],[-108.625107,42.566413],[-108.612746,42.581068],[-108.600896,42.582191],[-108.580246,42.581404],[-108.581359,42.573515],[-108.581016,42.572118],[-108.573674,42.575806]]]}},{"type":"Feature","properties":{"id":"allot-wy01919","kind":"allotment","name":"Gravel Springs","acres":4517.0,"editable":false,"source":"BLM National Grazing Allotments","allot_no":"WY01919"},"geometry":{"type":"Polygon","coordinates":[[[-108.476816,42.57561],[-108.476687,42.553697],[-108.482075,42.553784],[-108.482937,42.539217],[-108.5126,42.538737],[-108.514778,42.540476],[-108.514826,42.541315],[-108.515588,42.541623],[-108.51706,42.54146],[-108.519082,42.543196],[-108.526339,42.542389],[-108.529499,42.541306],[-108.530472,42.54134],[-108.530092,42.552696],[-108.532106,42.553914],[-108.536891,42.559543],[-108.538752,42.565291],[-108.53431,42.56942],[-108.520066,42.576439],[-108.513774,42.580525],[-108.512994,42.582426],[-108.501135,42.582603],[-108.501046,42.575379],[-108.476816,42.57561]]]}},{"type":"Feature","properties":{"id":"allot-wy01910","kind":"allotment","name":"Sawmill Basin","acres":5287.6,"editable":false,"source":"BLM National Grazing Allotments","allot_no":"WY01910"},"geometry":{"type":"Polygon","coordinates":[[[-108.612746,42.581068],[-108.625107,42.566413],[-108.624993,42.561623],[-108.631508,42.56181],[-108.636244,42.563154],[-108.640308,42.562146],[-108.640506,42.559478],[-108.679332,42.559408],[-108.67946,42.565983],[-108.698793,42.566039],[-108.698801,42.566677],[-108.693826,42.573027],[-108.686847,42.578033],[-108.684357,42.578865],[-108.680593,42.579239],[-108.677915,42.580124],[-108.673826,42.582831],[-108.671923,42.583499],[-108.667017,42.584443],[-108.661592,42.583981],[-108.658566,42.584783],[-108.653857,42.585498],[-108.652538,42.586091],[-108.648648,42.589142],[-108.645989,42.592646],[-108.642476,42.594262],[-108.624142,42.594874],[-108.621252,42.596047],[-108.61574,42.601609],[-108.612252,42.604315],[-108.607403,42.611003],[-108.601342,42.611056],[-108.600896,42.582191],[-108.612746,42.581068]]]}},{"type":"Feature","properties":{"id":"allot-wy01906","kind":"allotment","name":"Twin Ck. Individual","acres":14564.3,"editable":false,"source":"BLM National Grazing Allotments","allot_no":"WY01906"},"geometry":{"type":"Polygon","coordinates":[[[-108.476816,42.57561],[-108.501046,42.575379],[-108.501135,42.582603],[-108.512994,42.582426],[-108.513774,42.580525],[-108.520066,42.576439],[-108.53431,42.56942],[-108.538752,42.565291],[-108.536891,42.559543],[-108.538794,42.557825],[-108.540655,42.5555],[-108.547677,42.555306],[-108.560101,42.565054],[-108.560545,42.573877],[-108.560134,42.581398],[-108.550374,42.581697],[-108.550459,42.595802],[-108.550082,42.598113],[-108.546747,42.608872],[-108.531853,42.617497],[-108.523209,42.625408],[-108.516204,42.632149],[-108.513592,42.637992],[-108.511506,42.645544],[-108.506423,42.648075],[-108.50394,42.648558],[-108.501377,42.648405],[-108.498475,42.64767],[-108.498788,42.641116],[-108.493784,42.641084],[-108.492383,42.626883],[-108.491958,42.62683],[-108.487307,42.629494],[-108.483242,42.626105],[-108.478639,42.626098],[-108.478623,42.624905],[-108.476036,42.624292],[-108.475285,42.620628],[-108.466536,42.616701],[-108.465814,42.612636],[-108.466184,42.612184],[-108.467537,42.611777],[-108.471634,42.612911],[-108.471488,42.612415],[-108.466159,42.607467],[-108.463844,42.603715],[-108.463219,42.603321],[-108.462249,42.603243],[-108.458073,42.597294],[-108.455,42.597341],[-108.455,42.553938],[-108.476687,42.553697],[-108.476816,42.57561]],[[-108.500159,42.598407],[-108.492515,42.601884],[-108.487407,42.603692],[-108.487277,42.604017],[-108.489318,42.606024],[-108.489487,42.609324],[-108.490358,42.610237],[-108.491526,42.613167],[-108.491628,42.61722],[-108.493827,42.619775],[-108.494798,42.620222],[-108.495724,42.621653],[-108.49597,42.623543],[-108.494867,42.624926],[-108.50057,42.62492],[-108.500447,42.62034],[-108.495589,42.613637],[-108.494568,42.613571],[-108.494034,42.610426],[-108.492359,42.604711],[-108.490895,42.604507],[-108.497519,42.604094],[-108.502192,42.6028],[-108.511049,42.601478],[-108.513085,42.600538],[-108.512735,42.599565],[-108.509051,42.595865],[-108.500159,42.598407]]]}},{"type":"Feature","properties":{"id":"allot-wy01912","kind":"allotment","name":"Twin Creek Private","acres":2356.2,"editable":false,"source":"BLM National Grazing Allotments","allot_no":"WY01912"},"geometry":{"type":"Polygon","coordinates":[[[-108.581402,42.603996],[-108.5799,42.59629],[-108.580246,42.581404],[-108.600893,42.582087],[-108.601492,42.614869],[-108.601243,42.618562],[-108.594532,42.622783],[-108.586869,42.62338],[-108.581658,42.626985],[-108.581417,42.640146],[-108.57167,42.640218],[-108.571739,42.633892],[-108.581402,42.603996]]]}},{"type":"Feature","properties":{"id":"allot-wy01907","kind":"allotment","name":"Commissary Hill","acres":1271.3,"editable":false,"source":"BLM National Grazing Allotments","allot_no":"WY01907"},"geometry":{"type":"Polygon","coordinates":[[[-108.586869,42.62338],[-108.594532,42.622783],[-108.601243,42.618562],[-108.601342,42.611056],[-108.607403,42.611003],[-108.606036,42.613549],[-108.606054,42.614751],[-108.606745,42.615714],[-108.61335,42.62094],[-108.613666,42.622733],[-108.612619,42.624936],[-108.609968,42.627134],[-108.607889,42.629713],[-108.60751,42.634868],[-108.606666,42.637501],[-108.606538,42.641289],[-108.605383,42.645129],[-108.601903,42.649062],[-108.601769,42.639049],[-108.597818,42.639338],[-108.594963,42.638252],[-108.594291,42.638765],[-108.58964,42.63532],[-108.587381,42.640023],[-108.581417,42.640146],[-108.581658,42.626985],[-108.586869,42.62338]]]}},{"type":"Feature","properties":{"id":"allot-wy01917","kind":"allotment","name":"Cottonwood Divide","acres":10994.4,"editable":false,"source":"BLM National Grazing Allotments","allot_no":"WY01917"},"geometry":{"type":"Polygon","coordinates":[[[-108.516204,42.632149],[-108.531853,42.617497],[-108.546747,42.608872],[-108.550082,42.598113],[-108.550459,42.595802],[-108.550374,42.581697],[-108.560134,42.581398],[-108.560545,42.573877],[-108.569388,42.571142],[-108.573065,42.573318],[-108.573674,42.575806],[-108.581016,42.572118],[-108.581359,42.573515],[-108.580246,42.581404],[-108.5799,42.59629],[-108.581402,42.603996],[-108.571739,42.633892],[-108.57167,42.640218],[-108.561718,42.640209],[-108.561759,42.669254],[-108.551104,42.669296],[-108.54366,42.675767],[-108.54284,42.679315],[-108.542828,42.683441],[-108.543786,42.690485],[-108.528431,42.690812],[-108.529148,42.692716],[-108.527833,42.69797],[-108.513627,42.699417],[-108.515524,42.689657],[-108.512063,42.687461],[-108.511907,42.684507],[-108.506572,42.682467],[-108.510171,42.674493],[-108.509204,42.673427],[-108.508795,42.671591],[-108.510183,42.670285],[-108.510543,42.669137],[-108.509578,42.665022],[-108.510605,42.664275],[-108.512041,42.662045],[-108.512174,42.659423],[-108.510766,42.65718],[-108.510955,42.654733],[-108.509947,42.651602],[-108.513592,42.637992],[-108.516204,42.632149]]]}},{"type":"Feature","properties":{"id":"allot-wy01934","kind":"allotment","name":"Red Canyon Rim","acres":2819.0,"editable":false,"source":"BLM National Grazing Allotments","allot_no":"WY01934"},"geometry":{"type":"Polygon","coordinates":[[[-108.655845,42.68976],[-108.652314,42.685588],[-108.647834,42.681164],[-108.648928,42.679755],[-108.650545,42.678664],[-108.650211,42.675825],[-108.649376,42.673895],[-108.647792,42.672427],[-108.644648,42.666877],[-108.642817,42.665119],[-108.642198,42.663204],[-108.640849,42.662603],[-108.640494,42.661605],[-108.641695,42.660553],[-108.641604,42.658785],[-108.638167,42.6554],[-108.635565,42.650744],[-108.633763,42.648837],[-108.629323,42.645542],[-108.628005,42.643486],[-108.627571,42.641241],[-108.62582,42.640306],[-108.624342,42.635111],[-108.622756,42.631239],[-108.619751,42.627187],[-108.618571,42.624857],[-108.614079,42.619802],[-108.612511,42.619309],[-108.606917,42.61496],[-108.606622,42.6134],[-108.608156,42.611],[-108.621135,42.610895],[-108.621048,42.614865],[-108.623718,42.61781],[-108.623482,42.62128],[-108.634085,42.621162],[-108.63084,42.623756],[-108.630838,42.625124],[-108.633672,42.628378],[-108.636565,42.630705],[-108.633419,42.635337],[-108.649141,42.652034],[-108.649716,42.654504],[-108.653039,42.657635],[-108.65448,42.655927],[-108.657838,42.658116],[-108.659781,42.66138],[-108.662023,42.659556],[-108.668716,42.662225],[-108.668652,42.664196],[-108.67055,42.664854],[-108.670752,42.681571],[-108.66399,42.681452],[-108.663929,42.683085],[-108.664616,42.684365],[-108.664441,42.686864],[-108.662662,42.688545],[-108.661451,42.690329],[-108.661276,42.693277],[-108.660882,42.693512],[-108.658886,42.692266],[-108.655071,42.692194],[-108.655845,42.68976]]]}},{"type":"Feature","properties":{"id":"allot-wy01909","kind":"allotment","name":"Onion Flat","acres":1773.3,"editable":false,"source":"BLM National Grazing Allotments","allot_no":"WY01909"},"geometry":{"type":"Polygon","coordinates":[[[-108.586255,42.640141],[-108.586154,42.661317],[-108.581543,42.661371],[-108.581484,42.672168],[-108.572912,42.678956],[-108.571635,42.68144],[-108.568722,42.678291],[-108.567497,42.67838],[-108.566632,42.669106],[-108.561759,42.669254],[-108.561718,42.640209],[-108.586255,42.640141]]]}},{"type":"Feature","properties":{"id":"allot-wy01911","kind":"allotment","name":"Red Canyon AMP","acres":4021.7,"editable":false,"source":"BLM National Grazing Allotments","allot_no":"WY01911"},"geometry":{"type":"Polygon","coordinates":[[[-108.640475,42.700721],[-108.635151,42.691913],[-108.619784,42.670105],[-108.616392,42.666882],[-108.611281,42.662968],[-108.601789,42.654861],[-108.600305,42.653023],[-108.600634,42.650835],[-108.605556,42.645983],[-108.606261,42.644837],[-108.607031,42.642613],[-108.607257,42.638332],[-108.608197,42.634855],[-108.607988,42.631689],[-108.60846,42.629911],[-108.609048,42.628938],[-108.61373,42.624217],[-108.614211,42.62186],[-108.612511,42.619309],[-108.614079,42.619802],[-108.618571,42.624857],[-108.619751,42.627187],[-108.622756,42.631239],[-108.624342,42.635111],[-108.62582,42.640306],[-108.627571,42.641241],[-108.628005,42.643486],[-108.629323,42.645542],[-108.633763,42.648837],[-108.635565,42.650744],[-108.638167,42.6554],[-108.641604,42.658785],[-108.641695,42.660553],[-108.640494,42.661605],[-108.640849,42.662603],[-108.642198,42.663204],[-108.642817,42.665119],[-108.644648,42.666877],[-108.647792,42.672427],[-108.649376,42.673895],[-108.650211,42.675825],[-108.650545,42.678664],[-108.648928,42.679755],[-108.647834,42.681164],[-108.652314,42.685588],[-108.655845,42.68976],[-108.655069,42.6922],[-108.65433,42.692365],[-108.651505,42.694371],[-108.651554,42.703518],[-108.651118,42.703812],[-108.641605,42.703848],[-108.640475,42.700721]]]}},{"type":"Feature","properties":{"id":"allot-wy01904","kind":"allotment","name":"Devils Canyon AMP","acres":4901.9,"editable":false,"source":"BLM National Grazing Allotments","allot_no":"WY01904"},"geometry":{"type":"Polygon","coordinates":[[[-108.581815,42.690649],[-108.582269,42.693575],[-108.580376,42.696973],[-108.578482,42.696512],[-108.576639,42.693439],[-108.573586,42.690468],[-108.571635,42.68144],[-108.572912,42.678956],[-108.581484,42.672168],[-108.581526,42.668964],[-108.586802,42.668907],[-108.587067,42.665599],[-108.59123,42.665619],[-108.591112,42.662311],[-108.592888,42.66176],[-108.598215,42.661675],[-108.59823,42.661312],[-108.602064,42.661377],[-108.602034,42.655721],[-108.619104,42.66998],[-108.623144,42.676033],[-108.636635,42.694512],[-108.636707,42.695726],[-108.640253,42.701422],[-108.641668,42.706141],[-108.641689,42.714707],[-108.631934,42.714778],[-108.631945,42.718359],[-108.622184,42.718436],[-108.622175,42.711263],[-108.604461,42.71124],[-108.602676,42.709647],[-108.602323,42.689798],[-108.581815,42.690649]]]}},{"type":"Feature","properties":{"id":"allot-wy01926","kind":"allotment","name":"Mckinney Individual","acres":2920.9,"editable":false,"source":"BLM National Grazing Allotments","allot_no":"WY01926"},"geometry":{"type":"MultiPolygon","coordinates":[[[[-108.602323,42.689798],[-108.602676,42.709647],[-108.598459,42.70601],[-108.589092,42.700373],[-108.586369,42.698973],[-108.580376,42.696973],[-108.582269,42.693575],[-108.581815,42.690649],[-108.602323,42.689798]]],[[[-108.555925,42.695525],[-108.558956,42.695688],[-108.566898,42.692896],[-108.569554,42.692985],[-108.571972,42.693895],[-108.576092,42.696886],[-108.586234,42.699842],[-108.594096,42.704298],[-108.582639,42.70459],[-108.574805,42.705454],[-108.56672,42.705629],[-108.561098,42.704617],[-108.555648,42.701509],[-108.552378,42.697222],[-108.55124,42.694536],[-108.555925,42.695525]]],[[[-108.528431,42.690812],[-108.543786,42.690485],[-108.542828,42.683441],[-108.54284,42.679315],[-108.54366,42.675767],[-108.551104,42.669296],[-108.566632,42.669106],[-108.567497,42.67838],[-108.568722,42.678291],[-108.571635,42.68144],[-108.573586,42.690468],[-108.576639,42.693439],[-108.578482,42.696512],[-108.575538,42.69569],[-108.573154,42.693452],[-108.570512,42.692406],[-108.568545,42.692143],[-108.566936,42.692226],[-108.559089,42.695294],[-108.556197,42.695125],[-108.549348,42.693528],[-108.546836,42.69351],[-108.541553,42.695537],[-108.536374,42.695544],[-108.53164,42.697112],[-108.527833,42.69797],[-108.529148,42.692716],[-108.528431,42.690812]]]]}},{"type":"Feature","properties":{"id":"allot-wy01807","kind":"allotment","name":"Baldwin Pasture","acres":1003.1,"editable":false,"source":"BLM National Grazing Allotments","allot_no":"WY01807"},"geometry":{"type":"Polygon","coordinates":[[[-108.587841,42.72959],[-108.587718,42.72603],[-108.592609,42.725956],[-108.5925,42.722321],[-108.593465,42.721193],[-108.592392,42.718686],[-108.592315,42.704343],[-108.594096,42.704298],[-108.599904,42.708384],[-108.621195,42.726913],[-108.617506,42.729155],[-108.615155,42.727375],[-108.608345,42.731616],[-108.605695,42.731614],[-108.603016,42.729116],[-108.587841,42.72959]]]}},{"type":"Feature","properties":{"id":"allot-wy01803","kind":"allotment","name":"Government Draw","acres":86458.7,"editable":false,"source":"BLM National Grazing Allotments","allot_no":"WY01803"},"geometry":{"type":"Polygon","coordinates":[[[-108.476501,42.760837],[-108.481417,42.748013],[-108.478042,42.743006],[-108.477782,42.737656],[-108.485838,42.733127],[-108.485899,42.72876],[-108.486472,42.726657],[-108.484978,42.724296],[-108.493593,42.713732],[-108.503748,42.713788],[-108.503685,42.70162],[-108.530701,42.698105],[-108.534684,42.696657],[-108.542668,42.695973],[-108.545692,42.694605],[-108.547826,42.694046],[-108.55124,42.694536],[-108.552378,42.697222],[-108.555648,42.701509],[-108.561098,42.704617],[-108.56672,42.705629],[-108.574805,42.705454],[-108.582639,42.70459],[-108.582792,42.718899],[-108.592392,42.718686],[-108.593465,42.721193],[-108.5925,42.722321],[-108.592609,42.725956],[-108.587718,42.72603],[-108.587841,42.72959],[-108.603016,42.729116],[-108.605695,42.731614],[-108.608345,42.731616],[-108.606861,42.73383],[-108.607872,42.735422],[-108.608046,42.746935],[-108.612845,42.746962],[-108.613188,42.76122],[-108.622768,42.761399],[-108.623635,42.781839],[-108.611151,42.781931],[-108.611317,42.796475],[-108.621142,42.79635],[-108.621218,42.803592],[-108.626031,42.803536],[-108.626033,42.818932],[-108.631318,42.819509],[-108.631383,42.821708],[-108.623939,42.821708],[-108.619041,42.82649],[-108.616613,42.828406],[-108.610957,42.829071],[-108.605161,42.83363],[-108.604114,42.832741],[-108.602445,42.832746],[-108.596953,42.82553],[-108.596774,42.811093],[-108.586971,42.811121],[-108.587139,42.825589],[-108.56746,42.825691],[-108.567592,42.836856],[-108.572534,42.839001],[-108.574431,42.837645],[-108.578978,42.840036],[-108.597111,42.839998],[-108.597139,42.843592],[-108.598839,42.845],[-108.455,42.845],[-108.455,42.760489],[-108.476501,42.760837]]]}},{"type":"Feature","properties":{"id":"allot-wy02203","kind":"allotment","name":"Madison Creek","acres":1991.8,"editable":false,"source":"BLM National Grazing Allotments","allot_no":"WY02203"},"geometry":{"type":"MultiPolygon","coordinates":[[[[-108.661975,42.754016],[-108.661358,42.739518],[-108.680828,42.739262],[-108.680951,42.742884],[-108.685867,42.742812],[-108.685994,42.746442],[-108.690914,42.746377],[-108.691177,42.753651],[-108.686249,42.753702],[-108.68628,42.757278],[-108.676495,42.757411],[-108.676484,42.753818],[-108.661975,42.754016]]],[[[-108.680991,42.714247],[-108.681003,42.710661],[-108.685934,42.710568],[-108.685907,42.706943],[-108.680964,42.707023],[-108.680882,42.699747],[-108.676012,42.699851],[-108.67597,42.696219],[-108.685826,42.696067],[-108.685853,42.699692],[-108.690824,42.699637],[-108.69085,42.706862],[-108.710627,42.706515],[-108.710614,42.710135],[-108.70072,42.710288],[-108.70068,42.717442],[-108.705638,42.71732],[-108.705623,42.720875],[-108.70066,42.721018],[-108.70064,42.724595],[-108.695717,42.724698],[-108.695678,42.728279],[-108.685838,42.728473],[-108.685918,42.714152],[-108.680991,42.714247]]]]}},{"type":"Feature","properties":{"id":"allot-wy02232","kind":"allotment","name":"Beason Creek 63","acres":477.1,"editable":false,"source":"BLM National Grazing Allotments","allot_no":"WY02232"},"geometry":{"type":"MultiPolygon","coordinates":[[[[-108.765554,42.738582],[-108.765365,42.742294],[-108.78003,42.742382],[-108.780028,42.745993],[-108.760111,42.746011],[-108.760729,42.738518],[-108.765554,42.738582]]],[[[-108.779477,42.727909],[-108.780031,42.738771],[-108.775206,42.738708],[-108.775073,42.735055],[-108.77031,42.73496],[-108.770239,42.731275],[-108.760806,42.731019],[-108.760845,42.727269],[-108.779477,42.727909]]]]}},{"type":"Feature","properties":{"id":"allot-wy02204","kind":"allotment","name":"Table Mountain 9","acres":1217.5,"editable":false,"source":"BLM National Grazing Allotments","allot_no":"WY02204"},"geometry":{"type":"MultiPolygon","coordinates":[[[[-108.746262,42.778182],[-108.741234,42.778086],[-108.740606,42.775159],[-108.745785,42.775114],[-108.746262,42.778182]]],[[[-108.750267,42.767818],[-108.745393,42.767852],[-108.745371,42.764217],[-108.750268,42.764188],[-108.750267,42.767818]]],[[[-108.726271,42.767304],[-108.721748,42.766724],[-108.710932,42.767215],[-108.710874,42.760041],[-108.721821,42.759432],[-108.730851,42.760002],[-108.730793,42.767885],[-108.735657,42.767886],[-108.735832,42.771348],[-108.731102,42.771174],[-108.73141,42.774463],[-108.726757,42.77411],[-108.726271,42.767304]]],[[[-108.740474,42.764246],[-108.740409,42.753333],[-108.7309,42.753222],[-108.726398,42.75263],[-108.72658,42.745161],[-108.721864,42.744869],[-108.721907,42.737809],[-108.731635,42.738771],[-108.731465,42.742112],[-108.745951,42.742364],[-108.74534,42.753315],[-108.745371,42.764217],[-108.740474,42.764246]]]]}},{"type":"Feature","properties":{"id":"allot-wy02235","kind":"allotment","name":"Horny Toad Associate","acres":523.1,"editable":false,"source":"BLM National Grazing Allotments","allot_no":"WY02235"},"geometry":{"type":"MultiPolygon","coordinates":[[[[-108.745349,42.760583],[-108.750269,42.760559],[-108.750268,42.764188],[-108.745371,42.764217],[-108.745349,42.760583]]],[[[-108.760056,42.76413],[-108.760014,42.76775],[-108.765084,42.767724],[-108.765171,42.771344],[-108.750616,42.771443],[-108.750268,42.764188],[-108.760056,42.76413]]],[[[-108.770173,42.749622],[-108.770104,42.753241],[-108.775064,42.753228],[-108.775103,42.760439],[-108.760099,42.76051],[-108.760185,42.753269],[-108.765144,42.753255],[-108.76516,42.749631],[-108.770173,42.749622]]]]}},{"type":"Feature","properties":{"id":"allot-wy02230","kind":"allotment","name":"Table Mtn 61","acres":2163.8,"editable":false,"source":"BLM National Grazing Allotments","allot_no":"WY02230"},"geometry":{"type":"MultiPolygon","coordinates":[[[[-108.72466,42.802834],[-108.724724,42.806473],[-108.73452,42.806377],[-108.734455,42.799116],[-108.739403,42.799062],[-108.739448,42.809968],[-108.719889,42.810162],[-108.719753,42.802905],[-108.72466,42.802834]]],[[[-108.686312,42.760854],[-108.686249,42.753702],[-108.691177,42.753651],[-108.690914,42.746377],[-108.705708,42.745924],[-108.705817,42.74956],[-108.710739,42.749221],[-108.710662,42.745601],[-108.721864,42.744869],[-108.72658,42.745161],[-108.726398,42.75263],[-108.7309,42.753222],[-108.730851,42.760002],[-108.721821,42.759432],[-108.710874,42.760041],[-108.711316,42.774286],[-108.691786,42.774961],[-108.691255,42.760764],[-108.686312,42.760854]]]]}},{"type":"Feature","properties":{"id":"allot-wy02231","kind":"allotment","name":"Booth 62","acres":161.3,"editable":false,"source":"BLM National Grazing Allotments","allot_no":"WY02231"},"geometry":{"type":"Polygon","coordinates":[[[-108.690914,42.746377],[-108.685994,42.746442],[-108.685867,42.742812],[-108.690782,42.74274],[-108.690914,42.746377]]]}},{"type":"Feature","properties":{"id":"allot-wy01928","kind":"allotment","name":"Lower Ellis Ranch","acres":902.4,"editable":false,"source":"BLM National Grazing Allotments","allot_no":"WY01928"},"geometry":{"type":"Polygon","coordinates":[[[-108.269867,42.492227],[-108.279757,42.492663],[-108.2827,42.492082],[-108.282833,42.486592],[-108.294822,42.484878],[-108.294863,42.481477],[-108.304657,42.481573],[-108.304643,42.497933],[-108.298156,42.499438],[-108.286429,42.499551],[-108.285351,42.497616],[-108.269644,42.497584],[-108.269867,42.492227]]]}}]}