{"type":"FeatureCollection","features":[{"type":"Feature","properties":{"id":"own-a-blm","kind":"ownership","name":"BLM","acres":61934.2,"editable":false,"source":"BLM Surface Management Agency"},"geometry":{"type":"MultiPolygon","coordinates":[[[[-108.559966,42.567125],[-108.53974,42.567262],[-108.540309,42.578046],[-108.530416,42.578245],[-108.530539,42.581847],[-108.525558,42.58195],[-108.525708,42.585638],[-108.52,42.585792],[-108.520491,42.556774],[-108.525394,42.55668],[-108.525547,42.545832],[-108.52,42.545931],[-108.52,42.52],[-108.531808,42.52],[-108.531122,42.531309],[-108.550605,42.531079],[-108.550871,42.527471],[-108.560731,42.527372],[-108.580711,42.52724],[-108.580673,42.530905],[-108.590653,42.530749],[-108.590676,42.537985],[-108.580598,42.538236],[-108.580702,42.552974],[-108.559975,42.552655],[-108.559966,42.567125]],[[-108.55992,42.545426],[-108.555004,42.545463],[-108.554987,42.541852],[-108.540272,42.541969],[-108.540257,42.54557],[-108.53045,42.545745],[-108.530416,42.549356],[-108.545168,42.549139],[-108.545173,42.545535],[-108.550088,42.545499],[-108.550101,42.552714],[-108.540227,42.552774],[-108.540105,42.556396],[-108.555006,42.556303],[-108.555038,42.552684],[-108.559975,42.552655],[-108.55992,42.545426]]],[[[-108.705207,42.667117],[-108.705242,42.674342],[-108.700256,42.674435],[-108.700264,42.670835],[-108.690335,42.670886],[-108.690214,42.663692],[-108.685267,42.663712],[-108.685339,42.667321],[-108.680362,42.667349],[-108.680196,42.652883],[-108.660734,42.652993],[-108.660711,42.667273],[-108.65577,42.667327],[-108.655694,42.652979],[-108.650655,42.652964],[-108.650681,42.649331],[-108.645686,42.649312],[-108.645828,42.642035],[-108.640922,42.642005],[-108.640933,42.634783],[-108.635953,42.634969],[-108.63568,42.616983],[-108.640603,42.616859],[-108.640595,42.613266],[-108.660206,42.613363],[-108.660125,42.609709],[-108.67961,42.609457],[-108.679712,42.605652],[-108.674849,42.605729],[-108.674954,42.602106],[-108.679804,42.602029],[-108.680126,42.594783],[-108.675231,42.594856],[-108.675071,42.591213],[-108.679995,42.591135],[-108.679601,42.580193],[-108.694313,42.580308],[-108.694174,42.576713],[-108.699005,42.576739],[-108.699465,42.594757],[-108.699044,42.609354],[-108.713685,42.609322],[-108.71353,42.616381],[-108.713998,42.619924],[-108.709371,42.619982],[-108.709666,42.63076],[-108.714561,42.630653],[-108.714656,42.637775],[-108.704894,42.638026],[-108.704828,42.641686],[-108.714644,42.641362],[-108.714633,42.644953],[-108.720027,42.644738],[-108.720425,42.66687],[-108.705207,42.667117]],[[-108.679734,42.613077],[-108.674852,42.613149],[-108.674965,42.616777],[-108.670072,42.616857],[-108.670174,42.620494],[-108.679981,42.620317],[-108.679858,42.616697],[-108.684743,42.616661],[-108.684606,42.613046],[-108.689478,42.613015],[-108.689327,42.609405],[-108.67961,42.609457],[-108.679734,42.613077]],[[-108.694185,42.60938],[-108.694292,42.605608],[-108.689448,42.605623],[-108.689327,42.609405],[-108.694185,42.60938]],[[-108.66541,42.634914],[-108.660475,42.634955],[-108.660484,42.638499],[-108.665425,42.638476],[-108.66541,42.634914]],[[-108.660457,42.627868],[-108.665378,42.62779],[-108.665362,42.624228],[-108.655491,42.624255],[-108.65559,42.634912],[-108.660475,42.634955],[-108.660457,42.627868]],[[-108.670391,42.642075],[-108.665469,42.642099],[-108.665556,42.649343],[-108.67044,42.649317],[-108.670391,42.642075]],[[-108.69492,42.645569],[-108.690021,42.645595],[-108.689963,42.649241],[-108.69484,42.64923],[-108.69492,42.645569]]],[[[-108.655947,42.678075],[-108.646053,42.678288],[-108.646373,42.689204],[-108.636506,42.689369],[-108.636621,42.692986],[-108.651377,42.692769],[-108.651271,42.689123],[-108.661177,42.688958],[-108.661247,42.692625],[-108.656312,42.692697],[-108.656404,42.696467],[-108.651485,42.696495],[-108.651533,42.703759],[-108.641669,42.703824],[-108.641702,42.714677],[-108.636812,42.714715],[-108.636824,42.718299],[-108.622157,42.718418],[-108.622004,42.696742],[-108.602187,42.696957],[-108.602104,42.682579],[-108.596758,42.682643],[-108.596679,42.679109],[-108.591769,42.679188],[-108.591853,42.682693],[-108.582052,42.682959],[-108.581948,42.679422],[-108.572098,42.679598],[-108.571989,42.676043],[-108.576917,42.675965],[-108.57681,42.672419],[-108.581742,42.67235],[-108.581638,42.668814],[-108.586577,42.668666],[-108.586527,42.665097],[-108.59146,42.664973],[-108.591404,42.661428],[-108.601859,42.661217],[-108.601643,42.639581],[-108.596189,42.639686],[-108.596189,42.63614],[-108.591292,42.636228],[-108.591291,42.639771],[-108.581509,42.640097],[-108.581519,42.625613],[-108.561851,42.625626],[-108.561759,42.611142],[-108.547111,42.611638],[-108.546527,42.607329],[-108.531947,42.607653],[-108.532293,42.611707],[-108.542056,42.611749],[-108.542347,42.625971],[-108.547223,42.625884],[-108.547205,42.640276],[-108.542322,42.640302],[-108.542309,42.647531],[-108.532553,42.647638],[-108.532534,42.651258],[-108.52,42.651435],[-108.52,42.593226],[-108.521133,42.593212],[-108.520948,42.589493],[-108.530766,42.589157],[-108.530652,42.585502],[-108.535597,42.585367],[-108.535519,42.581744],[-108.550492,42.581688],[-108.550416,42.595778],[-108.550825,42.599454],[-108.545753,42.599533],[-108.545964,42.603177],[-108.555575,42.603093],[-108.555319,42.595819],[-108.5709,42.596283],[-108.571253,42.603526],[-108.586437,42.603917],[-108.586444,42.611197],[-108.571626,42.611194],[-108.571656,42.618407],[-108.586425,42.618382],[-108.586407,42.625554],[-108.591294,42.625495],[-108.591345,42.618334],[-108.601463,42.618234],[-108.601524,42.625428],[-108.620836,42.624756],[-108.620895,42.628346],[-108.625852,42.628166],[-108.625922,42.631753],[-108.630891,42.63157],[-108.630973,42.635155],[-108.625993,42.635341],[-108.626063,42.638928],[-108.621071,42.639116],[-108.621129,42.642713],[-108.635974,42.642182],[-108.635901,42.645814],[-108.640807,42.645649],[-108.640575,42.652936],[-108.645615,42.65295],[-108.645683,42.656571],[-108.650698,42.656568],[-108.650829,42.66738],[-108.65577,42.667327],[-108.655947,42.678075]],[[-108.631681,42.693062],[-108.631825,42.696648],[-108.636736,42.6966],[-108.636621,42.692986],[-108.631681,42.693062]],[[-108.645887,42.667434],[-108.645943,42.671052],[-108.650886,42.670981],[-108.650829,42.66738],[-108.645887,42.667434]],[[-108.61121,42.642875],[-108.606466,42.643027],[-108.606551,42.646663],[-108.611302,42.646548],[-108.61121,42.642875]],[[-108.621254,42.660792],[-108.616382,42.660899],[-108.616378,42.664502],[-108.621231,42.664436],[-108.621254,42.660792]]],[[[-108.755962,42.723685],[-108.76088,42.723519],[-108.760682,42.716415],[-108.745923,42.716964],[-108.745561,42.706294],[-108.770454,42.705948],[-108.770768,42.709398],[-108.770093,42.723926],[-108.78,42.724319],[-108.78,42.738819],[-108.775233,42.738746],[-108.775091,42.735092],[-108.770322,42.734986],[-108.770245,42.7313],[-108.755915,42.731135],[-108.755962,42.723685]]],[[[-108.740546,42.706403],[-108.740408,42.695329],[-108.721157,42.695552],[-108.721506,42.706316],[-108.715602,42.706422],[-108.715611,42.699215],[-108.710673,42.699309],[-108.710584,42.692095],[-108.705636,42.692196],[-108.705548,42.688628],[-108.710493,42.688541],[-108.710402,42.684965],[-108.720923,42.684796],[-108.720425,42.66687],[-108.740199,42.666807],[-108.740645,42.681106],[-108.760413,42.681039],[-108.7599,42.688053],[-108.755091,42.688092],[-108.754841,42.695264],[-108.75003,42.695286],[-108.750211,42.698919],[-108.745333,42.69897],[-108.745561,42.706294],[-108.740546,42.706403]]],[[[-108.675093,42.598481],[-108.67022,42.598556],[-108.669988,42.605806],[-108.665095,42.605884],[-108.66519,42.602259],[-108.660275,42.602336],[-108.66041,42.598706],[-108.655613,42.598696],[-108.655756,42.59507],[-108.650967,42.595064],[-108.650816,42.598685],[-108.64598,42.598675],[-108.645781,42.602291],[-108.640898,42.602275],[-108.640748,42.605892],[-108.63094,42.606058],[-108.631089,42.602424],[-108.626118,42.602498],[-108.626222,42.591627],[-108.645912,42.591477],[-108.645645,42.587896],[-108.660049,42.587818],[-108.659801,42.584189],[-108.669767,42.584015],[-108.670336,42.594929],[-108.675231,42.594856],[-108.675093,42.598481]]],[[[-108.680405,42.670937],[-108.675497,42.670912],[-108.675449,42.66733],[-108.680362,42.667349],[-108.680405,42.670937]]],[[[-108.690353,42.67448],[-108.680449,42.674524],[-108.680405,42.670937],[-108.690335,42.670886],[-108.690353,42.67448]]],[[[-108.695304,42.674458],[-108.695315,42.68165],[-108.690388,42.681666],[-108.690353,42.67448],[-108.695304,42.674458]]],[[[-108.561856,42.6402],[-108.552089,42.640251],[-108.552099,42.625798],[-108.561851,42.625626],[-108.561856,42.6402]]],[[[-108.547175,42.647508],[-108.54716,42.651124],[-108.542302,42.651146],[-108.542309,42.647531],[-108.547175,42.647508]]],[[[-108.576596,42.640123],[-108.576577,42.643717],[-108.581497,42.643682],[-108.581474,42.650853],[-108.576539,42.650904],[-108.57652,42.654498],[-108.581462,42.654438],[-108.58155,42.661626],[-108.576612,42.661686],[-108.576704,42.668873],[-108.571769,42.668932],[-108.571879,42.672488],[-108.566948,42.672557],[-108.566835,42.668992],[-108.561901,42.669051],[-108.561856,42.6402],[-108.576596,42.640123]]],[[[-108.522849,42.669476],[-108.522955,42.676804],[-108.542541,42.6764],[-108.542386,42.669173],[-108.552143,42.669112],[-108.55272,42.690713],[-108.528103,42.691282],[-108.528161,42.694911],[-108.52,42.695139],[-108.52,42.655059],[-108.522734,42.654996],[-108.522763,42.658616],[-108.527652,42.658553],[-108.527733,42.669401],[-108.522849,42.669476]]],[[[-108.528971,42.756279],[-108.528857,42.749086],[-108.523553,42.749202],[-108.523459,42.741984],[-108.52,42.742026],[-108.52,42.702477],[-108.528213,42.702268],[-108.528221,42.698706],[-108.533164,42.698581],[-108.53309,42.694776],[-108.547894,42.694417],[-108.547982,42.698216],[-108.562781,42.697878],[-108.562693,42.694152],[-108.567643,42.694045],[-108.567753,42.697757],[-108.572725,42.697636],[-108.57274,42.701216],[-108.577574,42.701113],[-108.577612,42.704707],[-108.582469,42.704618],[-108.582631,42.718922],[-108.592233,42.71871],[-108.59265,42.729497],[-108.602873,42.729138],[-108.602909,42.732694],[-108.607743,42.732712],[-108.607781,42.736277],[-108.602953,42.736253],[-108.602997,42.739811],[-108.60782,42.739842],[-108.60795,42.746946],[-108.612785,42.746967],[-108.613112,42.76117],[-108.627612,42.761245],[-108.627829,42.76826],[-108.622993,42.768304],[-108.623476,42.78],[-108.52,42.78],[-108.52,42.756485],[-108.52365,42.756407],[-108.523653,42.763569],[-108.534256,42.763319],[-108.534238,42.766902],[-108.544611,42.766666],[-108.544416,42.755934],[-108.528971,42.756279]],[[-108.563568,42.755219],[-108.563431,42.740847],[-108.544167,42.741546],[-108.544416,42.755934],[-108.563568,42.755219]],[[-108.544716,42.770256],[-108.544734,42.773464],[-108.549538,42.773419],[-108.549482,42.770108],[-108.544716,42.770256]],[[-108.568462,42.755144],[-108.56852,42.758749],[-108.57342,42.758672],[-108.573356,42.755069],[-108.568462,42.755144]],[[-108.573483,42.762275],[-108.573546,42.765885],[-108.578424,42.765804],[-108.578359,42.762197],[-108.573483,42.762275]],[[-108.588335,42.769076],[-108.588428,42.772688],[-108.583435,42.772934],[-108.583503,42.776542],[-108.593538,42.776057],[-108.593303,42.768826],[-108.588335,42.769076]]],[[[-108.536575,42.524044],[-108.536712,42.52],[-108.576231,42.52],[-108.57115,42.52022],[-108.570884,42.523669],[-108.536575,42.524044]]],[[[-108.577537,42.697519],[-108.577438,42.693833],[-108.582283,42.693729],[-108.582348,42.697402],[-108.577537,42.697519]]],[[[-108.572593,42.693938],[-108.572464,42.690334],[-108.577342,42.69023],[-108.577438,42.693833],[-108.572593,42.693938]]],[[[-108.585999,42.520088],[-108.581268,42.520164],[-108.581293,42.52],[-108.590732,42.520013],[-108.585999,42.520088]]],[[[-108.581044,42.578759],[-108.580961,42.575068],[-108.585951,42.575012],[-108.586011,42.578683],[-108.581044,42.578759]]],[[[-108.58124,42.586014],[-108.586166,42.58594],[-108.586261,42.589525],[-108.581353,42.589578],[-108.58124,42.586014]]],[[[-108.590978,42.578607],[-108.595923,42.578549],[-108.595936,42.582199],[-108.591014,42.582259],[-108.590978,42.578607]]],[[[-108.592147,42.704373],[-108.597101,42.704247],[-108.597095,42.707819],[-108.602518,42.707689],[-108.602628,42.711266],[-108.607503,42.711259],[-108.607571,42.718464],[-108.612445,42.718449],[-108.612478,42.722019],[-108.622171,42.722008],[-108.622212,42.729182],[-108.617378,42.729171],[-108.617349,42.725594],[-108.607674,42.725586],[-108.607623,42.722025],[-108.602767,42.722031],[-108.602662,42.714873],[-108.592121,42.715107],[-108.592147,42.704373]]],[[[-108.600465,42.523393],[-108.600491,42.52],[-108.61013,42.52],[-108.610153,42.523353],[-108.600465,42.523393]]],[[[-108.69878,42.555217],[-108.693905,42.555201],[-108.693886,42.551596],[-108.688991,42.551579],[-108.688963,42.548026],[-108.684055,42.548019],[-108.684014,42.544477],[-108.67423,42.544504],[-108.674229,42.540922],[-108.669364,42.540934],[-108.66936,42.537342],[-108.659695,42.537496],[-108.659382,42.530348],[-108.649504,42.530387],[-108.649334,42.526825],[-108.639407,42.526829],[-108.639998,42.537618],[-108.635077,42.537644],[-108.635075,42.541247],[-108.620435,42.541358],[-108.620481,42.544966],[-108.615557,42.545207],[-108.615622,42.548699],[-108.610715,42.548856],[-108.610451,42.537836],[-108.620389,42.53775],[-108.619844,42.523313],[-108.629527,42.523273],[-108.62967,42.52],[-108.70365,42.52],[-108.703466,42.52292],[-108.69849,42.522982],[-108.69878,42.555217]],[[-108.684949,42.532074],[-108.687534,42.53572],[-108.688358,42.535101],[-108.689597,42.536867],[-108.691792,42.536427],[-108.691078,42.535408],[-108.69271,42.53416],[-108.690142,42.530509],[-108.694663,42.527034],[-108.691464,42.524754],[-108.683708,42.530654],[-108.685309,42.531797],[-108.684949,42.532074]]],[[[-108.610873,42.574282],[-108.620797,42.573719],[-108.620646,42.559243],[-108.615725,42.559536],[-108.615706,42.555863],[-108.62547,42.555672],[-108.625555,42.562814],[-108.630428,42.562823],[-108.630478,42.566393],[-108.635357,42.566407],[-108.6354,42.573635],[-108.630532,42.573663],[-108.630987,42.588031],[-108.626059,42.588085],[-108.625698,42.577346],[-108.620836,42.577395],[-108.620875,42.581071],[-108.610935,42.581604],[-108.610873,42.574282]]],[[[-108.654682,42.548236],[-108.649797,42.548288],[-108.649846,42.559134],[-108.640048,42.559261],[-108.640015,42.555651],[-108.635172,42.555658],[-108.635102,42.548454],[-108.630249,42.548483],[-108.630218,42.544889],[-108.649813,42.544692],[-108.649846,42.537557],[-108.654771,42.537526],[-108.654732,42.54108],[-108.664499,42.540985],[-108.66447,42.544551],[-108.669369,42.544527],[-108.669373,42.548143],[-108.679147,42.548012],[-108.679202,42.551544],[-108.684097,42.551562],[-108.684147,42.555167],[-108.68903,42.555184],[-108.689068,42.558789],[-108.698778,42.558821],[-108.698778,42.566009],[-108.679512,42.565963],[-108.679326,42.558755],[-108.659487,42.559008],[-108.659525,42.555402],[-108.654669,42.555455],[-108.654682,42.548236]]],[[[-108.690877,42.70686],[-108.680986,42.707016],[-108.680915,42.699778],[-108.676026,42.69985],[-108.67599,42.696228],[-108.685854,42.696115],[-108.68588,42.699723],[-108.690844,42.699668],[-108.690877,42.70686]]],[[[-108.685884,42.72488],[-108.676009,42.72503],[-108.676134,42.710714],[-108.681021,42.710635],[-108.681003,42.714222],[-108.685939,42.714129],[-108.685884,42.72488]]],[[[-108.680535,42.681698],[-108.680492,42.678111],[-108.685431,42.678092],[-108.685462,42.681682],[-108.680535,42.681698]]],[[[-108.691101,42.749915],[-108.690978,42.746305],[-108.695895,42.746228],[-108.69601,42.749846],[-108.691101,42.749915]]],[[[-108.705954,42.522889],[-108.7061,42.52],[-108.7379,42.52],[-108.737399,42.522258],[-108.705954,42.522889]]],[[[-108.700714,42.720994],[-108.700731,42.717422],[-108.705691,42.717307],[-108.705681,42.720842],[-108.700714,42.720994]]],[[[-108.715589,42.720568],[-108.715591,42.717077],[-108.726496,42.716989],[-108.726588,42.724069],[-108.721779,42.723898],[-108.721736,42.720417],[-108.715589,42.720568]]],[[[-108.715586,42.724068],[-108.710644,42.724186],[-108.710648,42.720689],[-108.715589,42.720568],[-108.715586,42.724068]]],[[[-108.721826,42.759454],[-108.730864,42.760025],[-108.730802,42.767905],[-108.735662,42.767908],[-108.735842,42.771376],[-108.731114,42.771199],[-108.731426,42.774493],[-108.726772,42.774139],[-108.726282,42.767327],[-108.721762,42.766748],[-108.710806,42.767064],[-108.7108,42.75998],[-108.721826,42.759454]]],[[[-108.760224,42.753292],[-108.765172,42.753274],[-108.765193,42.746024],[-108.745765,42.746052],[-108.745371,42.760604],[-108.750291,42.760577],[-108.750281,42.764204],[-108.76007,42.764138],[-108.760019,42.767753],[-108.765087,42.76773],[-108.76518,42.771349],[-108.750627,42.771459],[-108.75027,42.767832],[-108.745396,42.767872],[-108.745384,42.764238],[-108.740487,42.764271],[-108.740452,42.753354],[-108.730918,42.753255],[-108.726405,42.752657],[-108.726584,42.745179],[-108.721866,42.744887],[-108.721913,42.737824],[-108.731633,42.738786],[-108.731509,42.731166],[-108.736379,42.73132],[-108.736421,42.735048],[-108.74127,42.735119],[-108.741291,42.738766],[-108.765563,42.738597],[-108.765378,42.742311],[-108.78,42.74242],[-108.78,42.75322],[-108.775068,42.753238],[-108.775103,42.760451],[-108.760121,42.760522],[-108.760224,42.753292]]],[[[-108.740618,42.775193],[-108.745801,42.775139],[-108.746264,42.778074],[-108.741254,42.778124],[-108.740618,42.775193]]],[[[-108.76156,42.522001],[-108.75786,42.522019],[-108.758179,42.520961],[-108.755758,42.520971],[-108.756093,42.52],[-108.775802,42.52],[-108.775126,42.521935],[-108.762793,42.521995],[-108.763218,42.520003],[-108.76203,42.520005],[-108.76156,42.522001]]],[[[-108.77936,42.702593],[-108.77475,42.702545],[-108.774389,42.695174],[-108.779301,42.695151],[-108.77936,42.702593]]],[[[-108.78,42.709832],[-108.78,42.720695],[-108.774806,42.720528],[-108.775022,42.713274],[-108.779448,42.713465],[-108.779496,42.709842],[-108.78,42.709832]]]]}},{"type":"Feature","properties":{"id":"own-a-state","kind":"ownership","name":"State","acres":18683.7,"editable":false,"source":"BLM Surface Management Agency"},"geometry":{"type":"MultiPolygon","coordinates":[[[[-108.581509,42.640097],[-108.5864,42.639934],[-108.586426,42.657918],[-108.581506,42.658032],[-108.581462,42.654438],[-108.57652,42.654498],[-108.576539,42.650904],[-108.581474,42.650853],[-108.581497,42.643682],[-108.576577,42.643717],[-108.576596,42.640123],[-108.561856,42.6402],[-108.561851,42.625626],[-108.581519,42.625613],[-108.581509,42.640097]]],[[[-108.561901,42.669051],[-108.542386,42.669173],[-108.542295,42.654761],[-108.551994,42.654718],[-108.552042,42.647485],[-108.547175,42.647508],[-108.547205,42.640276],[-108.561856,42.6402],[-108.561901,42.669051]]],[[[-108.542347,42.625971],[-108.542056,42.611749],[-108.561759,42.611142],[-108.561851,42.625626],[-108.542347,42.625971]]],[[[-108.542541,42.6764],[-108.522955,42.676804],[-108.522849,42.669476],[-108.542386,42.669173],[-108.542541,42.6764]]],[[[-108.559966,42.567125],[-108.559975,42.552655],[-108.600771,42.553177],[-108.600796,42.556799],[-108.605798,42.556423],[-108.605784,42.55272],[-108.610796,42.552264],[-108.610804,42.559829],[-108.620646,42.559243],[-108.620797,42.573719],[-108.610873,42.574282],[-108.610935,42.581604],[-108.595936,42.582199],[-108.595909,42.574899],[-108.580961,42.575068],[-108.581127,42.58245],[-108.560485,42.581735],[-108.540499,42.581641],[-108.53974,42.567262],[-108.559966,42.567125]]],[[[-108.544416,42.755934],[-108.544167,42.741546],[-108.563431,42.740847],[-108.563568,42.755219],[-108.544416,42.755934]]],[[[-108.544734,42.773464],[-108.544716,42.770256],[-108.549482,42.770108],[-108.549538,42.773419],[-108.544734,42.773464]]],[[[-108.582631,42.718922],[-108.582469,42.704618],[-108.592147,42.704373],[-108.592233,42.71871],[-108.582631,42.718922]]],[[[-108.601295,42.60381],[-108.616211,42.602881],[-108.61633,42.597386],[-108.621326,42.597049],[-108.621385,42.595208],[-108.626386,42.595169],[-108.626118,42.602498],[-108.631089,42.602424],[-108.63094,42.606058],[-108.640748,42.605892],[-108.640898,42.602275],[-108.645781,42.602291],[-108.64598,42.598675],[-108.66041,42.598706],[-108.660275,42.602336],[-108.66519,42.602259],[-108.664996,42.609646],[-108.660125,42.609709],[-108.660206,42.613363],[-108.640595,42.613266],[-108.640603,42.616859],[-108.630757,42.617107],[-108.630742,42.620754],[-108.620873,42.621055],[-108.620836,42.624756],[-108.601524,42.625428],[-108.601402,42.611041],[-108.586444,42.611197],[-108.586437,42.603917],[-108.601295,42.60381]]],[[[-108.583503,42.776542],[-108.583435,42.772934],[-108.588428,42.772688],[-108.58852,42.7763],[-108.583503,42.776542]]],[[[-108.610451,42.537836],[-108.610715,42.548856],[-108.600711,42.549556],[-108.600465,42.523393],[-108.619844,42.523313],[-108.620389,42.53775],[-108.610451,42.537836]]],[[[-108.602628,42.711266],[-108.602187,42.696957],[-108.622004,42.696742],[-108.622127,42.711238],[-108.602628,42.711266]]],[[[-108.616378,42.664502],[-108.616382,42.660899],[-108.621254,42.660792],[-108.621231,42.664436],[-108.616378,42.664502]]],[[[-108.623179,42.771822],[-108.622993,42.768304],[-108.627829,42.76826],[-108.627981,42.771788],[-108.623179,42.771822]]],[[[-108.630987,42.588031],[-108.630587,42.580932],[-108.640299,42.580792],[-108.640268,42.573606],[-108.649919,42.573486],[-108.649926,42.580676],[-108.659553,42.580559],[-108.660049,42.587818],[-108.630987,42.588031]]],[[[-108.659587,42.56617],[-108.679512,42.565963],[-108.679601,42.580193],[-108.659553,42.580559],[-108.659587,42.56617]]],[[[-108.631825,42.696648],[-108.631681,42.693062],[-108.636621,42.692986],[-108.636736,42.6966],[-108.631825,42.696648]]],[[[-108.657619,42.78],[-108.642695,42.78],[-108.642611,42.775241],[-108.652416,42.775266],[-108.652573,42.778842],[-108.657574,42.778845],[-108.657619,42.78]]],[[[-108.720425,42.66687],[-108.720923,42.684796],[-108.710402,42.684965],[-108.710493,42.688541],[-108.700602,42.688715],[-108.700249,42.678035],[-108.69531,42.678054],[-108.695304,42.674458],[-108.690353,42.67448],[-108.690335,42.670886],[-108.700264,42.670835],[-108.700256,42.674435],[-108.705242,42.674342],[-108.705207,42.667117],[-108.720425,42.66687]]],[[[-108.690388,42.681666],[-108.685462,42.681682],[-108.685401,42.674502],[-108.690353,42.67448],[-108.690388,42.681666]]],[[[-108.680405,42.670937],[-108.680362,42.667349],[-108.690317,42.667293],[-108.690335,42.670886],[-108.680405,42.670937]]],[[[-108.675449,42.66733],[-108.675497,42.670912],[-108.680405,42.670937],[-108.680449,42.674524],[-108.670641,42.674464],[-108.670537,42.667311],[-108.660711,42.667273],[-108.660734,42.652993],[-108.680196,42.652883],[-108.680362,42.667349],[-108.675449,42.66733]]],[[[-108.71164,42.78],[-108.706767,42.78],[-108.706669,42.778068],[-108.711503,42.777872],[-108.71164,42.78]]],[[[-108.721762,42.766748],[-108.721941,42.770266],[-108.711037,42.770656],[-108.710806,42.767064],[-108.721762,42.766748]]],[[[-108.722218,42.78],[-108.716538,42.78],[-108.716405,42.777669],[-108.722177,42.77743],[-108.722218,42.78]]],[[[-108.755091,42.688092],[-108.7599,42.688053],[-108.759651,42.695243],[-108.774389,42.695174],[-108.77475,42.702545],[-108.77014,42.702497],[-108.770454,42.705948],[-108.745561,42.706294],[-108.745333,42.69897],[-108.750211,42.698919],[-108.75003,42.695286],[-108.754841,42.695264],[-108.755091,42.688092]]],[[[-108.746126,42.724015],[-108.741208,42.724181],[-108.740948,42.717148],[-108.736124,42.717095],[-108.736012,42.713557],[-108.731254,42.713492],[-108.731207,42.709942],[-108.721606,42.709971],[-108.721157,42.695552],[-108.740408,42.695329],[-108.740546,42.706403],[-108.745561,42.706294],[-108.746126,42.724015]]],[[[-108.731633,42.738786],[-108.721913,42.737824],[-108.721779,42.723898],[-108.731396,42.724241],[-108.731633,42.738786]]],[[[-108.741291,42.738766],[-108.741249,42.731473],[-108.760804,42.731021],[-108.760729,42.738523],[-108.741291,42.738766]]],[[[-108.76518,42.771349],[-108.765671,42.777967],[-108.775549,42.77791],[-108.775611,42.78],[-108.74166,42.78],[-108.741254,42.778124],[-108.746264,42.778074],[-108.745801,42.775139],[-108.750984,42.775086],[-108.750627,42.771459],[-108.76518,42.771349]]],[[[-108.78,42.760427],[-108.78,42.767663],[-108.760019,42.767753],[-108.760121,42.760522],[-108.78,42.760427]]]]}},{"type":"Feature","properties":{"id":"own-a-usfs","kind":"ownership","name":"USFS","acres":20860.4,"editable":false,"source":"BLM Surface Management Agency"},"geometry":{"type":"Polygon","coordinates":[[[-108.779301,42.695151],[-108.759651,42.695243],[-108.760413,42.681039],[-108.740645,42.681106],[-108.740199,42.666807],[-108.720425,42.66687],[-108.719884,42.623399],[-108.718434,42.616321],[-108.719305,42.609313],[-108.699044,42.609354],[-108.699465,42.594757],[-108.698794,42.573132],[-108.69849,42.522982],[-108.728048,42.522494],[-108.727766,42.529786],[-108.729936,42.529097],[-108.730525,42.530727],[-108.727697,42.531574],[-108.727611,42.533819],[-108.718799,42.533588],[-108.719125,42.563078],[-108.718601,42.563604],[-108.719133,42.563816],[-108.71916,42.566018],[-108.721523,42.566167],[-108.719223,42.568479],[-108.721185,42.569257],[-108.719865,42.570582],[-108.729675,42.574477],[-108.730993,42.573151],[-108.732954,42.573931],[-108.733614,42.573268],[-108.737203,42.576413],[-108.739842,42.573762],[-108.736253,42.570616],[-108.73233,42.569057],[-108.735628,42.565741],[-108.737362,42.561831],[-108.736382,42.561443],[-108.737077,42.559879],[-108.739037,42.560659],[-108.741076,42.556068],[-108.776219,42.555642],[-108.775126,42.521935],[-108.775802,42.52],[-108.78,42.52],[-108.78,42.702584],[-108.77936,42.702593],[-108.779301,42.695151]]]}}]}