{"type":"FeatureCollection","features":[{"type":"Feature","properties":{"id":"spr-a1","kind":"spring","name":"Spring","acres":null,"editable":false,"source":"USGS 3DHP hydrolocations"},"geometry":{"type":"Point","coordinates":[-108.77556,42.680447]}},{"type":"Feature","properties":{"id":"spr-a2","kind":"spring","name":"Spring","acres":null,"editable":false,"source":"USGS 3DHP hydrolocations"},"geometry":{"type":"Point","coordinates":[-108.597963,42.555882]}},{"type":"Feature","properties":{"id":"spr-a3","kind":"spring","name":"Pat Royce Spring","acres":null,"editable":false,"source":"USGS 3DHP hydrolocations"},"geometry":{"type":"Point","coordinates":[-108.672914,42.609274]}},{"type":"Feature","properties":{"id":"spr-a4","kind":"spring","name":"Big Spring","acres":null,"editable":false,"source":"USGS 3DHP hydrolocations"},"geometry":{"type":"Point","coordinates":[-108.563605,42.740348]}},{"type":"Feature","properties":{"id":"spr-a5","kind":"spring","name":"Spring","acres":null,"editable":false,"source":"USGS 3DHP hydrolocations"},"geometry":{"type":"Point","coordinates":[-108.541578,42.664062]}},{"type":"Feature","properties":{"id":"spr-a6","kind":"spring","name":"Spring","acres":null,"editable":false,"source":"USGS 3DHP hydrolocations"},"geometry":{"type":"Point","coordinates":[-108.5256,42.653259]}},{"type":"Feature","properties":{"id":"spr-a7","kind":"spring","name":"Commissary Spring","acres":null,"editable":false,"source":"USGS 3DHP hydrolocations"},"geometry":{"type":"Point","coordinates":[-108.598539,42.638581]}},{"type":"Feature","properties":{"id":"spr-a8","kind":"spring","name":"Spring","acres":null,"editable":false,"source":"USGS 3DHP hydrolocations"},"geometry":{"type":"Point","coordinates":[-108.578234,42.634339]}},{"type":"Feature","properties":{"id":"spr-a9","kind":"spring","name":"Spring","acres":null,"editable":false,"source":"USGS 3DHP hydrolocations"},"geometry":{"type":"Point","coordinates":[-108.591205,42.659956]}},{"type":"Feature","properties":{"id":"spr-a10","kind":"spring","name":"Spring","acres":null,"editable":false,"source":"USGS 3DHP hydrolocations"},"geometry":{"type":"Point","coordinates":[-108.593546,42.642023]}},{"type":"Feature","properties":{"id":"spr-a11","kind":"spring","name":"Spring","acres":null,"editable":false,"source":"USGS 3DHP hydrolocations"},"geometry":{"type":"Point","coordinates":[-108.528094,42.697728]}},{"type":"Feature","properties":{"id":"spr-a12","kind":"spring","name":"Spring","acres":null,"editable":false,"source":"USGS 3DHP hydrolocations"},"geometry":{"type":"Point","coordinates":[-108.5863,42.663667]}},{"type":"Feature","properties":{"id":"spr-a13","kind":"spring","name":"Spring","acres":null,"editable":false,"source":"USGS 3DHP hydrolocations"},"geometry":{"type":"Point","coordinates":[-108.595329,42.655187]}},{"type":"Feature","properties":{"id":"spr-a14","kind":"spring","name":"Spring","acres":null,"editable":false,"source":"USGS 3DHP hydrolocations"},"geometry":{"type":"Point","coordinates":[-108.690187,42.666976]}},{"type":"Feature","properties":{"id":"spr-a15","kind":"spring","name":"Cold Spring","acres":null,"editable":false,"source":"USGS 3DHP hydrolocations"},"geometry":{"type":"Point","coordinates":[-108.777869,42.675918]}},{"type":"Feature","properties":{"id":"spr-a16","kind":"spring","name":"Spring","acres":null,"editable":false,"source":"USGS 3DHP hydrolocations"},"geometry":{"type":"Point","coordinates":[-108.591342,42.521296]}},{"type":"Feature","properties":{"id":"spr-a17","kind":"spring","name":"High Spring","acres":null,"editable":false,"source":"USGS 3DHP hydrolocations"},"geometry":{"type":"Point","coordinates":[-108.645236,42.537436]}},{"type":"Feature","properties":{"id":"spr-a18","kind":"spring","name":"Harvey Spring","acres":null,"editable":false,"source":"USGS 3DHP hydrolocations"},"geometry":{"type":"Point","coordinates":[-108.757437,42.732504]}},{"type":"Feature","properties":{"id":"spr-a19","kind":"spring","name":"Chalk Spring","acres":null,"editable":false,"source":"USGS 3DHP hydrolocations"},"geometry":{"type":"Point","coordinates":[-108.557907,42.547881]}},{"type":"Feature","properties":{"id":"spr-a20","kind":"spring","name":"Pine Spring","acres":null,"editable":false,"source":"USGS 3DHP hydrolocations"},"geometry":{"type":"Point","coordinates":[-108.689433,42.605498]}},{"type":"Feature","properties":{"id":"spr-a21","kind":"spring","name":"Spring","acres":null,"editable":false,"source":"USGS 3DHP hydrolocations"},"geometry":{"type":"Point","coordinates":[-108.753983,42.761165]}},{"type":"Feature","properties":{"id":"spr-a22","kind":"spring","name":"Coal Mine Spring","acres":null,"editable":false,"source":"USGS 3DHP hydrolocations"},"geometry":{"type":"Point","coordinates":[-108.559773,42.730619]}},{"type":"Feature","properties":{"id":"spr-a23","kind":"spring","name":"Spring","acres":null,"editable":false,"source":"USGS 3DHP hydrolocations"},"geometry":{"type":"Point","coordinates":[-108.601489,42.649506]}},{"type":"Feature","properties":{"id":"spr-a24","kind":"spring","name":"Spring","acres":null,"editable":false,"source":"USGS 3DHP hydrolocations"},"geometry":{"type":"Point","coordinates":[-108.59246,42.639598]}},{"type":"Feature","properties":{"id":"spr-a25","kind":"spring","name":"Spring","acres":null,"editable":false,"source":"USGS 3DHP hydrolocations"},"geometry":{"type":"Point","coordinates":[-108.580412,42.638778]}},{"type":"Feature","properties":{"id":"spr-a26","kind":"spring","name":"Chubby Spring","acres":null,"editable":false,"source":"USGS 3DHP hydrolocations"},"geometry":{"type":"Point","coordinates":[-108.567161,42.636952]}},{"type":"Feature","properties":{"id":"spr-a27","kind":"spring","name":"Mud Spring","acres":null,"editable":false,"source":"USGS 3DHP hydrolocations"},"geometry":{"type":"Point","coordinates":[-108.621864,42.690394]}},{"type":"Feature","properties":{"id":"spr-a28","kind":"spring","name":"Spring","acres":null,"editable":false,"source":"USGS 3DHP hydrolocations"},"geometry":{"type":"Point","coordinates":[-108.584635,42.643578]}},{"type":"Feature","properties":{"id":"spr-a29","kind":"spring","name":"Johnny Spring","acres":null,"editable":false,"source":"USGS 3DHP hydrolocations"},"geometry":{"type":"Point","coordinates":[-108.530518,42.698393]}},{"type":"Feature","properties":{"id":"spr-a30","kind":"spring","name":"Hidden Spring","acres":null,"editable":false,"source":"USGS 3DHP hydrolocations"},"geometry":{"type":"Point","coordinates":[-108.601874,42.671768]}},{"type":"Feature","properties":{"id":"spr-a31","kind":"spring","name":"Pipe Springs","acres":null,"editable":false,"source":"USGS 3DHP hydrolocations"},"geometry":{"type":"Point","coordinates":[-108.582825,42.654345]}},{"type":"Feature","properties":{"id":"spr-a32","kind":"spring","name":"Spring","acres":null,"editable":false,"source":"USGS 3DHP hydrolocations"},"geometry":{"type":"Point","coordinates":[-108.720206,42.640834]}},{"type":"Feature","properties":{"id":"spr-a33","kind":"spring","name":"Spring","acres":null,"editable":false,"source":"USGS 3DHP hydrolocations"},"geometry":{"type":"Point","coordinates":[-108.537492,42.52837]}},{"type":"Feature","properties":{"id":"spr-a34","kind":"spring","name":"Spring","acres":null,"editable":false,"source":"USGS 3DHP hydrolocations"},"geometry":{"type":"Point","coordinates":[-108.755376,42.753069]}},{"type":"Feature","properties":{"id":"spr-a35","kind":"spring","name":"Chimney Spring","acres":null,"editable":false,"source":"USGS 3DHP hydrolocations"},"geometry":{"type":"Point","coordinates":[-108.549705,42.629099]}},{"type":"Feature","properties":{"id":"spr-a36","kind":"spring","name":"Derby Spring","acres":null,"editable":false,"source":"USGS 3DHP hydrolocations"},"geometry":{"type":"Point","coordinates":[-108.650306,42.597534]}},{"type":"Feature","properties":{"id":"spr-a37","kind":"spring","name":"Spring","acres":null,"editable":false,"source":"USGS 3DHP hydrolocations"},"geometry":{"type":"Point","coordinates":[-108.587177,42.643698]}},{"type":"Feature","properties":{"id":"spr-a38","kind":"spring","name":"Spring","acres":null,"editable":false,"source":"USGS 3DHP hydrolocations"},"geometry":{"type":"Point","coordinates":[-108.526587,42.703638]}},{"type":"Feature","properties":{"id":"spr-a39","kind":"spring","name":"Barrel Spring","acres":null,"editable":false,"source":"USGS 3DHP hydrolocations"},"geometry":{"type":"Point","coordinates":[-108.623385,42.662199]}},{"type":"Feature","properties":{"id":"spr-a40","kind":"spring","name":"Pipe Springs","acres":null,"editable":false,"source":"USGS 3DHP hydrolocations"},"geometry":{"type":"Point","coordinates":[-108.581977,42.654059]}},{"type":"Feature","properties":{"id":"spr-a41","kind":"spring","name":"Spring","acres":null,"editable":false,"source":"USGS 3DHP hydrolocations"},"geometry":{"type":"Point","coordinates":[-108.742306,42.739631]}},{"type":"Feature","properties":{"id":"spr-a42","kind":"spring","name":"Spring","acres":null,"editable":false,"source":"USGS 3DHP hydrolocations"},"geometry":{"type":"Point","coordinates":[-108.778194,42.675642]}},{"type":"Feature","properties":{"id":"spr-a43","kind":"spring","name":"Omera Spring","acres":null,"editable":false,"source":"USGS 3DHP hydrolocations"},"geometry":{"type":"Point","coordinates":[-108.701055,42.560181]}}]}