{"type":"FeatureCollection","features":[{"type":"Feature","properties":{"id":"wg-a1","kind":"water_gap","name":"Water gap 1","acres":null,"editable":true,"source":"hand-placed (pipeline heuristic)","width_m":30,"open":true,"role":"point"},"geometry":{"type":"Point","coordinates":[-108.616924,42.741081]}},{"type":"Feature","properties":{"id":"wg-a1-plug","kind":"water_gap","name":"Water gap 1","acres":0.1,"editable":true,"source":"hand-placed (pipeline heuristic)","width_m":30,"open":true,"role":"plug"},"geometry":{"type":"Polygon","coordinates":[[[-108.617292,42.741116],[-108.617216,42.741076],[-108.61713,42.740919],[-108.617075,42.74089],[-108.617278,42.740829],[-108.617416,42.74108],[-108.617292,42.741116]]]}},{"type":"Feature","properties":{"id":"wg-a2","kind":"water_gap","name":"Water gap 2","acres":null,"editable":true,"source":"hand-placed (pipeline heuristic)","width_m":30,"open":true,"role":"point"},"geometry":{"type":"Point","coordinates":[-108.628585,42.628059]}},{"type":"Feature","properties":{"id":"wg-a2-plug","kind":"water_gap","name":"Water gap 2","acres":0.1,"editable":true,"source":"hand-placed (pipeline heuristic)","width_m":30,"open":true,"role":"plug"},"geometry":{"type":"MultiPolygon","coordinates":[[[[-108.62877,42.628098],[-108.628611,42.628017],[-108.628606,42.628015],[-108.628601,42.628013],[-108.628596,42.628011],[-108.628591,42.62801],[-108.628435,42.627982],[-108.628573,42.627834],[-108.628874,42.627987],[-108.62877,42.628098]]],[[[-108.628383,42.628065],[-108.62855,42.628096],[-108.628701,42.628172],[-108.628666,42.628209],[-108.628383,42.628065]]]]}},{"type":"Feature","properties":{"id":"wg-a3","kind":"water_gap","name":"Water gap 3","acres":null,"editable":true,"source":"hand-placed (pipeline heuristic)","width_m":30,"open":true,"role":"point"},"geometry":{"type":"Point","coordinates":[-108.66046,42.673456]}},{"type":"Feature","properties":{"id":"wg-a3-plug","kind":"water_gap","name":"Water gap 3","acres":0.1,"editable":true,"source":"hand-placed (pipeline heuristic)","width_m":30,"open":true,"role":"plug"},"geometry":{"type":"MultiPolygon","coordinates":[[[[-108.660567,42.673345],[-108.660448,42.673401],[-108.660444,42.673403],[-108.66044,42.673406],[-108.660436,42.673408],[-108.660406,42.673432],[-108.660403,42.673435],[-108.6604,42.673438],[-108.660397,42.673442],[-108.660321,42.673545],[-108.660156,42.673433],[-108.660405,42.673235],[-108.660567,42.673345]]],[[[-108.660425,42.673616],[-108.660414,42.673608],[-108.660501,42.673489],[-108.660521,42.673474],[-108.660659,42.673408],[-108.660674,42.673418],[-108.660425,42.673616]]]]}}]}