{"type":"FeatureCollection","features":[{"type":"Feature","properties":{"id":"allot-mt10148","kind":"allotment","name":"Rocky Hills","acres":23148.3,"editable":false,"source":"BLM National Grazing Allotments","allot_no":"MT10148"},"geometry":{"type":"MultiPolygon","coordinates":[[[[-112.926196,45.072747],[-112.92619,45.077382],[-112.926195,45.072747],[-112.926194,45.066522],[-112.926196,45.072747]]],[[[-112.926195,45.072747],[-112.926185,45.080201],[-112.926184,45.080998],[-112.946623,45.080999],[-112.946624,45.066534],[-112.947824,45.066535],[-112.952588,45.073366],[-112.959232,45.076231],[-112.962298,45.078296],[-112.966699,45.076606],[-112.974557,45.079712],[-112.9752,45.079172],[-112.985052,45.077763],[-112.987174,45.076461],[-112.987202,45.073617],[-112.983843,45.065],[-113.059484,45.065],[-113.059453,45.067187],[-113.059959,45.067189],[-113.060339,45.090793],[-113.04879,45.089434],[-113.028117,45.089756],[-113.027854,45.089219],[-113.023185,45.087912],[-113.01386,45.088067],[-113.013582,45.088495],[-113.009863,45.0892],[-113.007819,45.090121],[-113.007196,45.09277],[-113.00854,45.096841],[-113.005377,45.099862],[-113.004603,45.0999],[-113.005059,45.100657],[-113.001932,45.105214],[-113.001924,45.114117],[-112.998717,45.117744],[-113.00088,45.119774],[-113.003354,45.123888],[-112.99237,45.130736],[-112.983814,45.139462],[-112.981768,45.138953],[-112.979543,45.139047],[-112.976002,45.140425],[-112.964423,45.143709],[-112.963532,45.142798],[-112.964492,45.141432],[-112.963958,45.140692],[-112.962856,45.140478],[-112.959872,45.14219],[-112.95868,45.142092],[-112.958129,45.141132],[-112.958461,45.139234],[-112.956872,45.137435],[-112.955027,45.137243],[-112.95295,45.137572],[-112.950578,45.13715],[-112.948222,45.137342],[-112.947276,45.135236],[-112.946345,45.132246],[-112.947485,45.131676],[-112.947469,45.131429],[-112.946756,45.130908],[-112.946601,45.130014],[-112.943749,45.130562],[-112.937813,45.128083],[-112.937612,45.127397],[-112.936596,45.126492],[-112.935294,45.126339],[-112.934488,45.127024],[-112.933861,45.126849],[-112.933652,45.126075],[-112.933148,45.126196],[-112.931575,45.125357],[-112.930126,45.125378],[-112.929213,45.124172],[-112.9251,45.123753],[-112.923338,45.122085],[-112.923276,45.12142],[-112.923755,45.120951],[-112.923412,45.12057],[-112.922038,45.119458],[-112.921395,45.11941],[-112.92031,45.118729],[-112.918703,45.118763],[-112.9186,45.119537],[-112.917574,45.119745],[-112.917254,45.11932],[-112.916326,45.11915],[-112.915516,45.118207],[-112.914537,45.1183],[-112.914276,45.118057],[-112.913696,45.118569],[-112.912444,45.117711],[-112.912212,45.118176],[-112.910912,45.117916],[-112.90826,45.119086],[-112.907742,45.118985],[-112.907746,45.118677],[-112.906451,45.118598],[-112.905667,45.119247],[-112.904476,45.119608],[-112.903916,45.119132],[-112.903666,45.117017],[-112.902584,45.116176],[-112.901054,45.116826],[-112.898843,45.119217],[-112.898419,45.119072],[-112.897795,45.116432],[-112.897401,45.11581],[-112.896713,45.115657],[-112.895273,45.11594],[-112.894202,45.116677],[-112.892364,45.117168],[-112.891944,45.118638],[-112.886001,45.119936],[-112.885235,45.119195],[-112.880439,45.118792],[-112.88218,45.114108],[-112.881778,45.11226],[-112.882035,45.110746],[-112.880091,45.110575],[-112.879581,45.109367],[-112.873773,45.107973],[-112.867892,45.099331],[-112.871617,45.09217],[-112.882261,45.085698],[-112.885146,45.080719],[-112.8867,45.074669],[-112.886228,45.074263],[-112.898246,45.069455],[-112.904467,45.07023],[-112.898246,45.069454],[-112.905808,45.066475],[-112.905813,45.065],[-112.94662,45.065],[-112.946623,45.066534],[-112.926194,45.066522],[-112.926193,45.066522],[-112.926195,45.072747]],[[-112.924958,45.073002],[-112.923746,45.07316],[-112.922309,45.073448],[-112.920902,45.073797],[-112.91979,45.074093],[-112.918841,45.074356],[-112.917862,45.07457],[-112.917357,45.074693],[-112.926195,45.072747],[-112.924958,45.073002]],[[-112.905761,45.071386],[-112.904468,45.07023],[-112.904467,45.07023],[-112.905761,45.071386]],[[-112.906631,45.07183],[-112.905762,45.071386],[-112.908106,45.072756],[-112.906631,45.07183]],[[-112.948602,45.134923],[-112.949693,45.134292],[-112.947408,45.13551],[-112.948602,45.134923]],[[-112.949694,45.134292],[-112.949717,45.133903],[-112.949586,45.133458],[-112.949577,45.131824],[-112.949585,45.133458],[-112.949693,45.134292],[-112.949694,45.134292]],[[-112.949833,45.129476],[-112.95094,45.126365],[-112.950939,45.126365],[-112.949832,45.129476],[-112.949577,45.131824],[-112.949833,45.129476]],[[-112.952094,45.124944],[-112.953736,45.122611],[-112.953735,45.122611],[-112.95094,45.126365],[-112.952094,45.124944]],[[-112.957958,45.118533],[-112.960214,45.114934],[-112.960009,45.110533],[-112.958056,45.102899],[-112.945375,45.093062],[-112.958055,45.102899],[-112.960008,45.110533],[-112.960213,45.114934],[-112.957957,45.118533],[-112.953736,45.122611],[-112.957958,45.118533]],[[-112.931098,45.083918],[-112.926189,45.081001],[-112.945374,45.093062],[-112.931098,45.083918]]]]}},{"type":"Feature","properties":{"id":"allot-mt10121","kind":"allotment","name":"Frenchie","acres":5041.0,"editable":false,"source":"BLM National Grazing Allotments","allot_no":"MT10121"},"geometry":{"type":"Polygon","coordinates":[[[-112.885734,45.144648],[-112.85364,45.144674],[-112.861063,45.137673],[-112.867341,45.130182],[-112.870172,45.117871],[-112.870022,45.115578],[-112.868435,45.10943],[-112.874604,45.111264],[-112.878006,45.110387],[-112.882034,45.110746],[-112.881777,45.11226],[-112.882179,45.114108],[-112.880438,45.118792],[-112.885234,45.119195],[-112.886002,45.119936],[-112.891945,45.118638],[-112.892365,45.117168],[-112.894203,45.116677],[-112.895274,45.11594],[-112.896712,45.115657],[-112.8974,45.11581],[-112.897794,45.116433],[-112.898418,45.119072],[-112.898843,45.119217],[-112.901055,45.116826],[-112.902583,45.116176],[-112.903665,45.117017],[-112.903915,45.119132],[-112.904475,45.119608],[-112.905668,45.119247],[-112.906452,45.118598],[-112.907745,45.118677],[-112.907741,45.118985],[-112.908261,45.119086],[-112.910912,45.117916],[-112.912213,45.118176],[-112.912444,45.117712],[-112.913696,45.118569],[-112.914277,45.118057],[-112.914537,45.1183],[-112.915515,45.118207],[-112.916325,45.11915],[-112.917253,45.11932],[-112.917573,45.119745],[-112.918601,45.119537],[-112.918704,45.118763],[-112.920309,45.118729],[-112.921394,45.11941],[-112.922037,45.119458],[-112.923411,45.12057],[-112.923754,45.120951],[-112.923275,45.12142],[-112.923337,45.122085],[-112.925099,45.123753],[-112.929212,45.124172],[-112.930125,45.125378],[-112.931574,45.125357],[-112.933147,45.126196],[-112.92914,45.131336],[-112.921992,45.142723],[-112.922154,45.147309],[-112.92751,45.152033],[-112.926927,45.155982],[-112.927617,45.15915],[-112.905597,45.159135],[-112.898368,45.162213],[-112.891142,45.160888],[-112.88578,45.159121],[-112.885734,45.144648]]]}},{"type":"Feature","properties":{"id":"allot-mt10120","kind":"allotment","name":"Red Spring","acres":1737.3,"editable":false,"source":"BLM National Grazing Allotments","allot_no":"MT10120"},"geometry":{"type":"Polygon","coordinates":[[[-112.834486,45.155542],[-112.834502,45.144676],[-112.885734,45.144648],[-112.88578,45.159121],[-112.865209,45.159174],[-112.865212,45.162799],[-112.834618,45.159338],[-112.83327,45.155541],[-112.834486,45.155542]]]}},{"type":"Feature","properties":{"id":"allot-mt00759","kind":"allotment","name":"Road Agent Rock/Sgc","acres":903.3,"editable":false,"source":"BLM National Grazing Allotments","allot_no":"MT00759"},"geometry":{"type":"Polygon","coordinates":[[[-112.93192,45.191355],[-112.931928,45.188584],[-112.934028,45.186154],[-112.933911,45.179906],[-112.95179,45.176888],[-112.95317,45.1777],[-112.954279,45.177892],[-112.958298,45.18155],[-112.959315,45.183514],[-112.961286,45.184868],[-112.96263,45.187847],[-112.957434,45.19228],[-112.95693,45.194189],[-112.952259,45.193197],[-112.94665,45.194234],[-112.945285,45.1952],[-112.93702,45.196877],[-112.93703,45.194134],[-112.936471,45.192797],[-112.93192,45.191355]]]}},{"type":"Feature","properties":{"id":"allot-mt30005","kind":"allotment","name":"Stonehouse","acres":13104.6,"editable":false,"source":"BLM National Grazing Allotments","allot_no":"MT30005"},"geometry":{"type":"Polygon","coordinates":[[[-112.871893,45.228483],[-112.851235,45.228404],[-112.851166,45.228733],[-112.833643,45.224448],[-112.8246,45.221624],[-112.824358,45.217375],[-112.838951,45.217224],[-112.844934,45.211508],[-112.844942,45.208892],[-112.875738,45.191582],[-112.875851,45.174814],[-112.865406,45.1668],[-112.865891,45.163064],[-112.865188,45.162799],[-112.865209,45.159174],[-112.88578,45.159121],[-112.891142,45.160888],[-112.898368,45.162213],[-112.905597,45.159135],[-112.936511,45.159147],[-112.939697,45.161688],[-112.942302,45.163268],[-112.946554,45.164425],[-112.946376,45.177794],[-112.933911,45.179906],[-112.934028,45.186154],[-112.931928,45.188584],[-112.93192,45.191355],[-112.936471,45.192797],[-112.93703,45.194134],[-112.93702,45.196877],[-112.945285,45.1952],[-112.94665,45.194234],[-112.952259,45.193197],[-112.955269,45.194003],[-112.955348,45.19674],[-112.957141,45.199543],[-112.957197,45.204645],[-112.955087,45.20588],[-112.955585,45.208798],[-112.955158,45.210356],[-112.951831,45.21842],[-112.950613,45.219956],[-112.949333,45.223544],[-112.948277,45.223933],[-112.947143,45.223657],[-112.946143,45.222974],[-112.943464,45.21813],[-112.93935,45.216918],[-112.937425,45.216923],[-112.934577,45.220171],[-112.927745,45.231498],[-112.925144,45.231503],[-112.924119,45.232079],[-112.922069,45.232271],[-112.88558,45.232523],[-112.871893,45.228483]]]}},{"type":"Feature","properties":{"id":"allot-mt03448","kind":"allotment","name":"Unleased_Ghop","acres":427.7,"editable":false,"source":"BLM National Grazing Allotments","allot_no":"MT03448"},"geometry":{"type":"Polygon","coordinates":[[[-112.943464,45.21813],[-112.945133,45.22073],[-112.945669,45.222513],[-112.947143,45.223657],[-112.947111,45.23149],[-112.927749,45.231491],[-112.934577,45.220171],[-112.937425,45.216923],[-112.93935,45.216918],[-112.943464,45.21813]]]}},{"type":"Feature","properties":{"id":"allot-mt10598","kind":"allotment","name":"Ermont","acres":132.4,"editable":false,"source":"BLM National Grazing Allotments","allot_no":"MT10598"},"geometry":{"type":"Polygon","coordinates":[[[-112.946952,45.275541],[-112.946968,45.279157],[-112.945641,45.273754],[-112.943364,45.270628],[-112.941772,45.26399],[-112.937657,45.261086],[-112.946961,45.261077],[-112.946952,45.275541]]]}},{"type":"Feature","properties":{"id":"allot-mt00760","kind":"allotment","name":"Lower Reservoir Cr","acres":84.6,"editable":false,"source":"BLM National Grazing Allotments","allot_no":"MT00760"},"geometry":{"type":"Polygon","coordinates":[[[-113.031805,45.156989],[-113.041094,45.155674],[-113.042264,45.156174],[-113.042977,45.158856],[-113.025818,45.159093],[-113.029177,45.156549],[-113.031805,45.156989]]]}},{"type":"Feature","properties":{"id":"allot-mt30015","kind":"allotment","name":"Bannack","acres":7944.3,"editable":false,"source":"BLM National Grazing Allotments","allot_no":"MT30015"},"geometry":{"type":"Polygon","coordinates":[[[-112.95693,45.194189],[-112.957434,45.19228],[-112.96263,45.187847],[-112.962256,45.186492],[-112.961286,45.184868],[-112.959315,45.183514],[-112.958298,45.18155],[-112.957181,45.180821],[-112.95604,45.179285],[-112.954279,45.177892],[-112.95317,45.1777],[-112.95179,45.176888],[-112.958816,45.17534],[-112.959768,45.171182],[-112.960223,45.166711],[-112.963271,45.165663],[-112.962889,45.161927],[-112.975802,45.166071],[-112.982621,45.159749],[-112.989118,45.159296],[-112.991188,45.150474],[-112.990448,45.139805],[-112.983814,45.139462],[-112.992371,45.130736],[-113.003355,45.123888],[-113.009359,45.123907],[-113.043736,45.137786],[-113.046805,45.13997],[-113.049423,45.142318],[-113.046103,45.151248],[-113.044349,45.158966],[-113.043093,45.159279],[-113.042264,45.156174],[-113.041094,45.155674],[-113.031805,45.156989],[-113.029177,45.156549],[-113.022125,45.161884],[-113.014974,45.164865],[-113.013329,45.166159],[-113.012164,45.168018],[-113.01428,45.168678],[-113.014807,45.169172],[-113.014706,45.169928],[-113.018353,45.177017],[-113.028771,45.187466],[-113.031532,45.187593],[-113.033549,45.188905],[-113.03406,45.189662],[-113.034395,45.191535],[-113.02381,45.191605],[-113.023128,45.192823],[-113.02243,45.192708],[-113.022761,45.191612],[-113.021205,45.191622],[-113.020833,45.190853],[-113.016015,45.191658],[-113.008063,45.191713],[-113.000882,45.192363],[-112.998156,45.192689],[-112.974279,45.19752],[-112.967676,45.195525],[-112.962345,45.194479],[-112.95693,45.194189]]]}},{"type":"Feature","properties":{"id":"allot-mt10122","kind":"allotment","name":"Taylor-Buffalo","acres":2235.2,"editable":false,"source":"BLM National Grazing Allotments","allot_no":"MT10122"},"geometry":{"type":"Polygon","coordinates":[[[-112.969721,45.215976],[-112.967671,45.217013],[-112.952295,45.21702],[-112.955469,45.209374],[-112.955087,45.20588],[-112.957197,45.204645],[-112.957141,45.199543],[-112.955348,45.19674],[-112.955269,45.194003],[-112.962345,45.194479],[-112.967676,45.195525],[-112.974279,45.19752],[-112.998156,45.192689],[-113.008063,45.191713],[-113.016015,45.191658],[-113.020833,45.190853],[-113.021205,45.191622],[-113.018896,45.191638],[-113.018007,45.192284],[-113.016712,45.192256],[-113.015533,45.192661],[-113.006875,45.20076],[-113.004328,45.202009],[-112.99934,45.203725],[-112.997955,45.207829],[-112.998351,45.208015],[-112.992311,45.213076],[-112.984002,45.21698],[-112.983529,45.216755],[-112.979991,45.219362],[-112.973837,45.219414],[-112.972717,45.217829],[-112.969721,45.215976]]]}},{"type":"Feature","properties":{"id":"allot-mt20619","kind":"allotment","name":"Bannack Road","acres":32.8,"editable":false,"source":"BLM National Grazing Allotments","allot_no":"MT20619"},"geometry":{"type":"Polygon","coordinates":[[[-113.018315,45.202969],[-113.014252,45.20719],[-113.013184,45.207795],[-113.013186,45.202554],[-113.018314,45.202523],[-113.018315,45.202969]]]}},{"type":"Feature","properties":{"id":"allot-mt30617","kind":"allotment","name":"Buffalo Creek","acres":123.2,"editable":false,"source":"BLM National Grazing Allotments","allot_no":"MT30617"},"geometry":{"type":"Polygon","coordinates":[[[-113.018315,45.202969],[-113.018324,45.206149],[-113.02859,45.206091],[-113.028604,45.212145],[-113.019585,45.208961],[-113.013637,45.207751],[-113.018315,45.202969]]]}},{"type":"Feature","properties":{"id":"allot-mt30030","kind":"allotment","name":"Reservoir Creek AMP","acres":18351.9,"editable":false,"source":"BLM National Grazing Allotments","allot_no":"MT30030"},"geometry":{"type":"Polygon","coordinates":[[[-113.049423,45.142318],[-113.043736,45.137786],[-113.009359,45.123907],[-113.003355,45.123888],[-113.000881,45.119774],[-112.998718,45.117744],[-113.001924,45.114117],[-113.001933,45.105214],[-113.00506,45.100657],[-113.004604,45.0999],[-113.005378,45.099862],[-113.008541,45.096841],[-113.007197,45.09277],[-113.00782,45.090121],[-113.009864,45.0892],[-113.013582,45.088495],[-113.013861,45.088067],[-113.023184,45.087912],[-113.027853,45.089219],[-113.028116,45.089756],[-113.048789,45.089434],[-113.060339,45.090793],[-113.06047,45.110761],[-113.061264,45.111359],[-113.102822,45.111177],[-113.105975,45.110677],[-113.130525,45.112255],[-113.130745,45.096534],[-113.184484,45.096439],[-113.191253,45.094382],[-113.198026,45.094328],[-113.197996,45.132986],[-113.192849,45.132989],[-113.192819,45.136642],[-113.156884,45.136595],[-113.156858,45.143899],[-113.14815,45.144152],[-113.141408,45.146308],[-113.14044,45.147503],[-113.118812,45.14752],[-113.108469,45.148257],[-113.095657,45.151805],[-113.095223,45.150933],[-113.092889,45.151394],[-113.093464,45.152513],[-113.092534,45.152782],[-113.080503,45.15505],[-113.056669,45.157514],[-113.04673,45.157716],[-113.046132,45.1581],[-113.046132,45.158539],[-113.044349,45.158966],[-113.046103,45.151248],[-113.049423,45.142318]]]}},{"type":"Feature","properties":{"id":"allot-mt20723","kind":"allotment","name":"Reservoir Creek Custodial","acres":1079.0,"editable":false,"source":"BLM National Grazing Allotments","allot_no":"MT20723"},"geometry":{"type":"Polygon","coordinates":[[[-113.050381,45.161266],[-113.046388,45.16036],[-113.046132,45.1581],[-113.04673,45.157716],[-113.056669,45.157514],[-113.080503,45.15505],[-113.092534,45.152782],[-113.093464,45.152513],[-113.092889,45.151394],[-113.095223,45.150933],[-113.095657,45.151805],[-113.108469,45.148257],[-113.12049,45.147511],[-113.120566,45.151155],[-113.115445,45.151186],[-113.115515,45.154832],[-113.100167,45.154938],[-113.100225,45.15859],[-113.084835,45.158682],[-113.084877,45.162332],[-113.074527,45.16236],[-113.074568,45.165994],[-113.058874,45.16617],[-113.053497,45.163318],[-113.050381,45.161266]]]}},{"type":"Feature","properties":{"id":"allot-mt30609","kind":"allotment","name":"Red Mine Isolated","acres":11.9,"editable":false,"source":"BLM National Grazing Allotments","allot_no":"MT30609"},"geometry":{"type":"Polygon","coordinates":[[[-113.059411,45.2332],[-113.054275,45.231641],[-113.054274,45.231368],[-113.059408,45.231353],[-113.059411,45.2332]]]}},{"type":"Feature","properties":{"id":"allot-mt10751","kind":"allotment","name":"Millpoint","acres":737.4,"editable":false,"source":"BLM National Grazing Allotments","allot_no":"MT10751"},"geometry":{"type":"Polygon","coordinates":[[[-113.07866,45.243714],[-113.078325,45.238937],[-113.0788,45.234903],[-113.085124,45.234864],[-113.085117,45.242153],[-113.090271,45.242123],[-113.090267,45.249414],[-113.095421,45.249355],[-113.095329,45.256039],[-113.093587,45.256076],[-113.090305,45.262835],[-113.087595,45.265529],[-113.085871,45.266248],[-113.082888,45.26553],[-113.081194,45.264411],[-113.080612,45.263457],[-113.080277,45.262453],[-113.080197,45.253654],[-113.078892,45.250681],[-113.077854,45.249348],[-113.07866,45.243714]]]}},{"type":"Feature","properties":{"id":"allot-mt30037","kind":"allotment","name":"Baldy Mtn","acres":9410.4,"editable":false,"source":"BLM National Grazing Allotments","allot_no":"MT30037"},"geometry":{"type":"Polygon","coordinates":[[[-113.040819,45.322244],[-113.030048,45.322255],[-113.029977,45.321694],[-113.027746,45.321808],[-113.027317,45.322251],[-113.008447,45.32218],[-113.008422,45.31496],[-113.018566,45.314984],[-113.018497,45.300466],[-113.020039,45.282358],[-113.031173,45.275101],[-113.038932,45.275097],[-113.038904,45.249531],[-113.047427,45.249522],[-113.049162,45.256765],[-113.080258,45.256733],[-113.080277,45.262453],[-113.080612,45.263457],[-113.081194,45.264411],[-113.082236,45.265168],[-113.085545,45.266286],[-113.087595,45.265529],[-113.090305,45.262835],[-113.093587,45.256076],[-113.095786,45.256026],[-113.098836,45.266689],[-113.09883,45.268285],[-113.102448,45.276359],[-113.102655,45.283155],[-113.117831,45.283287],[-113.116946,45.284614],[-113.118939,45.287927],[-113.119457,45.28955],[-113.097052,45.289551],[-113.093423,45.298024],[-113.096101,45.303575],[-113.096914,45.304045],[-113.098985,45.304044],[-113.09782,45.306049],[-113.094245,45.309006],[-113.087317,45.305399],[-113.080275,45.308384],[-113.062955,45.307272],[-113.060312,45.312274],[-113.057994,45.315681],[-113.057208,45.318857],[-113.058585,45.320245],[-113.0579,45.322214],[-113.044068,45.321225],[-113.040819,45.322244]]]}},{"type":"Feature","properties":{"id":"allot-mt10745","kind":"allotment","name":"Taylor Creek","acres":1407.5,"editable":false,"source":"BLM National Grazing Allotments","allot_no":"MT10745"},"geometry":{"type":"Polygon","coordinates":[[[-112.966605,45.227941],[-112.969151,45.226729],[-112.985024,45.21689],[-112.999714,45.211981],[-112.999963,45.212973],[-113.003892,45.218627],[-113.003868,45.219966],[-113.008068,45.220608],[-113.008076,45.230773],[-113.002575,45.23095],[-112.990343,45.23333],[-112.985878,45.232032],[-112.967588,45.236679],[-112.959526,45.235699],[-112.957086,45.234429],[-112.96051,45.229508],[-112.966605,45.227941]]]}},{"type":"Feature","properties":{"id":"allot-mt30034","kind":"allotment","name":"Red Mine","acres":4497.3,"editable":false,"source":"BLM National Grazing Allotments","allot_no":"MT30034"},"geometry":{"type":"Polygon","coordinates":[[[-112.967588,45.236679],[-112.985878,45.232032],[-112.990343,45.23333],[-113.002575,45.23095],[-113.008934,45.230783],[-113.018185,45.233958],[-113.02997,45.235027],[-113.04229,45.238091],[-113.045675,45.238036],[-113.047803,45.237499],[-113.050724,45.2314],[-113.051997,45.230983],[-113.06643,45.235361],[-113.070611,45.234954],[-113.079702,45.231843],[-113.079973,45.232128],[-113.078989,45.232472],[-113.078325,45.238937],[-113.07866,45.243714],[-113.077854,45.249348],[-113.078892,45.250681],[-113.080197,45.253654],[-113.080258,45.256733],[-113.049162,45.256765],[-113.047427,45.249522],[-113.049311,45.23996],[-113.042349,45.238705],[-113.028624,45.235097],[-113.018352,45.235148],[-113.018359,45.242383],[-113.008085,45.242446],[-113.008082,45.238668],[-112.998324,45.238677],[-112.998302,45.24591],[-113.008088,45.245904],[-113.008103,45.256767],[-113.003349,45.256772],[-113.003319,45.261037],[-112.993069,45.26103],[-112.9931,45.25678],[-112.982848,45.256785],[-112.98282,45.275508],[-112.972585,45.275524],[-112.972599,45.280455],[-112.967487,45.281133],[-112.967588,45.236679]]]}},{"type":"Feature","properties":{"id":"allot-mt30618","kind":"allotment","name":"Holland Carrol Isolated","acres":477.7,"editable":false,"source":"BLM National Grazing Allotments","allot_no":"MT30618"},"geometry":{"type":"Polygon","coordinates":[[[-112.98799,45.304467],[-112.998209,45.304468],[-112.998261,45.31171],[-113.008401,45.311701],[-113.008435,45.318939],[-112.988041,45.318956],[-112.98799,45.304467]]]}},{"type":"Feature","properties":{"id":"allot-mt30028","kind":"allotment","name":"Scudder Creek AMP","acres":817.2,"editable":false,"source":"BLM National Grazing Allotments","allot_no":"MT30028"},"geometry":{"type":"Polygon","coordinates":[[[-113.096914,45.304045],[-113.096101,45.303575],[-113.093423,45.298024],[-113.097052,45.289551],[-113.119457,45.28955],[-113.12017,45.299715],[-113.121054,45.305006],[-113.120413,45.307729],[-113.115939,45.307697],[-113.115924,45.304066],[-113.096914,45.304045]]]}},{"type":"Feature","properties":{"id":"allot-mt20191","kind":"allotment","name":"Farlin Creek","acres":8870.0,"editable":false,"source":"BLM National Grazing Allotments","allot_no":"MT20191"},"geometry":{"type":"Polygon","coordinates":[[[-113.033237,45.361525],[-113.027855,45.359137],[-113.027294,45.358386],[-113.02714,45.356938],[-113.023229,45.352915],[-113.021131,45.349475],[-113.019087,45.34717],[-113.018419,45.345239],[-113.015644,45.34351],[-113.0086,45.340765],[-113.008447,45.32218],[-113.027317,45.322251],[-113.027746,45.321808],[-113.029977,45.321694],[-113.030048,45.322255],[-113.040819,45.322244],[-113.044068,45.321225],[-113.0579,45.322214],[-113.058585,45.320245],[-113.057208,45.318857],[-113.057994,45.315681],[-113.060312,45.312274],[-113.062955,45.307272],[-113.080275,45.308384],[-113.087317,45.305399],[-113.094245,45.309006],[-113.097338,45.306449],[-113.100551,45.307667],[-113.100536,45.318545],[-113.102781,45.319542],[-113.106443,45.319732],[-113.107353,45.329518],[-113.105961,45.329551],[-113.104948,45.338214],[-113.10534,45.342564],[-113.103123,45.343925],[-113.100526,45.343911],[-113.100484,45.362789],[-113.079891,45.36271],[-113.07391,45.360893],[-113.070503,45.361792],[-113.067429,45.362017],[-113.063896,45.361837],[-113.061102,45.362122],[-113.057873,45.360558],[-113.05557,45.360021],[-113.051329,45.360547],[-113.044357,45.362647],[-113.041485,45.363134],[-113.03982,45.363156],[-113.033237,45.361525]]]}},{"type":"Feature","properties":{"id":"allot-mt20186","kind":"allotment","name":"Polaris","acres":199.9,"editable":false,"source":"BLM National Grazing Allotments","allot_no":"MT20186"},"geometry":{"type":"Polygon","coordinates":[[[-113.105613,45.355585],[-113.105619,45.359195],[-113.121048,45.359232],[-113.121051,45.362852],[-113.100484,45.362789],[-113.100468,45.355576],[-113.105613,45.355585]]]}},{"type":"Feature","properties":{"id":"allot-mt20718","kind":"allotment","name":"Shale Creek","acres":269.5,"editable":false,"source":"BLM National Grazing Allotments","allot_no":"MT20718"},"geometry":{"type":"Polygon","coordinates":[[[-113.136518,45.417198],[-113.136513,45.413585],[-113.131449,45.413584],[-113.131428,45.409961],[-113.136507,45.409983],[-113.136495,45.402765],[-113.141466,45.402798],[-113.141405,45.420821],[-113.13149,45.4208],[-113.131469,45.417192],[-113.136518,45.417198]]]}},{"type":"Feature","properties":{"id":"allot-mt20724","kind":"allotment","name":"Flying N","acres":101.2,"editable":false,"source":"BLM National Grazing Allotments","allot_no":"MT20724"},"geometry":{"type":"Polygon","coordinates":[[[-112.972627,45.289991],[-112.967518,45.289996],[-112.967487,45.281133],[-112.972599,45.280455],[-112.972627,45.289991]]]}},{"type":"Feature","properties":{"id":"allot-mt30365","kind":"allotment","name":"Birch Creek","acres":15329.1,"editable":false,"source":"BLM National Grazing Allotments","allot_no":"MT30365"},"geometry":{"type":"Polygon","coordinates":[[[-112.7951,45.392632],[-112.795092,45.377222],[-112.79901,45.374947],[-112.800955,45.374947],[-112.803898,45.373571],[-112.808282,45.370696],[-112.811309,45.369144],[-112.8204,45.367404],[-112.822759,45.367349],[-112.82389,45.368897],[-112.826279,45.369457],[-112.827603,45.370878],[-112.829204,45.371963],[-112.82932,45.3725],[-112.829945,45.372722],[-112.832905,45.372159],[-112.834516,45.371321],[-112.835705,45.369174],[-112.837801,45.368494],[-112.839391,45.367328],[-112.841378,45.366835],[-112.844229,45.366908],[-112.846311,45.36586],[-112.851999,45.364876],[-112.854389,45.365418],[-112.858335,45.368588],[-112.861195,45.36938],[-112.86467,45.369587],[-112.867807,45.370751],[-112.869117,45.370931],[-112.875878,45.37019],[-112.875877,45.42633],[-112.87208,45.424559],[-112.869486,45.42188],[-112.867982,45.420831],[-112.857232,45.420695],[-112.855431,45.423114],[-112.853119,45.423538],[-112.850868,45.424394],[-112.848198,45.426034],[-112.846913,45.426197],[-112.843528,45.425035],[-112.839603,45.427958],[-112.835058,45.430682],[-112.832541,45.42909],[-112.82823,45.42806],[-112.822098,45.428053],[-112.818377,45.427392],[-112.816439,45.42724],[-112.815022,45.427442],[-112.801922,45.435613],[-112.800416,45.436233],[-112.797396,45.435588],[-112.794303,45.435334],[-112.792889,45.435766],[-112.790595,45.43838],[-112.7875,45.440664],[-112.7875,45.392652],[-112.7951,45.392632]]]}},{"type":"Feature","properties":{"id":"allot-mt30364","kind":"allotment","name":"Lost Willow","acres":27912.1,"editable":false,"source":"BLM National Grazing Allotments","allot_no":"MT30364"},"geometry":{"type":"Polygon","coordinates":[[[-112.790595,45.43838],[-112.792889,45.435766],[-112.794303,45.435334],[-112.797396,45.435588],[-112.800416,45.436233],[-112.801922,45.435613],[-112.815022,45.427442],[-112.816439,45.42724],[-112.818377,45.427392],[-112.822098,45.428053],[-112.82823,45.42806],[-112.832541,45.42909],[-112.835058,45.430682],[-112.839603,45.427958],[-112.843528,45.425035],[-112.846913,45.426197],[-112.848198,45.426034],[-112.850868,45.424394],[-112.853119,45.423538],[-112.855431,45.423114],[-112.857232,45.420695],[-112.867982,45.420831],[-112.869486,45.42188],[-112.87208,45.424559],[-112.875877,45.42633],[-112.875878,45.515],[-112.7875,45.515],[-112.7875,45.440664],[-112.790595,45.43838]]]}}]}