{"type":"FeatureCollection","features":[{"type":"Feature","properties":{"id":"own-b-blm","kind":"ownership","name":"BLM","acres":55368.7,"editable":false,"source":"BLM Surface Management Agency"},"geometry":{"type":"MultiPolygon","coordinates":[[[[-112.872167,45.288626],[-112.877445,45.290377],[-112.877432,45.288901],[-112.882376,45.290949],[-112.885509,45.2912],[-112.88553,45.306063],[-112.884453,45.305414],[-112.883919,45.306371],[-112.885536,45.307348],[-112.88554,45.308099],[-112.884207,45.307296],[-112.882694,45.308547],[-112.885548,45.310266],[-112.885527,45.31583],[-112.884682,45.315778],[-112.883748,45.31352],[-112.881457,45.313591],[-112.883084,45.31754],[-112.884952,45.317483],[-112.885181,45.318985],[-112.87,45.318955],[-112.87,45.311221],[-112.870348,45.311509],[-112.871972,45.311074],[-112.871147,45.314067],[-112.873258,45.314303],[-112.874643,45.318298],[-112.876946,45.318555],[-112.876519,45.317323],[-112.878166,45.317323],[-112.877892,45.31456],[-112.878256,45.313239],[-112.877925,45.312417],[-112.876853,45.312417],[-112.877888,45.31214],[-112.87645,45.309878],[-112.875799,45.310052],[-112.872771,45.30755],[-112.87,45.308291],[-112.870117,45.290419],[-112.872187,45.291106],[-112.872167,45.288626]],[[-112.877812,45.304528],[-112.877083,45.305496],[-112.877494,45.30565],[-112.878202,45.304711],[-112.877812,45.304528]],[[-112.880568,45.303846],[-112.880454,45.304109],[-112.884541,45.30499],[-112.884508,45.304697],[-112.880568,45.303846]]],[[[-112.877512,45.287111],[-112.875322,45.286398],[-112.877766,45.287003],[-112.876604,45.288469],[-112.877512,45.287111]]],[[[-112.872458,45.285441],[-112.872533,45.284136],[-112.87,45.283153],[-112.87,45.282429],[-112.870552,45.283051],[-112.87126,45.283051],[-112.871262,45.27938],[-112.87,45.279382],[-112.87,45.220963],[-112.885654,45.221056],[-112.885656,45.220698],[-112.890793,45.220675],[-112.890851,45.209805],[-112.885719,45.209838],[-112.885696,45.213739],[-112.875849,45.213692],[-112.875835,45.217325],[-112.87,45.217314],[-112.87,45.155471],[-112.870371,45.155471],[-112.87,45.14],[-112.946495,45.14],[-112.946511,45.144707],[-112.965347,45.144686],[-112.965021,45.144828],[-112.96606,45.146945],[-112.968825,45.145548],[-112.968604,45.146782],[-112.970031,45.147719],[-112.974034,45.148564],[-112.975008,45.149572],[-112.970004,45.147985],[-112.969951,45.149649],[-112.97512,45.151468],[-112.974386,45.152734],[-112.975612,45.15373],[-112.974239,45.154163],[-112.975962,45.156712],[-112.975299,45.159715],[-112.977384,45.160714],[-112.979209,45.160715],[-112.979212,45.161761],[-112.975768,45.164053],[-112.978331,45.164395],[-112.981775,45.162103],[-112.982558,45.162207],[-112.982579,45.173574],[-113.008036,45.173567],[-113.008016,45.170052],[-113.013122,45.170057],[-113.013182,45.177148],[-113.00806,45.177168],[-113.008086,45.18802],[-113.008101,45.191662],[-113.013216,45.191634],[-113.013213,45.198898],[-113.008084,45.198925],[-113.008076,45.202507],[-112.998511,45.202515],[-112.998451,45.213328],[-113.003567,45.213327],[-113.003585,45.209721],[-113.013219,45.209763],[-113.013214,45.202522],[-113.018346,45.202498],[-113.018351,45.206125],[-113.028624,45.206082],[-113.028639,45.213328],[-113.033773,45.213305],[-113.033784,45.220554],[-113.028655,45.220573],[-113.028643,45.23511],[-113.01836,45.235122],[-113.018353,45.242382],[-113.00807,45.242429],[-113.008074,45.238624],[-112.998314,45.238624],[-112.998271,45.245924],[-113.008066,45.245909],[-113.00808,45.256799],[-113.003333,45.256802],[-113.003307,45.261075],[-112.993092,45.261059],[-112.993162,45.245932],[-112.967567,45.245946],[-112.967698,45.216976],[-112.947192,45.216972],[-112.947154,45.231484],[-112.926645,45.231487],[-112.926493,45.261072],[-112.947033,45.26106],[-112.947085,45.289994],[-112.891685,45.289983],[-112.892305,45.288521],[-112.880575,45.284376],[-112.8759,45.284939],[-112.875322,45.286398],[-112.872458,45.285441]],[[-112.875443,45.276896],[-112.873151,45.277243],[-112.872409,45.275744],[-112.87016,45.276174],[-112.872068,45.280031],[-112.874282,45.279607],[-112.874959,45.281142],[-112.878134,45.284577],[-112.88048,45.284219],[-112.879208,45.282844],[-112.880798,45.28295],[-112.877224,45.275484],[-112.874685,45.275312],[-112.875443,45.276896]],[[-112.881133,45.239267],[-112.875735,45.239216],[-112.875714,45.242803],[-112.88111,45.242854],[-112.881133,45.239267]],[[-112.870567,45.24276],[-112.870533,45.246353],[-112.875694,45.24639],[-112.875714,45.242803],[-112.870567,45.24276]],[[-112.885914,45.173627],[-112.885901,45.177279],[-112.875892,45.177249],[-112.875857,45.180896],[-112.885885,45.180936],[-112.885897,45.188099],[-112.906366,45.188025],[-112.906402,45.17361],[-112.885914,45.173627]],[[-112.906093,45.27554],[-112.906038,45.261099],[-112.885447,45.261104],[-112.885493,45.275597],[-112.906093,45.27554]],[[-112.906138,45.235119],[-112.895867,45.235134],[-112.895853,45.238771],[-112.890707,45.238782],[-112.89067,45.246022],[-112.906105,45.246009],[-112.906138,45.235119]],[[-112.896018,45.202562],[-112.890888,45.20259],[-112.890869,45.206198],[-112.896,45.206167],[-112.896018,45.202562]],[[-112.922331,45.196975],[-112.920858,45.196931],[-112.917733,45.200475],[-112.919135,45.200519],[-112.918009,45.20139],[-112.92112,45.202495],[-112.916533,45.202498],[-112.916558,45.198869],[-112.906305,45.198867],[-112.906254,45.209707],[-112.921617,45.20973],[-112.921659,45.202686],[-112.923207,45.203237],[-112.923501,45.20301],[-112.923851,45.203795],[-112.929399,45.202561],[-112.928808,45.201238],[-112.929827,45.199675],[-112.927533,45.200187],[-112.929328,45.19737],[-112.927137,45.196816],[-112.926811,45.197327],[-112.926814,45.196734],[-112.922968,45.195975],[-112.922331,45.196975]],[[-112.929547,45.198677],[-112.931819,45.198323],[-112.931136,45.194239],[-112.928863,45.194592],[-112.929328,45.19737],[-112.929547,45.198677]],[[-112.914881,45.273582],[-112.912701,45.274162],[-112.914967,45.277951],[-112.917148,45.277371],[-112.914881,45.273582]],[[-112.93515,45.166478],[-112.937313,45.158333],[-112.936319,45.158214],[-112.933417,45.166302],[-112.928664,45.169568],[-112.921097,45.178752],[-112.922874,45.179813],[-112.930852,45.170155],[-112.93515,45.166478]],[[-112.937073,45.192435],[-112.935059,45.192762],[-112.935211,45.194404],[-112.937064,45.194103],[-112.937058,45.195257],[-112.946233,45.195261],[-112.944903,45.195933],[-112.950227,45.194276],[-112.950227,45.194019],[-112.947302,45.194929],[-112.947325,45.190069],[-112.950056,45.1908],[-112.950861,45.189257],[-112.947334,45.188312],[-112.947345,45.184405],[-112.952464,45.184409],[-112.952484,45.177193],[-112.932,45.1772],[-112.931957,45.191633],[-112.937077,45.191634],[-112.937073,45.192435]],[[-112.959728,45.172858],[-112.958083,45.172118],[-112.958847,45.170472],[-112.956816,45.169677],[-112.95521,45.173307],[-112.949771,45.174767],[-112.95179,45.175578],[-112.95626,45.174332],[-112.955393,45.175716],[-112.957351,45.176605],[-112.959728,45.172858]],[[-112.959921,45.183525],[-112.960081,45.182002],[-112.954408,45.181705],[-112.954248,45.183228],[-112.95545,45.183291],[-112.955429,45.184412],[-112.956557,45.184413],[-112.956515,45.186694],[-112.958651,45.186339],[-112.958704,45.183461],[-112.959921,45.183525]],[[-112.955384,45.186882],[-112.955391,45.186368],[-112.951569,45.185607],[-112.951137,45.18656],[-112.954277,45.187229],[-112.955286,45.18974],[-112.951737,45.189742],[-112.951758,45.191387],[-112.95556,45.191389],[-112.955565,45.190567],[-112.955745,45.191037],[-112.958013,45.190666],[-112.956515,45.186694],[-112.955384,45.186882]],[[-112.959984,45.19904],[-112.96003,45.198002],[-112.965836,45.198242],[-112.965907,45.196632],[-112.968349,45.196722],[-112.968421,45.195077],[-112.962611,45.194864],[-112.962656,45.193938],[-112.957227,45.193807],[-112.956686,45.197312],[-112.954245,45.197247],[-112.954256,45.198893],[-112.952402,45.198891],[-112.952384,45.202515],[-112.957504,45.20252],[-112.957521,45.198977],[-112.959984,45.19904]],[[-112.957016,45.181625],[-112.95873,45.181785],[-112.95873,45.177672],[-112.957015,45.177512],[-112.957016,45.181625]],[[-112.962366,45.199036],[-112.963245,45.19994],[-112.964772,45.199783],[-112.965511,45.20021],[-112.96868,45.199482],[-112.96892,45.199729],[-112.974279,45.198211],[-112.972961,45.196855],[-112.967702,45.198475],[-112.962366,45.199036]],[[-112.96652,45.205355],[-112.968793,45.209141],[-112.970578,45.208605],[-112.968305,45.20482],[-112.96652,45.205355]]],[[[-112.872059,45.285821],[-112.872175,45.285861],[-112.871957,45.286188],[-112.872059,45.285821]]],[[[-112.942215,45.188012],[-112.942197,45.191636],[-112.937077,45.191634],[-112.937095,45.188012],[-112.942215,45.188012]]],[[[-112.977753,45.261043],[-112.977783,45.253164],[-112.982906,45.253174],[-112.982869,45.275542],[-112.972646,45.275531],[-112.972661,45.289991],[-112.967582,45.290003],[-112.967516,45.261039],[-112.977753,45.261043]]],[[[-112.967029,45.143176],[-112.968064,45.142991],[-112.967031,45.143874],[-112.967029,45.143176]]],[[[-113.130781,45.1547],[-113.130781,45.158315],[-113.126058,45.158356],[-113.12615,45.161974],[-113.121002,45.162023],[-113.121023,45.165677],[-113.115839,45.165736],[-113.115856,45.169385],[-113.110669,45.16944],[-113.110716,45.173061],[-113.11589,45.173009],[-113.115879,45.183854],[-113.105593,45.183907],[-113.105616,45.176635],[-113.069633,45.176839],[-113.069644,45.18047],[-113.049121,45.18058],[-113.049094,45.176955],[-113.043957,45.176989],[-113.043776,45.166389],[-113.028389,45.166451],[-113.028325,45.162832],[-113.048835,45.16273],[-113.04891,45.166369],[-113.054041,45.166289],[-113.054111,45.169926],[-113.059237,45.169846],[-113.059171,45.166208],[-113.074617,45.16603],[-113.074563,45.162397],[-113.084934,45.162368],[-113.084857,45.158731],[-113.100292,45.158611],[-113.100203,45.15497],[-113.11565,45.154818],[-113.115563,45.151177],[-113.120733,45.151141],[-113.120643,45.147504],[-113.136156,45.147492],[-113.136105,45.154739],[-113.130781,45.1547]]],[[[-113.105167,45.147627],[-113.105253,45.151271],[-113.089833,45.151444],[-113.089929,45.155081],[-113.079632,45.155105],[-113.07969,45.158744],[-113.064223,45.158846],[-113.064242,45.162491],[-113.053971,45.162651],[-113.053966,45.158999],[-113.023229,45.159217],[-113.023238,45.16286],[-113.018152,45.162887],[-113.01819,45.166474],[-113.013094,45.166486],[-113.013029,45.155659],[-113.007934,45.155702],[-113.007889,45.148434],[-113.002983,45.148414],[-113.002989,45.150254],[-112.997891,45.150222],[-112.997897,45.151124],[-112.995346,45.1511],[-112.995351,45.151981],[-112.992774,45.151964],[-112.992781,45.154119],[-112.990621,45.153102],[-112.991243,45.152848],[-112.989328,45.14996],[-112.986055,45.146591],[-112.986692,45.14633],[-112.985647,45.141071],[-112.983629,45.141896],[-112.983899,45.143256],[-112.983129,45.142637],[-112.980783,45.143953],[-112.977474,45.147325],[-112.977197,45.147101],[-112.975938,45.14813],[-112.977115,45.14908],[-112.976488,45.149919],[-112.974771,45.148117],[-112.970384,45.146848],[-112.968795,45.144385],[-112.969513,45.143351],[-112.969323,45.142789],[-112.968333,45.142346],[-112.968204,45.142655],[-112.967029,45.142691],[-112.967016,45.14],[-113.06924,45.14],[-113.069291,45.147852],[-113.089736,45.147809],[-113.089711,45.14],[-113.130746,45.14],[-113.130765,45.143812],[-113.120602,45.143856],[-113.120643,45.147504],[-113.105167,45.147627]]],[[[-112.9782,45.157107],[-112.977949,45.159171],[-112.982476,45.159501],[-112.982508,45.160556],[-112.979645,45.160175],[-112.979859,45.159678],[-112.977756,45.159869],[-112.976708,45.159029],[-112.9782,45.157107]]],[[[-112.978398,45.150846],[-112.978744,45.150403],[-112.979744,45.151215],[-112.979416,45.151927],[-112.978398,45.150846]]],[[[-112.987932,45.304448],[-112.998152,45.304449],[-112.998204,45.311691],[-113.008344,45.311683],[-113.008365,45.314941],[-113.01851,45.314966],[-113.018418,45.296826],[-113.022743,45.296844],[-113.0198,45.298954],[-113.020709,45.300474],[-113.021634,45.299818],[-113.022989,45.307455],[-113.02492,45.307283],[-113.024545,45.305239],[-113.026074,45.305114],[-113.025345,45.301032],[-113.023844,45.301164],[-113.023628,45.299935],[-113.026076,45.298835],[-113.025401,45.29809],[-113.03045,45.296636],[-113.029553,45.295107],[-113.024187,45.296676],[-113.023822,45.29607],[-113.023505,45.296297],[-113.023495,45.278745],[-113.028616,45.278742],[-113.028616,45.275122],[-113.038886,45.275109],[-113.038887,45.249544],[-113.049151,45.24953],[-113.049216,45.235014],[-113.054353,45.234989],[-113.054343,45.23136],[-113.059482,45.231335],[-113.05949,45.234965],[-113.085319,45.234778],[-113.085193,45.242099],[-113.090359,45.242061],[-113.090214,45.24939],[-113.095368,45.249331],[-113.095164,45.264176],[-113.09002,45.264191],[-113.09013,45.275055],[-113.100401,45.275033],[-113.100447,45.282282],[-113.105576,45.282273],[-113.105587,45.285898],[-113.115843,45.285895],[-113.115848,45.289525],[-113.120976,45.289533],[-113.120996,45.296804],[-113.115869,45.296787],[-113.115886,45.300419],[-113.110758,45.300396],[-113.110774,45.304023],[-113.095383,45.304032],[-113.095387,45.307656],[-113.06971,45.307702],[-113.069724,45.311318],[-113.079971,45.311299],[-113.079952,45.31854],[-113.069697,45.318555],[-113.069658,45.322175],[-113.051371,45.3222],[-113.05321,45.321532],[-113.050541,45.317875],[-113.048468,45.318629],[-113.051076,45.3222],[-113.038105,45.322234],[-113.036771,45.321512],[-113.035987,45.322233],[-113.008389,45.322161],[-113.008378,45.31892],[-112.987984,45.318936],[-112.987932,45.304448]],[[-113.032817,45.297787],[-113.033708,45.29818],[-113.033463,45.299343],[-113.03855,45.301321],[-113.038808,45.300146],[-113.037789,45.299753],[-113.038084,45.298394],[-113.032971,45.296432],[-113.032817,45.297787]],[[-113.030578,45.294312],[-113.029754,45.294563],[-113.031308,45.299014],[-113.03074,45.301993],[-113.030007,45.303507],[-113.030198,45.302861],[-113.027259,45.302067],[-113.026824,45.303515],[-113.029635,45.304276],[-113.026373,45.308141],[-113.027648,45.308254],[-113.029272,45.306504],[-113.032465,45.306703],[-113.032037,45.303758],[-113.041564,45.30503],[-113.042403,45.300992],[-113.040267,45.300766],[-113.039551,45.303325],[-113.031764,45.302121],[-113.032971,45.296432],[-113.030578,45.294312]],[[-113.054058,45.317447],[-113.056051,45.316593],[-113.053028,45.313077],[-113.051034,45.313931],[-113.054058,45.317447]],[[-113.053098,45.30483],[-113.058926,45.30483],[-113.058925,45.303185],[-113.053098,45.303185],[-113.053098,45.30483]],[[-113.054243,45.264226],[-113.054268,45.271471],[-113.059391,45.271467],[-113.059404,45.275091],[-113.074772,45.275079],[-113.074708,45.264201],[-113.054243,45.264226]],[[-113.056735,45.29662],[-113.059066,45.29662],[-113.059066,45.292507],[-113.056735,45.292507],[-113.056735,45.29662]],[[-113.066732,45.310665],[-113.067323,45.310457],[-113.064726,45.306776],[-113.062815,45.307448],[-113.06541,45.31113],[-113.064645,45.311399],[-113.067242,45.315081],[-113.072316,45.317106],[-113.0737,45.316619],[-113.075479,45.317482],[-113.078057,45.313794],[-113.07614,45.313127],[-113.073988,45.316207],[-113.069736,45.31451],[-113.066732,45.310665]],[[-113.066433,45.290583],[-113.064647,45.291641],[-113.068393,45.294791],[-113.070178,45.293734],[-113.066433,45.290583]]],[[[-112.983799,45.159188],[-112.982597,45.159178],[-112.982992,45.158283],[-112.983799,45.159188]]],[[[-112.999245,45.392028],[-112.999446,45.392156],[-112.999245,45.392161],[-112.999245,45.392028]]],[[[-113.090188,45.336616],[-113.090207,45.329381],[-113.100507,45.329411],[-113.100515,45.318534],[-113.105656,45.318539],[-113.105842,45.333054],[-113.103483,45.333045],[-113.102662,45.336666],[-113.100501,45.336655],[-113.100508,45.340279],[-113.095359,45.340256],[-113.095383,45.347494],[-113.090246,45.347465],[-113.090145,45.351936],[-113.079801,45.351902],[-113.079724,45.355441],[-113.069618,45.355508],[-113.069539,45.33668],[-113.090188,45.336616]]],[[[-113.079879,45.362704],[-113.079802,45.359073],[-113.082332,45.359085],[-113.082158,45.360481],[-113.082526,45.360624],[-113.081227,45.36199],[-113.083093,45.362716],[-113.079879,45.362704]]],[[[-113.08497,45.359098],[-113.084975,45.359597],[-113.084466,45.360702],[-113.084593,45.359096],[-113.08497,45.359098]]],[[[-113.087608,45.359111],[-113.090138,45.359124],[-113.090142,45.355506],[-113.105601,45.355579],[-113.105607,45.359189],[-113.121036,45.359226],[-113.121039,45.362846],[-113.087351,45.362731],[-113.086245,45.36207],[-113.087608,45.359111]]],[[[-113.095386,45.216611],[-113.095397,45.220232],[-113.085139,45.220289],[-113.085125,45.216666],[-113.095386,45.216611]]],[[[-113.110771,45.202042],[-113.110782,45.205676],[-113.130824,45.205601],[-113.13086,45.212924],[-113.095375,45.212989],[-113.095352,45.205747],[-113.105638,45.205699],[-113.105629,45.202068],[-113.110771,45.202042]]],[[[-113.10502,45.336679],[-113.105647,45.333915],[-113.105645,45.336682],[-113.10502,45.336679]]],[[[-113.136483,45.402758],[-113.141454,45.402792],[-113.141393,45.420815],[-113.131478,45.420794],[-113.131457,45.417186],[-113.136506,45.417192],[-113.136501,45.413579],[-113.131437,45.413578],[-113.131416,45.409955],[-113.136495,45.409977],[-113.136483,45.402758]]]]}},{"type":"Feature","properties":{"id":"own-b-state","kind":"ownership","name":"State","acres":12776.9,"editable":false,"source":"BLM Surface Management Agency"},"geometry":{"type":"MultiPolygon","coordinates":[[[[-112.88111,45.242854],[-112.875714,45.242803],[-112.875735,45.239216],[-112.881133,45.239267],[-112.88111,45.242854]]],[[[-112.875694,45.24639],[-112.870533,45.246353],[-112.870567,45.24276],[-112.875714,45.242803],[-112.875694,45.24639]]],[[[-112.906402,45.17361],[-112.906366,45.188025],[-112.885897,45.188099],[-112.885885,45.180936],[-112.875857,45.180896],[-112.875892,45.177249],[-112.885901,45.177279],[-112.885914,45.173627],[-112.906402,45.17361]]],[[[-112.885493,45.275597],[-112.885447,45.261104],[-112.906038,45.261099],[-112.906093,45.27554],[-112.885493,45.275597]]],[[[-112.967644,45.231495],[-112.947154,45.231484],[-112.947192,45.216972],[-112.967698,45.216976],[-112.967644,45.231495]]],[[[-112.95983,45.142562],[-112.963018,45.140602],[-112.964067,45.141237],[-112.963396,45.14206],[-112.963396,45.143453],[-112.964401,45.143938],[-112.967029,45.143176],[-112.967031,45.143874],[-112.965347,45.144686],[-112.946511,45.144707],[-112.946495,45.14],[-112.955596,45.14],[-112.957606,45.140985],[-112.958025,45.142103],[-112.95983,45.142562]]],[[[-112.964082,45.140198],[-112.9625,45.140021],[-112.960043,45.141886],[-112.958461,45.141612],[-112.958946,45.14],[-112.967016,45.14],[-112.967029,45.142691],[-112.964567,45.143485],[-112.963949,45.142964],[-112.964806,45.141501],[-112.964082,45.140198]]],[[[-112.978331,45.164395],[-112.975768,45.164053],[-112.979212,45.161761],[-112.979645,45.160175],[-112.982508,45.160556],[-112.982476,45.159501],[-112.977949,45.159171],[-112.9782,45.157107],[-112.976479,45.159336],[-112.975126,45.159109],[-112.975962,45.156712],[-112.974239,45.154163],[-112.977289,45.153201],[-112.978476,45.155319],[-112.981747,45.154025],[-112.979498,45.152013],[-112.979744,45.151215],[-112.98097,45.150152],[-112.979035,45.148586],[-112.98229,45.145169],[-112.984084,45.144161],[-112.983629,45.141896],[-112.985647,45.141071],[-112.986692,45.14633],[-112.986055,45.146591],[-112.989328,45.14996],[-112.991243,45.152848],[-112.990621,45.153102],[-112.992781,45.154119],[-112.992774,45.151964],[-112.995351,45.151981],[-112.995346,45.1511],[-112.997897,45.151124],[-112.997891,45.150222],[-113.002989,45.150254],[-113.002983,45.148414],[-113.007889,45.148434],[-113.007934,45.155702],[-113.013029,45.155659],[-113.013094,45.166486],[-113.007999,45.166612],[-113.008036,45.173567],[-112.982579,45.173574],[-112.982558,45.162207],[-112.981775,45.162103],[-112.978331,45.164395]],[[-112.987647,45.159102],[-112.991794,45.157958],[-112.98977,45.15715],[-112.984783,45.1587],[-112.986492,45.159421],[-112.987647,45.159102]],[[-112.985468,45.158139],[-112.984534,45.157659],[-112.986061,45.157217],[-112.985635,45.156729],[-112.982699,45.158517],[-112.982597,45.159178],[-112.983964,45.159374],[-112.984783,45.1587],[-112.985468,45.158139]]],[[[-112.985199,45.157384],[-112.984973,45.157212],[-112.985234,45.157027],[-112.985199,45.157384]]],[[[-113.008132,45.278753],[-113.008079,45.264305],[-113.028614,45.264259],[-113.028616,45.278742],[-113.008132,45.278753]]],[[[-113.028561,45.191549],[-113.008101,45.191662],[-113.00806,45.177168],[-113.013182,45.177148],[-113.013152,45.173593],[-113.018266,45.173625],[-113.018304,45.17713],[-113.028545,45.17709],[-113.028561,45.191549]]],[[[-113.090253,45.307658],[-113.090226,45.322146],[-113.069658,45.322175],[-113.069697,45.318555],[-113.079952,45.31854],[-113.079971,45.311299],[-113.069724,45.311318],[-113.06971,45.307702],[-113.090253,45.307658]]],[[[-113.080135,45.234824],[-113.069766,45.234915],[-113.069746,45.220398],[-113.090271,45.220253],[-113.090387,45.227492],[-113.080072,45.227575],[-113.080135,45.234824]]],[[[-113.100318,45.416982],[-113.095105,45.416936],[-113.095148,45.413327],[-113.100343,45.41337],[-113.100318,45.416982]]],[[[-113.095458,45.435086],[-113.080101,45.435086],[-113.078915,45.427626],[-113.080013,45.391477],[-113.100547,45.39166],[-113.100393,45.406145],[-113.090075,45.406099],[-113.089893,45.416889],[-113.095105,45.416936],[-113.095458,45.435086]]],[[[-113.069291,45.147852],[-113.06924,45.14],[-113.089711,45.14],[-113.089736,45.147809],[-113.069291,45.147852]]],[[[-113.079941,45.194946],[-113.074812,45.194968],[-113.074806,45.19134],[-113.079937,45.191319],[-113.079941,45.194946]]],[[[-113.130824,45.205601],[-113.110782,45.205676],[-113.110748,45.194774],[-113.115878,45.194752],[-113.11589,45.198387],[-113.130822,45.198324],[-113.130824,45.205601]]],[[[-113.121039,45.18383],[-113.121061,45.180189],[-113.126196,45.180169],[-113.12617,45.183806],[-113.121039,45.18383]]],[[[-113.125784,45.147486],[-113.12574,45.143834],[-113.130765,45.143812],[-113.130746,45.14],[-113.156988,45.14],[-113.156987,45.140254],[-113.151847,45.140263],[-113.151829,45.143926],[-113.141471,45.143864],[-113.14153,45.147516],[-113.125784,45.147486]]],[[[-113.131021,45.278618],[-113.131,45.264072],[-113.151479,45.263947],[-113.151597,45.278467],[-113.131021,45.278618]]],[[[-113.151347,45.249198],[-113.130886,45.249369],[-113.130897,45.23482],[-113.151489,45.234623],[-113.151347,45.249198]]],[[[-113.141557,45.348489],[-113.182611,45.348571],[-113.182629,45.362994],[-113.162071,45.362993],[-113.162114,45.391878],[-113.141475,45.391944],[-113.141494,45.377437],[-113.15179,45.377431],[-113.151791,45.362978],[-113.141512,45.362962],[-113.141557,45.348489]]],[[[-113.151653,45.162115],[-113.162081,45.162111],[-113.161704,45.176345],[-113.151396,45.176396],[-113.15144,45.172885],[-113.156618,45.1729],[-113.156777,45.165715],[-113.15157,45.165699],[-113.151653,45.162115]]],[[[-113.162106,45.143948],[-113.162127,45.140245],[-113.182623,45.14],[-113.182622,45.140251],[-113.177545,45.140239],[-113.177543,45.143917],[-113.162106,45.143948]]],[[[-113.2,45.307418],[-113.2,45.314651],[-113.193073,45.314647],[-113.193034,45.307416],[-113.2,45.307418]]]]}},{"type":"Feature","properties":{"id":"own-b-usfs","kind":"ownership","name":"USFS","acres":83835.1,"editable":false,"source":"BLM Surface Management Agency"},"geometry":{"type":"MultiPolygon","coordinates":[[[[-112.885509,45.318986],[-112.885505,45.319881],[-112.887639,45.320011],[-112.887092,45.316457],[-112.888894,45.316313],[-112.888689,45.315041],[-112.886887,45.315186],[-112.887006,45.315922],[-112.885527,45.31583],[-112.885548,45.310266],[-112.886539,45.310863],[-112.886948,45.310525],[-112.890636,45.313717],[-112.892152,45.312467],[-112.891339,45.311762],[-112.892196,45.310233],[-112.888748,45.307237],[-112.888428,45.307811],[-112.88553,45.306063],[-112.885509,45.2912],[-112.890988,45.291628],[-112.891685,45.289983],[-112.947085,45.289994],[-112.947033,45.26106],[-112.926493,45.261072],[-112.926645,45.231487],[-112.967644,45.231495],[-112.967582,45.290003],[-112.987895,45.289956],[-112.987906,45.293256],[-112.982341,45.293234],[-112.979512,45.303577],[-112.983158,45.305535],[-112.987927,45.300821],[-112.987984,45.318936],[-113.008378,45.31892],[-113.008389,45.322161],[-113.035987,45.322233],[-113.033222,45.324775],[-113.035073,45.325777],[-113.038622,45.322514],[-113.038105,45.322234],[-113.090226,45.322146],[-113.090188,45.336616],[-113.069539,45.33668],[-113.069618,45.355508],[-113.079724,45.355441],[-113.079829,45.372559],[-113.078196,45.372911],[-113.079904,45.376843],[-113.079922,45.398704],[-113.078915,45.427626],[-113.080101,45.435086],[-113.095589,45.435086],[-113.095595,45.438876],[-113.090478,45.438864],[-113.090478,45.44],[-112.87,45.44],[-112.87,45.318955],[-112.885509,45.318986]],[[-112.884422,45.387511],[-112.880929,45.390806],[-112.8828,45.39179],[-112.886292,45.388495],[-112.884422,45.387511]],[[-112.893061,45.294539],[-112.891003,45.293767],[-112.887422,45.299384],[-112.88948,45.300157],[-112.893061,45.294539]],[[-112.910773,45.358632],[-112.912969,45.359505],[-112.913446,45.358606],[-112.911249,45.357733],[-112.906875,45.353806],[-112.906399,45.354705],[-112.910773,45.358632]],[[-112.939374,45.301036],[-112.934345,45.298855],[-112.92844,45.305009],[-112.930403,45.307756],[-112.939374,45.301036]],[[-112.932432,45.309548],[-112.93136,45.308405],[-112.929896,45.309089],[-112.931081,45.310179],[-112.932432,45.309548]],[[-112.948825,45.311299],[-112.942778,45.302368],[-112.939489,45.301085],[-112.931155,45.307558],[-112.939284,45.305415],[-112.942005,45.306973],[-112.941804,45.312466],[-112.948106,45.312041],[-112.948825,45.311299]],[[-112.955788,45.307632],[-112.947158,45.306681],[-112.945687,45.304963],[-112.946105,45.302808],[-112.942936,45.302387],[-112.948906,45.311214],[-112.951407,45.308634],[-112.955788,45.307632]],[[-112.954452,45.311578],[-112.952286,45.310968],[-112.951695,45.31281],[-112.949874,45.312127],[-112.94845,45.312184],[-112.949291,45.313414],[-112.951616,45.313057],[-112.94884,45.318799],[-112.951005,45.319409],[-112.954452,45.311578]],[[-112.979858,45.395011],[-112.980716,45.394491],[-112.982215,45.395593],[-112.984971,45.393732],[-112.987085,45.394969],[-112.988023,45.394237],[-112.988906,45.394798],[-112.992881,45.391828],[-112.993612,45.392293],[-112.999446,45.392156],[-112.996958,45.390574],[-112.991116,45.390705],[-112.990282,45.391462],[-112.989262,45.390814],[-112.986532,45.392945],[-112.984814,45.39156],[-112.984008,45.392104],[-112.98015,45.389056],[-112.975954,45.391915],[-112.979858,45.395011]]],[[[-112.888462,45.309275],[-112.888053,45.309612],[-112.88554,45.308099],[-112.885536,45.307348],[-112.888462,45.309275]]],[[[-113.121224,45.435148],[-113.121166,45.420745],[-113.141393,45.420815],[-113.141454,45.402792],[-113.146611,45.402783],[-113.146621,45.399158],[-113.151776,45.399149],[-113.151794,45.391912],[-113.162114,45.391878],[-113.162085,45.377426],[-113.182634,45.377472],[-113.182611,45.348571],[-113.2,45.348601],[-113.2,45.44],[-113.105863,45.44],[-113.10586,45.438899],[-113.111009,45.438911],[-113.110999,45.435124],[-113.121224,45.435148]]],[[[-113.182705,45.307625],[-113.182668,45.303998],[-113.177514,45.304003],[-113.177535,45.307635],[-113.172366,45.307645],[-113.172313,45.278475],[-113.171608,45.278475],[-113.17162,45.263681],[-113.161382,45.263833],[-113.16148,45.237831],[-113.151455,45.237818],[-113.151489,45.234197],[-113.161487,45.234211],[-113.161639,45.190749],[-113.171899,45.190743],[-113.172508,45.161692],[-113.182531,45.161729],[-113.182537,45.147615],[-113.192774,45.147635],[-113.192783,45.14],[-113.2,45.14],[-113.2,45.307418],[-113.182705,45.307625]]]]}}]}