{"type":"FeatureCollection","features":[{"type":"Feature","properties":{"id":"spr-b1","kind":"spring","name":"Spring","acres":null,"editable":false,"source":"USGS 3DHP hydrolocations"},"geometry":{"type":"Point","coordinates":[-113.015014,45.297186]}},{"type":"Feature","properties":{"id":"spr-b2","kind":"spring","name":"Spring","acres":null,"editable":false,"source":"USGS 3DHP hydrolocations"},"geometry":{"type":"Point","coordinates":[-113.148832,45.292071]}},{"type":"Feature","properties":{"id":"spr-b3","kind":"spring","name":"Spring","acres":null,"editable":false,"source":"USGS 3DHP hydrolocations"},"geometry":{"type":"Point","coordinates":[-113.163359,45.249091]}},{"type":"Feature","properties":{"id":"spr-b4","kind":"spring","name":"Spring","acres":null,"editable":false,"source":"USGS 3DHP hydrolocations"},"geometry":{"type":"Point","coordinates":[-113.034458,45.218668]}},{"type":"Feature","properties":{"id":"spr-b5","kind":"spring","name":"Spring","acres":null,"editable":false,"source":"USGS 3DHP hydrolocations"},"geometry":{"type":"Point","coordinates":[-112.918542,45.199655]}},{"type":"Feature","properties":{"id":"spr-b6","kind":"spring","name":"Argenta Spring","acres":null,"editable":false,"source":"USGS 3DHP hydrolocations"},"geometry":{"type":"Point","coordinates":[-112.876115,45.316859]}},{"type":"Feature","properties":{"id":"spr-b7","kind":"spring","name":"Spring","acres":null,"editable":false,"source":"USGS 3DHP hydrolocations"},"geometry":{"type":"Point","coordinates":[-112.874065,45.242805]}},{"type":"Feature","properties":{"id":"spr-b8","kind":"spring","name":"Spring","acres":null,"editable":false,"source":"USGS 3DHP hydrolocations"},"geometry":{"type":"Point","coordinates":[-113.109066,45.319586]}},{"type":"Feature","properties":{"id":"spr-b9","kind":"spring","name":"Spring","acres":null,"editable":false,"source":"USGS 3DHP hydrolocations"},"geometry":{"type":"Point","coordinates":[-113.031949,45.223523]}},{"type":"Feature","properties":{"id":"spr-b10","kind":"spring","name":"McDowell Spring","acres":null,"editable":false,"source":"USGS 3DHP hydrolocations"},"geometry":{"type":"Point","coordinates":[-112.883965,45.216764]}},{"type":"Feature","properties":{"id":"spr-b11","kind":"spring","name":"Spring","acres":null,"editable":false,"source":"USGS 3DHP hydrolocations"},"geometry":{"type":"Point","coordinates":[-112.924647,45.212164]}},{"type":"Feature","properties":{"id":"spr-b12","kind":"spring","name":"Spring","acres":null,"editable":false,"source":"USGS 3DHP hydrolocations"},"geometry":{"type":"Point","coordinates":[-113.064107,45.209658]}},{"type":"Feature","properties":{"id":"spr-b13","kind":"spring","name":"Spring","acres":null,"editable":false,"source":"USGS 3DHP hydrolocations"},"geometry":{"type":"Point","coordinates":[-112.924799,45.211786]}},{"type":"Feature","properties":{"id":"spr-b14","kind":"spring","name":"Spring","acres":null,"editable":false,"source":"USGS 3DHP hydrolocations"},"geometry":{"type":"Point","coordinates":[-113.025535,45.296431]}},{"type":"Feature","properties":{"id":"spr-b15","kind":"spring","name":"Spring","acres":null,"editable":false,"source":"USGS 3DHP hydrolocations"},"geometry":{"type":"Point","coordinates":[-112.996237,45.290239]}},{"type":"Feature","properties":{"id":"spr-b16","kind":"spring","name":"Taylor Spring","acres":null,"editable":false,"source":"USGS 3DHP hydrolocations"},"geometry":{"type":"Point","coordinates":[-112.965733,45.285116]}},{"type":"Feature","properties":{"id":"spr-b17","kind":"spring","name":"Argenta Spring","acres":null,"editable":false,"source":"USGS 3DHP hydrolocations"},"geometry":{"type":"Point","coordinates":[-112.875956,45.316811]}},{"type":"Feature","properties":{"id":"spr-b18","kind":"spring","name":"Spring","acres":null,"editable":false,"source":"USGS 3DHP hydrolocations"},"geometry":{"type":"Point","coordinates":[-113.106792,45.299449]}},{"type":"Feature","properties":{"id":"spr-b19","kind":"spring","name":"Old Faithful Spring","acres":null,"editable":false,"source":"USGS 3DHP hydrolocations"},"geometry":{"type":"Point","coordinates":[-113.014205,45.296278]}},{"type":"Feature","properties":{"id":"spr-b20","kind":"spring","name":"Spring","acres":null,"editable":false,"source":"USGS 3DHP hydrolocations"},"geometry":{"type":"Point","coordinates":[-113.160047,45.274829]}},{"type":"Feature","properties":{"id":"spr-b21","kind":"spring","name":"Spring","acres":null,"editable":false,"source":"USGS 3DHP hydrolocations"},"geometry":{"type":"Point","coordinates":[-113.050729,45.29154]}},{"type":"Feature","properties":{"id":"spr-b22","kind":"spring","name":"Spring","acres":null,"editable":false,"source":"USGS 3DHP hydrolocations"},"geometry":{"type":"Point","coordinates":[-113.058175,45.271227]}},{"type":"Feature","properties":{"id":"spr-b23","kind":"spring","name":"Lockridge Spring","acres":null,"editable":false,"source":"USGS 3DHP hydrolocations"},"geometry":{"type":"Point","coordinates":[-113.024048,45.269545]}},{"type":"Feature","properties":{"id":"spr-b24","kind":"spring","name":"Spring","acres":null,"editable":false,"source":"USGS 3DHP hydrolocations"},"geometry":{"type":"Point","coordinates":[-112.920709,45.199903]}},{"type":"Feature","properties":{"id":"spr-b25","kind":"spring","name":"Spring","acres":null,"editable":false,"source":"USGS 3DHP hydrolocations"},"geometry":{"type":"Point","coordinates":[-112.92711,45.174299]}},{"type":"Feature","properties":{"id":"spr-b26","kind":"spring","name":"Best Spring","acres":null,"editable":false,"source":"USGS 3DHP hydrolocations"},"geometry":{"type":"Point","coordinates":[-112.92895,45.311816]}},{"type":"Feature","properties":{"id":"spr-b27","kind":"spring","name":"06S13W15CCCD01 Spring","acres":null,"editable":false,"source":"USGS 3DHP hydrolocations"},"geometry":{"type":"Point","coordinates":[-113.190139,45.308379]}},{"type":"Feature","properties":{"id":"spr-b28","kind":"spring","name":"Spring","acres":null,"editable":false,"source":"USGS 3DHP hydrolocations"},"geometry":{"type":"Point","coordinates":[-113.06048,45.267923]}},{"type":"Feature","properties":{"id":"spr-b29","kind":"spring","name":"Spring","acres":null,"editable":false,"source":"USGS 3DHP hydrolocations"},"geometry":{"type":"Point","coordinates":[-112.884176,45.345283]}}]}