{"type":"FeatureCollection","features":[{"type":"Feature","properties":{"id":"allot-ut04001","kind":"allotment","name":"Bear Lake","acres":3013.7,"editable":false,"source":"BLM National Grazing Allotments","allot_no":"UT04001"},"geometry":{"type":"Polygon","coordinates":[[[-111.269902,41.860665],[-111.275932,41.843006],[-111.277908,41.842644],[-111.283466,41.834674],[-111.294014,41.829879],[-111.297037,41.823804],[-111.300155,41.824305],[-111.30178,41.824301],[-111.303809,41.823687],[-111.305164,41.823783],[-111.312239,41.825376],[-111.314948,41.828098],[-111.314207,41.829514],[-111.311284,41.833476],[-111.301651,41.8444],[-111.296679,41.852195],[-111.295737,41.854431],[-111.294873,41.860616],[-111.296001,41.864612],[-111.295663,41.873467],[-111.29358,41.87462],[-111.26263,41.874291],[-111.262663,41.860591],[-111.269902,41.860665]]]}},{"type":"Feature","properties":{"id":"allot-id14125","kind":"allotment","name":"Fish Haven-2","acres":985.2,"editable":false,"source":"BLM National Grazing Allotments","allot_no":"ID14125"},"geometry":{"type":"Polygon","coordinates":[[[-111.424621,42.029421],[-111.439374,42.029293],[-111.439491,42.058424],[-111.42452,42.058404],[-111.424621,42.029421]]]}},{"type":"Feature","properties":{"id":"allot-id14111","kind":"allotment","name":"Fish Haven-1","acres":355.7,"editable":false,"source":"BLM National Grazing Allotments","allot_no":"ID14111"},"geometry":{"type":"Polygon","coordinates":[[[-111.41516,42.058416],[-111.414881,42.047839],[-111.415262,42.04201],[-111.415849,42.04013],[-111.42457,42.044088],[-111.42452,42.058404],[-111.41516,42.058416]]]}},{"type":"Feature","properties":{"id":"allot-id10050","kind":"allotment","name":"South Canyon-2","acres":42.3,"editable":false,"source":"BLM National Grazing Allotments","allot_no":"ID10050"},"geometry":{"type":"Polygon","coordinates":[[[-111.40528,42.06195],[-111.405334,42.05841],[-111.410279,42.058411],[-111.410244,42.062297],[-111.40528,42.06195]]]}},{"type":"Feature","properties":{"id":"allot-id04322","kind":"allotment","name":"South Canyon-1","acres":1012.4,"editable":false,"source":"BLM National Grazing Allotments","allot_no":"ID04322"},"geometry":{"type":"Polygon","coordinates":[[[-111.439491,42.058424],[-111.439559,42.068015],[-111.440715,42.06802],[-111.440615,42.070304],[-111.433224,42.071854],[-111.428635,42.068759],[-111.428204,42.067991],[-111.424707,42.067987],[-111.424883,42.082574],[-111.415133,42.082589],[-111.415037,42.071379],[-111.410457,42.068474],[-111.410335,42.068092],[-111.410681,42.065939],[-111.415073,42.065941],[-111.415074,42.062338],[-111.410244,42.062297],[-111.410279,42.058411],[-111.439491,42.058424]]]}},{"type":"Feature","properties":{"id":"allot-id04303","kind":"allotment","name":"Maple Canyon","acres":433.4,"editable":false,"source":"BLM National Grazing Allotments","allot_no":"ID04303"},"geometry":{"type":"Polygon","coordinates":[[[-111.444192,42.079049],[-111.429953,42.078954],[-111.426625,42.082263],[-111.424883,42.082574],[-111.424707,42.067987],[-111.428204,42.067991],[-111.428635,42.068759],[-111.433224,42.071854],[-111.440615,42.070304],[-111.440715,42.06802],[-111.444085,42.068066],[-111.444192,42.079049]]]}},{"type":"Feature","properties":{"id":"allot-id04296","kind":"allotment","name":"Long Grove","acres":386.1,"editable":false,"source":"BLM National Grazing Allotments","allot_no":"ID04296"},"geometry":{"type":"Polygon","coordinates":[[[-111.444192,42.079049],[-111.44427,42.096894],[-111.434593,42.096864],[-111.434934,42.079044],[-111.444192,42.079049]]]}},{"type":"Feature","properties":{"id":"allot-id04260","kind":"allotment","name":"Jacobs Canyon","acres":700.9,"editable":false,"source":"BLM National Grazing Allotments","allot_no":"ID04260"},"geometry":{"type":"Polygon","coordinates":[[[-111.415151,42.089828],[-111.424917,42.089807],[-111.424883,42.082574],[-111.426625,42.082263],[-111.429953,42.078954],[-111.434815,42.079071],[-111.434593,42.096864],[-111.4394,42.096882],[-111.438703,42.099952],[-111.436008,42.103519],[-111.432969,42.105408],[-111.429884,42.107897],[-111.429941,42.100637],[-111.424744,42.100535],[-111.421092,42.097622],[-111.415151,42.089828]]]}},{"type":"Feature","properties":{"id":"allot-id04302","kind":"allotment","name":"Green Canyon","acres":124.1,"editable":false,"source":"BLM National Grazing Allotments","allot_no":"ID04302"},"geometry":{"type":"Polygon","coordinates":[[[-111.430006,42.100718],[-111.4298,42.111171],[-111.424684,42.111091],[-111.424744,42.100535],[-111.430006,42.100718]]]}},{"type":"Feature","properties":{"id":"allot-id14053","kind":"allotment","name":"Crossley Hollow","acres":752.0,"editable":false,"source":"BLM National Grazing Allotments","allot_no":"ID14053"},"geometry":{"type":"Polygon","coordinates":[[[-111.429884,42.107897],[-111.432969,42.105408],[-111.436008,42.103519],[-111.438703,42.099952],[-111.4394,42.096882],[-111.454353,42.097071],[-111.454275,42.107942],[-111.44432,42.10781],[-111.444347,42.111394],[-111.434819,42.111246],[-111.434792,42.11493],[-111.439282,42.115035],[-111.437219,42.115642],[-111.42868,42.119292],[-111.42604,42.120797],[-111.424834,42.1207],[-111.424684,42.111091],[-111.4298,42.111171],[-111.429884,42.107897]]]}},{"type":"Feature","properties":{"id":"allot-ut04006","kind":"allotment","name":"Duck Creek","acres":22731.9,"editable":false,"source":"BLM National Grazing Allotments","allot_no":"UT04006"},"geometry":{"type":"Polygon","coordinates":[[[-111.245251,41.860608],[-111.24527,41.853379],[-111.234071,41.85326],[-111.225851,41.849573],[-111.216534,41.849407],[-111.208383,41.851306],[-111.204963,41.85177],[-111.195383,41.857003],[-111.186925,41.857375],[-111.142444,41.857531],[-111.142358,41.85404],[-111.133442,41.854242],[-111.133485,41.853451],[-111.132192,41.853436],[-111.131884,41.846859],[-111.137788,41.849244],[-111.144615,41.850563],[-111.144226,41.841811],[-111.14807,41.840658],[-111.148373,41.835777],[-111.149927,41.834841],[-111.149777,41.833543],[-111.147954,41.830918],[-111.133621,41.830823],[-111.121322,41.837496],[-111.118564,41.836268],[-111.113779,41.83666],[-111.105834,41.835351],[-111.103689,41.834522],[-111.098196,41.834398],[-111.096583,41.835411],[-111.095963,41.835246],[-111.09658,41.833855],[-111.095247,41.833485],[-111.091723,41.83167],[-111.091603,41.827534],[-111.089257,41.819964],[-111.089707,41.816175],[-111.094552,41.816224],[-111.094736,41.810627],[-111.099524,41.81063],[-111.099376,41.807017],[-111.104513,41.807104],[-111.104065,41.79608],[-111.108977,41.796213],[-111.109555,41.799612],[-111.144114,41.799587],[-111.144012,41.791904],[-111.168574,41.792008],[-111.193306,41.781113],[-111.196429,41.781023],[-111.19851,41.78199],[-111.202602,41.782699],[-111.21046,41.788297],[-111.215602,41.791253],[-111.223243,41.793891],[-111.230296,41.794998],[-111.232548,41.795766],[-111.242932,41.800721],[-111.246546,41.804088],[-111.24917,41.807221],[-111.250554,41.808148],[-111.252662,41.808642],[-111.258693,41.808613],[-111.259949,41.809298],[-111.263934,41.811977],[-111.263907,41.816728],[-111.267793,41.816719],[-111.271004,41.815336],[-111.275103,41.816233],[-111.277911,41.818114],[-111.28108,41.818716],[-111.283701,41.820211],[-111.287404,41.820429],[-111.289238,41.82104],[-111.291578,41.822742],[-111.29303,41.824847],[-111.29709,41.824083],[-111.294014,41.829879],[-111.283466,41.834674],[-111.277908,41.842644],[-111.275932,41.843006],[-111.269902,41.860665],[-111.245251,41.860608]]]}},{"type":"Feature","properties":{"id":"allot-ut04015","kind":"allotment","name":"Rabbit Creek","acres":5652.5,"editable":false,"source":"BLM National Grazing Allotments","allot_no":"UT04015"},"geometry":{"type":"Polygon","coordinates":[[[-111.170679,41.871146],[-111.164144,41.869962],[-111.158809,41.870379],[-111.148139,41.872303],[-111.144407,41.872614],[-111.138235,41.872383],[-111.138079,41.875482],[-111.124317,41.875808],[-111.123059,41.872067],[-111.119305,41.871761],[-111.119096,41.864911],[-111.119406,41.861511],[-111.134365,41.8613],[-111.134759,41.864687],[-111.13818,41.864698],[-111.138391,41.866249],[-111.143555,41.866846],[-111.144191,41.857523],[-111.186925,41.857375],[-111.195383,41.857003],[-111.204963,41.85177],[-111.208383,41.851306],[-111.216534,41.849407],[-111.225851,41.849573],[-111.234071,41.85326],[-111.24527,41.853379],[-111.245251,41.860608],[-111.262663,41.860591],[-111.26263,41.874291],[-111.206472,41.874131],[-111.206451,41.878842],[-111.189917,41.879005],[-111.189414,41.874998],[-111.179206,41.874609],[-111.170679,41.871146]]]}},{"type":"Feature","properties":{"id":"allot-id04378","kind":"allotment","name":"Id-Ut Stateline","acres":4433.7,"editable":false,"source":"BLM National Grazing Allotments","allot_no":"ID04378"},"geometry":{"type":"Polygon","coordinates":[[[-111.183609,42.030052],[-111.183527,42.033642],[-111.169324,42.033596],[-111.169122,42.02636],[-111.164645,42.026312],[-111.164415,42.02593],[-111.164608,42.011208],[-111.168813,42.013571],[-111.168364,42.001378],[-111.227928,42.001377],[-111.227584,42.037224],[-111.207408,42.037095],[-111.207383,42.029949],[-111.183609,42.030052]]]}},{"type":"Feature","properties":{"id":"allot-id14166","kind":"allotment","name":"Cooley Canyon","acres":6384.1,"editable":false,"source":"BLM National Grazing Allotments","allot_no":"ID14166"},"geometry":{"type":"Polygon","coordinates":[[[-111.243467,42.071037],[-111.247954,42.070964],[-111.247958,42.067002],[-111.209089,42.066944],[-111.208893,42.058731],[-111.194262,42.058549],[-111.193234,42.051463],[-111.200851,42.051445],[-111.200305,42.044412],[-111.207433,42.044323],[-111.207408,42.037095],[-111.227584,42.037224],[-111.227928,42.001377],[-111.257742,42.001372],[-111.257403,42.037264],[-111.25529,42.046608],[-111.253337,42.05203],[-111.25351,42.058929],[-111.252141,42.064853],[-111.252152,42.066947],[-111.252645,42.068995],[-111.252084,42.07241],[-111.252401,42.076746],[-111.253284,42.080117],[-111.256064,42.085704],[-111.256452,42.087198],[-111.256421,42.089706],[-111.243719,42.089639],[-111.243467,42.071037]]]}},{"type":"Feature","properties":{"id":"allot-id10052","kind":"allotment","name":"Bear Hollow","acres":90.9,"editable":false,"source":"BLM National Grazing Allotments","allot_no":"ID10052"},"geometry":{"type":"Polygon","coordinates":[[[-111.155166,42.044789],[-111.155391,42.050611],[-111.155081,42.052062],[-111.149934,42.052149],[-111.14961,42.044873],[-111.155166,42.044789]]]}},{"type":"Feature","properties":{"id":"allot-id14038","kind":"allotment","name":"Bee Hunt Hollow","acres":766.3,"editable":false,"source":"BLM National Grazing Allotments","allot_no":"ID14038"},"geometry":{"type":"Polygon","coordinates":[[[-111.247958,42.067002],[-111.247954,42.070964],[-111.243467,42.071037],[-111.243661,42.081529],[-111.224183,42.081389],[-111.224173,42.078039],[-111.219265,42.078039],[-111.219265,42.074486],[-111.218835,42.074338],[-111.218803,42.067007],[-111.247958,42.067002]],[[-111.228841,42.070842],[-111.228716,42.074544],[-111.233743,42.074543],[-111.23374,42.070855],[-111.228841,42.070842]]]}},{"type":"Feature","properties":{"id":"allot-id14083","kind":"allotment","name":"Spring Hollow","acres":3797.3,"editable":false,"source":"BLM National Grazing Allotments","allot_no":"ID14083"},"geometry":{"type":"Polygon","coordinates":[[[-111.150017,42.066812],[-111.169728,42.067217],[-111.170064,42.055724],[-111.179864,42.055538],[-111.179959,42.05878],[-111.184628,42.058682],[-111.184525,42.066869],[-111.194512,42.066826],[-111.194311,42.058626],[-111.204286,42.058739],[-111.204254,42.066786],[-111.209089,42.066944],[-111.209076,42.081562],[-111.189545,42.081389],[-111.189379,42.088936],[-111.175034,42.088959],[-111.174799,42.092643],[-111.169745,42.092538],[-111.169687,42.096019],[-111.164972,42.095981],[-111.164892,42.103267],[-111.160248,42.10331],[-111.160066,42.107039],[-111.155068,42.106879],[-111.155066,42.103263],[-111.150179,42.103207],[-111.150042,42.103423],[-111.150017,42.066812]]]}},{"type":"Feature","properties":{"id":"allot-id04421","kind":"allotment","name":"Pegram Creek-2","acres":677.0,"editable":false,"source":"BLM National Grazing Allotments","allot_no":"ID04421"},"geometry":{"type":"Polygon","coordinates":[[[-111.13027,42.085655],[-111.130246,42.081985],[-111.149992,42.081312],[-111.150069,42.088765],[-111.14525,42.088906],[-111.145281,42.095981],[-111.125795,42.096396],[-111.126055,42.08566],[-111.13027,42.085655]]]}},{"type":"Feature","properties":{"id":"allot-id04232","kind":"allotment","name":"Indian Creek","acres":469.7,"editable":false,"source":"BLM National Grazing Allotments","allot_no":"ID04232"},"geometry":{"type":"MultiPolygon","coordinates":[[[[-111.213992,42.092351],[-111.214055,42.093599],[-111.210777,42.09369],[-111.209031,42.094018],[-111.209038,42.092387],[-111.213992,42.092351]]],[[[-111.233571,42.114739],[-111.22839,42.114565],[-111.228471,42.110732],[-111.233605,42.110501],[-111.233571,42.114739]]],[[[-111.219193,42.095989],[-111.219165,42.092639],[-111.228973,42.092561],[-111.229016,42.096596],[-111.228089,42.097282],[-111.227025,42.100108],[-111.226654,42.099942],[-111.226477,42.097992],[-111.225497,42.095954],[-111.219193,42.095989]]],[[[-111.243769,42.095903],[-111.234251,42.095923],[-111.233966,42.081527],[-111.243661,42.081529],[-111.243769,42.095903]]]]}},{"type":"Feature","properties":{"id":"allot-id04305","kind":"allotment","name":"Dairy Ridge","acres":5891.5,"editable":false,"source":"BLM National Grazing Allotments","allot_no":"ID04305"},"geometry":{"type":"MultiPolygon","coordinates":[[[[-111.20488,42.168246],[-111.228781,42.168336],[-111.228805,42.182935],[-111.234097,42.182961],[-111.234068,42.185293],[-111.233715,42.186735],[-111.233306,42.186736],[-111.233308,42.18574],[-111.224745,42.185888],[-111.224718,42.186426],[-111.224193,42.18666],[-111.224016,42.19744],[-111.219067,42.197414],[-111.209285,42.193636],[-111.205396,42.18996],[-111.20488,42.168246]]],[[[-111.170526,42.153848],[-111.169077,42.146438],[-111.169133,42.139413],[-111.184122,42.139516],[-111.184147,42.125015],[-111.174522,42.124864],[-111.174662,42.121644],[-111.179666,42.121645],[-111.179765,42.118051],[-111.160065,42.118103],[-111.160248,42.10331],[-111.164892,42.103267],[-111.164972,42.095981],[-111.169687,42.096019],[-111.169745,42.092538],[-111.174799,42.092643],[-111.175194,42.088918],[-111.194567,42.088946],[-111.194567,42.100041],[-111.199367,42.100042],[-111.199365,42.110571],[-111.189268,42.110606],[-111.188822,42.124972],[-111.208521,42.125118],[-111.209172,42.146654],[-111.203634,42.146682],[-111.203958,42.155708],[-111.203469,42.155916],[-111.203496,42.16104],[-111.185039,42.161066],[-111.18504,42.15378],[-111.170526,42.153848]]]]}},{"type":"Feature","properties":{"id":"allot-id04167","kind":"allotment","name":"Mahogany Ridge","acres":2478.8,"editable":false,"source":"BLM National Grazing Allotments","allot_no":"ID04167"},"geometry":{"type":"Polygon","coordinates":[[[-111.233605,42.110501],[-111.228471,42.110732],[-111.20887,42.11068],[-111.209031,42.094018],[-111.210777,42.09369],[-111.214055,42.093599],[-111.213949,42.096017],[-111.225497,42.095954],[-111.226437,42.097871],[-111.226859,42.100112],[-111.227479,42.099319],[-111.227963,42.097512],[-111.228944,42.096704],[-111.229123,42.095934],[-111.243769,42.095903],[-111.243765,42.09974],[-111.247586,42.099741],[-111.247588,42.10074],[-111.254567,42.100743],[-111.254567,42.096875],[-111.258852,42.096861],[-111.25883,42.104345],[-111.254437,42.104355],[-111.254366,42.107273],[-111.256635,42.107268],[-111.25653,42.107741],[-111.258401,42.107737],[-111.258561,42.106913],[-111.259642,42.106991],[-111.259633,42.129615],[-111.248035,42.129632],[-111.248031,42.12861],[-111.243116,42.12858],[-111.243041,42.12178],[-111.233572,42.121822],[-111.233605,42.110501]]]}},{"type":"Feature","properties":{"id":"allot-id04312","kind":"allotment","name":"Merkley Mountain","acres":4449.4,"editable":false,"source":"BLM National Grazing Allotments","allot_no":"ID04312"},"geometry":{"type":"Polygon","coordinates":[[[-111.225412,42.155297],[-111.229683,42.135117],[-111.228248,42.135367],[-111.228346,42.128835],[-111.218493,42.128801],[-111.218328,42.132507],[-111.208654,42.132575],[-111.208691,42.118074],[-111.218357,42.118016],[-111.218819,42.114448],[-111.22839,42.114565],[-111.228235,42.121901],[-111.243041,42.12178],[-111.243116,42.12858],[-111.248031,42.12861],[-111.248035,42.129632],[-111.259633,42.129615],[-111.259467,42.144044],[-111.264571,42.144041],[-111.264663,42.153484],[-111.267184,42.154059],[-111.266929,42.161112],[-111.271836,42.161451],[-111.269668,42.163339],[-111.272898,42.165339],[-111.271971,42.166377],[-111.272465,42.168213],[-111.27673,42.168221],[-111.277582,42.169993],[-111.278537,42.170937],[-111.278973,42.172359],[-111.280022,42.17359],[-111.279379,42.174537],[-111.280705,42.175471],[-111.281669,42.175594],[-111.281721,42.178287],[-111.282616,42.182941],[-111.267259,42.182906],[-111.267128,42.179286],[-111.27307,42.179668],[-111.274769,42.179227],[-111.276917,42.179443],[-111.277222,42.178001],[-111.276921,42.175737],[-111.267033,42.175814],[-111.267109,42.171982],[-111.24803,42.171944],[-111.248062,42.168404],[-111.243339,42.168387],[-111.243461,42.161038],[-111.223223,42.160955],[-111.224011,42.156873],[-111.225412,42.155297]]]}},{"type":"Feature","properties":{"id":"allot-id04295","kind":"allotment","name":"Dry Canyon","acres":858.5,"editable":false,"source":"BLM National Grazing Allotments","allot_no":"ID04295"},"geometry":{"type":"Polygon","coordinates":[[[-111.420415,42.154774],[-111.420343,42.140337],[-111.435018,42.140269],[-111.435111,42.13663],[-111.44449,42.136427],[-111.444536,42.150986],[-111.435162,42.151175],[-111.433752,42.152414],[-111.430424,42.153724],[-111.429696,42.154573],[-111.430133,42.154756],[-111.429984,42.161939],[-111.424992,42.161953],[-111.424965,42.154762],[-111.420415,42.154774]]]}},{"type":"Feature","properties":{"id":"allot-id04313","kind":"allotment","name":"Pine Spring Ridge","acres":1406.3,"editable":false,"source":"BLM National Grazing Allotments","allot_no":"ID04313"},"geometry":{"type":"Polygon","coordinates":[[[-111.203469,42.155916],[-111.203958,42.155708],[-111.203634,42.146682],[-111.209172,42.146654],[-111.208785,42.139915],[-111.218656,42.139864],[-111.218644,42.136307],[-111.222798,42.136317],[-111.229683,42.135117],[-111.225412,42.155297],[-111.224011,42.156873],[-111.222036,42.168269],[-111.203457,42.168214],[-111.203469,42.155916]]]}},{"type":"Feature","properties":{"id":"allot-id04326","kind":"allotment","name":"Pegram","acres":5600.1,"editable":false,"source":"BLM National Grazing Allotments","allot_no":"ID04326"},"geometry":{"type":"MultiPolygon","coordinates":[[[[-111.165292,42.135627],[-111.165272,42.13233],[-111.159279,42.132348],[-111.159324,42.121468],[-111.165079,42.121442],[-111.165063,42.118038],[-111.179765,42.118051],[-111.179666,42.121645],[-111.174662,42.121644],[-111.174522,42.124864],[-111.184147,42.125015],[-111.184122,42.139516],[-111.169133,42.139413],[-111.169052,42.135675],[-111.165292,42.135627]]],[[[-111.14576,42.164843],[-111.150431,42.164819],[-111.150635,42.153948],[-111.153921,42.154011],[-111.157443,42.164539],[-111.165246,42.164551],[-111.165464,42.153873],[-111.16064,42.153898],[-111.159868,42.146739],[-111.164567,42.146642],[-111.164567,42.139428],[-111.169133,42.139413],[-111.169077,42.146438],[-111.170526,42.153848],[-111.18504,42.15378],[-111.185039,42.161066],[-111.190022,42.161031],[-111.189969,42.164697],[-111.185304,42.164749],[-111.184924,42.168064],[-111.175164,42.168215],[-111.175412,42.171912],[-111.165467,42.17194],[-111.165174,42.168428],[-111.160512,42.168471],[-111.160482,42.175414],[-111.165765,42.175641],[-111.166161,42.183017],[-111.1711,42.182946],[-111.17122,42.186499],[-111.145889,42.186561],[-111.146612,42.197625],[-111.146562,42.20854],[-111.135864,42.208634],[-111.135778,42.225],[-111.116301,42.225],[-111.116488,42.215933],[-111.121199,42.215924],[-111.120591,42.179742],[-111.125475,42.179565],[-111.125502,42.175922],[-111.130422,42.175867],[-111.130467,42.168707],[-111.145659,42.168599],[-111.14576,42.164843]],[[-111.125681,42.183348],[-111.130376,42.183252],[-111.130406,42.179605],[-111.125475,42.179565],[-111.125681,42.183348]],[[-111.13007,42.197807],[-111.13613,42.197818],[-111.135694,42.183224],[-111.130376,42.183252],[-111.13007,42.197807]],[[-111.145781,42.175632],[-111.15056,42.175662],[-111.150333,42.168565],[-111.145659,42.168599],[-111.145781,42.175632]]]]}},{"type":"Feature","properties":{"id":"allot-ut00024","kind":"allotment","name":"Three Creeks","acres":84403.4,"editable":false,"source":"BLM National Grazing Allotments","allot_no":"UT00024"},"geometry":{"type":"MultiPolygon","coordinates":[[[[-111.129544,41.773654],[-111.139477,41.77374],[-111.139508,41.771479],[-111.165509,41.76871],[-111.167867,41.769517],[-111.170629,41.769055],[-111.173102,41.770348],[-111.178501,41.77568],[-111.181168,41.776433],[-111.190047,41.777587],[-111.192643,41.778243],[-111.197698,41.78082],[-111.193306,41.781113],[-111.168574,41.792008],[-111.129503,41.792011],[-111.129544,41.773654]]],[[[-111.251735,41.808006],[-111.250029,41.8071],[-111.244724,41.801599],[-111.2424,41.799967],[-111.240347,41.798963],[-111.231299,41.794806],[-111.222987,41.793354],[-111.21643,41.791093],[-111.209764,41.787352],[-111.204706,41.782807],[-111.19839,41.780605],[-111.193376,41.777707],[-111.190786,41.776968],[-111.181513,41.775786],[-111.179463,41.775095],[-111.1782,41.774279],[-111.173621,41.769569],[-111.170714,41.767997],[-111.166923,41.768085],[-111.133328,41.771367],[-111.133243,41.770052],[-111.129808,41.770409],[-111.129679,41.766032],[-111.139484,41.766102],[-111.13953,41.762472],[-111.134315,41.762474],[-111.134337,41.759958],[-111.153387,41.742061],[-111.159157,41.733637],[-111.159647,41.732205],[-111.159533,41.72921],[-111.163944,41.728555],[-111.16646,41.72521],[-111.168924,41.725089],[-111.170917,41.723879],[-111.174573,41.719883],[-111.174363,41.717821],[-111.181636,41.717837],[-111.187106,41.713667],[-111.188155,41.714575],[-111.193324,41.714584],[-111.193322,41.717836],[-111.203024,41.718107],[-111.20724,41.720847],[-111.20713,41.742662],[-111.226169,41.742915],[-111.22673,41.728214],[-111.245753,41.728526],[-111.246087,41.724625],[-111.251076,41.724615],[-111.251086,41.720949],[-111.246133,41.720914],[-111.246226,41.713709],[-111.244105,41.712407],[-111.244355,41.708687],[-111.25097,41.706448],[-111.255866,41.706446],[-111.255859,41.6992],[-111.239956,41.699085],[-111.239982,41.699418],[-111.234391,41.698853],[-111.228869,41.697207],[-111.226375,41.698816],[-111.226558,41.709966],[-111.221726,41.709966],[-111.218318,41.708063],[-111.217173,41.707057],[-111.21152,41.705923],[-111.198987,41.707153],[-111.189344,41.706241],[-111.188444,41.706603],[-111.188494,41.707143],[-111.188214,41.706099],[-111.178072,41.706827],[-111.17795,41.70644],[-111.174188,41.706391],[-111.173931,41.695547],[-111.197462,41.695573],[-111.198568,41.680258],[-111.203845,41.677376],[-111.21268,41.67668],[-111.215763,41.677282],[-111.226852,41.677342],[-111.226816,41.673829],[-111.221961,41.673577],[-111.222008,41.673145],[-111.220733,41.672562],[-111.208762,41.671017],[-111.20792,41.670505],[-111.20781,41.670028],[-111.207389,41.669902],[-111.207558,41.658778],[-111.205663,41.659619],[-111.207426,41.655221],[-111.226943,41.65531],[-111.226989,41.640925],[-111.212254,41.640548],[-111.212682,41.639151],[-111.215289,41.635913],[-111.216511,41.631686],[-111.217228,41.630775],[-111.217345,41.626318],[-111.215823,41.626508],[-111.212501,41.626186],[-111.212876,41.618784],[-111.207976,41.618694],[-111.193713,41.620365],[-111.189355,41.62152],[-111.188971,41.609571],[-111.184712,41.609642],[-111.184294,41.598645],[-111.18724,41.596338],[-111.186827,41.591927],[-111.18968,41.591403],[-111.190961,41.588953],[-111.209274,41.587161],[-111.217828,41.588344],[-111.22878,41.588407],[-111.234716,41.582948],[-111.274281,41.57355],[-111.283969,41.569585],[-111.288779,41.564462],[-111.296945,41.549507],[-111.302476,41.548489],[-111.307546,41.546448],[-111.32173,41.545041],[-111.329913,41.541912],[-111.332143,41.541909],[-111.338968,41.539955],[-111.338839,41.536245],[-111.347275,41.536351],[-111.351834,41.535493],[-111.35551,41.533978],[-111.362001,41.532271],[-111.366084,41.52522],[-111.367227,41.528251],[-111.372746,41.527845],[-111.373478,41.529323],[-111.370935,41.530339],[-111.371227,41.532521],[-111.369354,41.533709],[-111.365418,41.534306],[-111.367815,41.534687],[-111.367477,41.536424],[-111.362775,41.536361],[-111.359243,41.535676],[-111.359972,41.537678],[-111.358024,41.538447],[-111.357948,41.539232],[-111.385302,41.539237],[-111.386733,41.542858],[-111.390197,41.542819],[-111.392797,41.54323],[-111.392758,41.540592],[-111.394451,41.540879],[-111.395684,41.53969],[-111.399244,41.539463],[-111.399008,41.540361],[-111.400187,41.542974],[-111.39729,41.544201],[-111.394927,41.544313],[-111.394963,41.546666],[-111.390925,41.55399],[-111.380725,41.553995],[-111.380833,41.570459],[-111.381072,41.571047],[-111.382895,41.571559],[-111.383212,41.572124],[-111.383715,41.572263],[-111.382796,41.576472],[-111.380495,41.577153],[-111.380898,41.577732],[-111.38027,41.578649],[-111.380357,41.59766],[-111.364063,41.597512],[-111.364487,41.598426],[-111.366079,41.599881],[-111.365767,41.600016],[-111.365821,41.601043],[-111.361167,41.60101],[-111.361479,41.604613],[-111.351529,41.604577],[-111.35177,41.60738],[-111.34679,41.60729],[-111.343286,41.607577],[-111.342302,41.608015],[-111.342172,41.615267],[-111.361359,41.615362],[-111.361176,41.628863],[-111.361819,41.636373],[-111.361822,41.641291],[-111.36038,41.641026],[-111.342308,41.640874],[-111.342665,41.665174],[-111.340529,41.665685],[-111.342956,41.668101],[-111.342681,41.670524],[-111.343429,41.671144],[-111.341473,41.673744],[-111.342731,41.675017],[-111.342754,41.676672],[-111.343448,41.676878],[-111.342758,41.677335],[-111.342787,41.681477],[-111.344833,41.682119],[-111.347632,41.684191],[-111.349256,41.684646],[-111.361925,41.684459],[-111.362066,41.698897],[-111.398201,41.698476],[-111.395075,41.702899],[-111.39604,41.705382],[-111.394981,41.707124],[-111.393216,41.7074],[-111.390707,41.711885],[-111.391699,41.714881],[-111.390881,41.716919],[-111.392089,41.717816],[-111.391069,41.72008],[-111.391443,41.728257],[-111.382597,41.728873],[-111.381447,41.729507],[-111.375382,41.728689],[-111.37074,41.728605],[-111.365164,41.729091],[-111.363917,41.73395],[-111.361796,41.739568],[-111.3595,41.741809],[-111.356965,41.742367],[-111.357322,41.745959],[-111.357427,41.764865],[-111.354714,41.772538],[-111.324369,41.77243],[-111.302104,41.772765],[-111.299167,41.772655],[-111.296087,41.771047],[-111.293709,41.77244],[-111.287202,41.772457],[-111.28611,41.775037],[-111.286148,41.777383],[-111.284051,41.778157],[-111.284138,41.786884],[-111.264534,41.787111],[-111.264636,41.796414],[-111.264298,41.796658],[-111.264199,41.798249],[-111.263548,41.799173],[-111.261877,41.800028],[-111.259834,41.800291],[-111.259161,41.801474],[-111.259166,41.808152],[-111.253749,41.808331],[-111.251735,41.808006]],[[-111.315784,41.567819],[-111.312777,41.568002],[-111.312865,41.570366],[-111.313433,41.57107],[-111.314645,41.574861],[-111.312543,41.581434],[-111.312559,41.582577],[-111.315167,41.58172],[-111.318288,41.581186],[-111.318163,41.56806],[-111.315784,41.567819]],[[-111.32757,41.597207],[-111.322913,41.597051],[-111.322857,41.600675],[-111.332319,41.600816],[-111.332238,41.597434],[-111.341699,41.597574],[-111.341679,41.590138],[-111.327626,41.589878],[-111.327597,41.586252],[-111.322844,41.586181],[-111.322939,41.59337],[-111.327636,41.593483],[-111.32757,41.597207]],[[-111.230021,41.625841],[-111.231979,41.624333],[-111.232047,41.62597],[-111.236945,41.625842],[-111.236899,41.622323],[-111.241808,41.622331],[-111.241786,41.619665],[-111.244187,41.619615],[-111.24416,41.618732],[-111.251266,41.618735],[-111.251149,41.613493],[-111.251556,41.613249],[-111.251237,41.609719],[-111.248885,41.609694],[-111.248884,41.610597],[-111.247671,41.610592],[-111.246427,41.611468],[-111.241367,41.611466],[-111.241638,41.614289],[-111.238299,41.615616],[-111.237899,41.614782],[-111.237183,41.614744],[-111.235369,41.616045],[-111.234379,41.616062],[-111.234411,41.61697],[-111.231711,41.617046],[-111.231761,41.618878],[-111.226201,41.62171],[-111.225997,41.622366],[-111.220605,41.624256],[-111.219986,41.625327],[-111.219279,41.625619],[-111.21827,41.625563],[-111.217494,41.62615],[-111.217397,41.630424],[-111.219087,41.630204],[-111.221351,41.628704],[-111.227128,41.627041],[-111.230021,41.625841]],[[-111.265556,41.611587],[-111.265583,41.60929],[-111.267825,41.608898],[-111.272376,41.609256],[-111.275359,41.608015],[-111.278442,41.607873],[-111.282624,41.606394],[-111.284532,41.606256],[-111.284498,41.604112],[-111.293824,41.604233],[-111.293831,41.600549],[-111.298667,41.60059],[-111.298688,41.597303],[-111.29943,41.596958],[-111.303594,41.59693],[-111.303606,41.589724],[-111.298801,41.589718],[-111.298733,41.593345],[-111.289027,41.593274],[-111.289012,41.600491],[-111.274697,41.600466],[-111.271404,41.60148],[-111.267825,41.604526],[-111.263763,41.605827],[-111.264872,41.608003],[-111.260744,41.608001],[-111.260779,41.611562],[-111.265556,41.611587]],[[-111.170756,41.732862],[-111.171709,41.747975],[-111.191656,41.747949],[-111.191179,41.732989],[-111.170756,41.732862]],[[-111.328603,41.743919],[-111.327808,41.750063],[-111.31122,41.750345],[-111.306095,41.752637],[-111.306176,41.75478],[-111.303776,41.755814],[-111.303502,41.758073],[-111.303765,41.758642],[-111.318097,41.758277],[-111.318285,41.761508],[-111.321951,41.761459],[-111.321999,41.761998],[-111.327601,41.76208],[-111.333121,41.761695],[-111.332815,41.749005],[-111.333103,41.748923],[-111.333193,41.743087],[-111.328603,41.743919]],[[-111.260616,41.681251],[-111.262129,41.681167],[-111.261838,41.677429],[-111.265454,41.67743],[-111.265434,41.666684],[-111.266632,41.665916],[-111.268831,41.663137],[-111.271231,41.662627],[-111.270617,41.65953],[-111.268252,41.65958],[-111.266508,41.662079],[-111.261229,41.666361],[-111.256887,41.668154],[-111.252435,41.672289],[-111.248249,41.673974],[-111.245726,41.67406],[-111.244511,41.673675],[-111.231116,41.673559],[-111.231166,41.67409],[-111.230446,41.674272],[-111.230258,41.677237],[-111.231622,41.677269],[-111.231795,41.678656],[-111.233912,41.679453],[-111.238581,41.684587],[-111.246032,41.68512],[-111.246108,41.695442],[-111.260782,41.695608],[-111.260616,41.681251]]]]}},{"type":"Feature","properties":{"id":"allot-ut04011","kind":"allotment","name":"Laketown","acres":7883.1,"editable":false,"source":"BLM National Grazing Allotments","allot_no":"UT04011"},"geometry":{"type":"Polygon","coordinates":[[[-111.303809,41.823687],[-111.30178,41.824301],[-111.297037,41.823804],[-111.29709,41.824083],[-111.29303,41.824847],[-111.291578,41.822742],[-111.288765,41.820814],[-111.287404,41.820429],[-111.283701,41.820211],[-111.28108,41.818716],[-111.277911,41.818114],[-111.275103,41.816233],[-111.271004,41.815336],[-111.270449,41.81435],[-111.274556,41.809945],[-111.275148,41.806674],[-111.276432,41.806351],[-111.277118,41.808317],[-111.277871,41.808883],[-111.279597,41.809307],[-111.282215,41.809071],[-111.282965,41.807718],[-111.283491,41.804213],[-111.283334,41.801543],[-111.28288,41.800679],[-111.278319,41.798042],[-111.274153,41.79277],[-111.272593,41.789481],[-111.272126,41.787024],[-111.284138,41.786884],[-111.284051,41.778157],[-111.286148,41.777383],[-111.28611,41.775037],[-111.287202,41.772457],[-111.293709,41.77244],[-111.296087,41.771047],[-111.299167,41.772655],[-111.302104,41.772765],[-111.324369,41.77243],[-111.354069,41.772515],[-111.351596,41.775589],[-111.346616,41.780445],[-111.347217,41.783217],[-111.349375,41.785553],[-111.350348,41.78727],[-111.350605,41.788368],[-111.350328,41.790112],[-111.351932,41.791994],[-111.355924,41.794949],[-111.356003,41.795737],[-111.35507,41.799761],[-111.354099,41.801985],[-111.349093,41.809341],[-111.34846,41.815972],[-111.348972,41.817816],[-111.3485,41.82102],[-111.347596,41.822432],[-111.343202,41.824909],[-111.338911,41.824998],[-111.335386,41.824324],[-111.334123,41.823652],[-111.332734,41.821013],[-111.334137,41.81773],[-111.332995,41.815549],[-111.331966,41.814818],[-111.331614,41.813027],[-111.330677,41.812931],[-111.322989,41.816938],[-111.321038,41.816574],[-111.319723,41.816839],[-111.316447,41.816272],[-111.315807,41.815477],[-111.315745,41.812748],[-111.311551,41.812674],[-111.311457,41.815403],[-111.312471,41.815612],[-111.313496,41.816285],[-111.313671,41.817153],[-111.314473,41.818236],[-111.314515,41.823231],[-111.314242,41.824749],[-111.313627,41.824994],[-111.31175,41.824459],[-111.312239,41.825376],[-111.309774,41.824685],[-111.303809,41.823687]]]}},{"type":"Feature","properties":{"id":"allot-id14139","kind":"allotment","name":"Montpelier Canyon-1","acres":575.8,"editable":false,"source":"BLM National Grazing Allotments","allot_no":"ID14139"},"geometry":{"type":"Polygon","coordinates":[[[-111.262967,42.320775],[-111.26295,42.302794],[-111.272764,42.302712],[-111.272797,42.306315],[-111.267863,42.30643],[-111.267835,42.313675],[-111.272814,42.313727],[-111.272703,42.317077],[-111.267853,42.317179],[-111.267884,42.32084],[-111.272788,42.321031],[-111.272778,42.324629],[-111.267911,42.324618],[-111.267935,42.328247],[-111.252822,42.328408],[-111.252929,42.320811],[-111.262967,42.320775]]]}}]}