{"type":"FeatureCollection","features":[{"type":"Feature","properties":{"id":"own-b-blm","kind":"ownership","name":"BLM","acres":21797.7,"editable":false,"source":"BLM Surface Management Agency"},"geometry":{"type":"MultiPolygon","coordinates":[[[[-111.155054,42.106912],[-111.159933,42.106961],[-111.159867,42.121413],[-111.150131,42.121352],[-111.15,42.124984],[-111.150166,42.10324],[-111.155052,42.103295],[-111.155054,42.106912]]],[[[-111.154846,42.051801],[-111.15,42.051791],[-111.15,42.044694],[-111.154707,42.04467],[-111.154846,42.051801]]],[[[-111.169268,42.135878],[-111.16444,42.135877],[-111.164527,42.132269],[-111.15969,42.132261],[-111.159846,42.12503],[-111.174419,42.12508],[-111.174461,42.121494],[-111.179337,42.121514],[-111.179391,42.117946],[-111.174504,42.117908],[-111.174546,42.114299],[-111.179446,42.114334],[-111.179502,42.110722],[-111.169676,42.11066],[-111.169725,42.09986],[-111.159942,42.099739],[-111.160171,42.088905],[-111.155154,42.088828],[-111.155166,42.07433],[-111.15013,42.074224],[-111.150135,42.070583],[-111.160102,42.070812],[-111.160301,42.078016],[-111.170047,42.078243],[-111.169621,42.055445],[-111.179427,42.055378],[-111.179567,42.058983],[-111.184487,42.058944],[-111.184705,42.070783],[-111.174866,42.070923],[-111.174917,42.085377],[-111.189624,42.085279],[-111.189543,42.088922],[-111.194431,42.08894],[-111.194277,42.099854],[-111.199187,42.099856],[-111.198984,42.110661],[-111.189327,42.110783],[-111.189015,42.125116],[-111.208609,42.125197],[-111.20891,42.146704],[-111.193806,42.146875],[-111.194382,42.15],[-111.160315,42.15],[-111.160081,42.146849],[-111.164613,42.146763],[-111.164353,42.139485],[-111.169172,42.139478],[-111.169268,42.135878]]],[[[-111.245351,41.856881],[-111.240458,41.856851],[-111.240441,41.860444],[-111.230629,41.860392],[-111.230594,41.864001],[-111.235509,41.864035],[-111.235484,41.867653],[-111.240409,41.867694],[-111.240425,41.864069],[-111.245341,41.864103],[-111.24532,41.875002],[-111.220682,41.874673],[-111.220759,41.878278],[-111.211,41.878111],[-111.211042,41.881744],[-111.206145,41.881675],[-111.206097,41.874378],[-111.210958,41.874477],[-111.211055,41.86729],[-111.215914,41.867383],[-111.215961,41.863787],[-111.211103,41.863696],[-111.211151,41.860102],[-111.206293,41.860015],[-111.206332,41.856413],[-111.196733,41.856854],[-111.196603,41.871398],[-111.191762,41.871708],[-111.191797,41.868059],[-111.186953,41.868349],[-111.187019,41.861012],[-111.182097,41.86099],[-111.181995,41.868347],[-111.167121,41.86834],[-111.16733,41.860925],[-111.152878,41.861005],[-111.152956,41.853558],[-111.187043,41.853587],[-111.196749,41.853198],[-111.196763,41.85],[-111.235624,41.85],[-111.235597,41.853226],[-111.245354,41.853293],[-111.245351,41.856881]],[[-111.216008,41.86019],[-111.216057,41.856588],[-111.211194,41.8565],[-111.211151,41.860102],[-111.216008,41.86019]]],[[[-111.169586,42.121474],[-111.164727,42.121443],[-111.164752,42.117833],[-111.169616,42.117869],[-111.169586,42.121474]]],[[[-111.218048,42.001383],[-111.218051,42.004976],[-111.198348,42.004987],[-111.198316,42.008581],[-111.193393,42.008582],[-111.193425,42.004987],[-111.178697,42.005012],[-111.178709,42.001411],[-111.218048,42.001383]]],[[[-111.198009,42.026523],[-111.193117,42.026537],[-111.193188,42.022949],[-111.19809,42.022939],[-111.198009,42.026523]]],[[[-111.225707,41.900065],[-111.22564,41.903572],[-111.220785,41.903558],[-111.220835,41.900019],[-111.225707,41.900065]]],[[[-111.215962,41.899972],[-111.216026,41.892692],[-111.220939,41.892734],[-111.220991,41.889091],[-111.225923,41.889132],[-111.225779,41.896421],[-111.220887,41.896376],[-111.220835,41.900019],[-111.215962,41.899972]]],[[[-111.211114,41.892649],[-111.211089,41.899925],[-111.206215,41.899878],[-111.206222,41.903514],[-111.196771,41.903605],[-111.196703,41.897091],[-111.206208,41.896243],[-111.206194,41.888971],[-111.216058,41.889051],[-111.216026,41.892692],[-111.211114,41.892649]]],[[[-111.2029,42.02651],[-111.202993,42.022929],[-111.207895,42.022919],[-111.207792,42.026496],[-111.2029,42.02651]]],[[[-111.203827,42.055285],[-111.203577,42.051676],[-111.208416,42.051662],[-111.208692,42.055276],[-111.203827,42.055285]]],[[[-111.248007,42.139481],[-111.243155,42.139604],[-111.243142,42.135986],[-111.238154,42.1361],[-111.238163,42.139731],[-111.228177,42.139983],[-111.228394,42.121702],[-111.233291,42.12162],[-111.233365,42.114309],[-111.228422,42.114448],[-111.228448,42.107164],[-111.223651,42.107157],[-111.223765,42.103477],[-111.228492,42.103476],[-111.228786,42.099791],[-111.209077,42.099858],[-111.209133,42.092616],[-111.214218,42.092579],[-111.214271,42.096159],[-111.21941,42.09608],[-111.219303,42.092543],[-111.228854,42.092561],[-111.229079,42.096106],[-111.233936,42.096105],[-111.233589,42.081725],[-111.22385,42.08172],[-111.223862,42.078091],[-111.218972,42.07808],[-111.218973,42.074463],[-111.238474,42.07445],[-111.238487,42.070852],[-111.218974,42.070835],[-111.218975,42.067206],[-111.209166,42.067183],[-111.208968,42.05889],[-111.228638,42.058996],[-111.228193,42.044551],[-111.207865,42.044434],[-111.207688,42.030073],[-111.247923,42.030059],[-111.247969,42.070828],[-111.243224,42.07084],[-111.243394,42.099735],[-111.247985,42.099717],[-111.247965,42.100705],[-111.254729,42.100723],[-111.254727,42.097118],[-111.259574,42.097128],[-111.259606,42.104343],[-111.254731,42.104327],[-111.254767,42.107939],[-111.259622,42.107966],[-111.259466,42.144167],[-111.264309,42.144168],[-111.264342,42.15],[-111.250962,42.15],[-111.252132,42.14048],[-111.253415,42.136471],[-111.257264,42.116048],[-111.259603,42.108016],[-111.257393,42.107993],[-111.255053,42.116025],[-111.253805,42.124215],[-111.251204,42.136448],[-111.249921,42.140458],[-111.24875,42.15],[-111.247997,42.15],[-111.248007,42.139481]]],[[[-111.22298,42.026513],[-111.217917,42.026507],[-111.217965,42.022924],[-111.222999,42.022926],[-111.22298,42.026513]]],[[[-111.21293,42.022922],[-111.213081,42.015761],[-111.21806,42.015757],[-111.217965,42.022924],[-111.21293,42.022922]]],[[[-111.215939,41.881814],[-111.220836,41.881883],[-111.220913,41.885487],[-111.215999,41.885432],[-111.215939,41.881814]]],[[[-111.239436,41.932692],[-111.234618,41.932637],[-111.234642,41.925356],[-111.22496,41.925249],[-111.224938,41.917972],[-111.229802,41.918023],[-111.229801,41.921663],[-111.239506,41.921767],[-111.239436,41.932692]]],[[[-111.23496,41.910861],[-111.235107,41.907254],[-111.244749,41.907335],[-111.24463,41.910949],[-111.23496,41.910861]]],[[[-111.234813,41.914468],[-111.225114,41.914372],[-111.225289,41.910772],[-111.23496,41.910861],[-111.234813,41.914468]]],[[[-111.293654,41.868064],[-111.293468,41.875454],[-111.274429,41.875266],[-111.274566,41.864352],[-111.269775,41.864316],[-111.26993,41.85],[-111.289178,41.85],[-111.288879,41.868065],[-111.293654,41.868064]]],[[[-111.424609,42.058581],[-111.424736,42.029509],[-111.439296,42.029498],[-111.43934,42.068131],[-111.444203,42.068144],[-111.444268,42.082586],[-111.425025,42.082647],[-111.424692,42.0681],[-111.410058,42.068074],[-111.41006,42.065806],[-111.414935,42.065809],[-111.414932,42.06219],[-111.405218,42.062182],[-111.40525,42.058562],[-111.424609,42.058581]]],[[[-111.414981,42.047677],[-111.419821,42.04768],[-111.41979,42.054945],[-111.414947,42.05494],[-111.414981,42.047677]]],[[[-111.429806,42.147639],[-111.429815,42.15],[-111.42003,42.15],[-111.419976,42.14044],[-111.424882,42.140416],[-111.424913,42.147675],[-111.429806,42.147639]]],[[[-111.444363,42.111428],[-111.424907,42.111466],[-111.424914,42.107856],[-111.434636,42.107834],[-111.434637,42.10422],[-111.439511,42.104207],[-111.439491,42.096971],[-111.45,42.096958],[-111.45,42.107819],[-111.444445,42.107811],[-111.444363,42.111428]]]]}},{"type":"Feature","properties":{"id":"own-b-state","kind":"ownership","name":"State","acres":55694.5,"editable":false,"source":"BLM Surface Management Agency"},"geometry":{"type":"MultiPolygon","coordinates":[[[[-111.176707,41.976538],[-111.176792,41.980165],[-111.181656,41.980078],[-111.181854,41.987348],[-111.176962,41.987418],[-111.177042,41.990817],[-111.157404,41.991327],[-111.157369,41.987738],[-111.152464,41.987827],[-111.152395,41.977051],[-111.176707,41.976538]]],[[[-111.18691,41.921983],[-111.210666,41.921568],[-111.210693,41.917945],[-111.224938,41.917972],[-111.22496,41.925249],[-111.220186,41.92523],[-111.220183,41.932497],[-111.224981,41.932526],[-111.224944,41.939783],[-111.220145,41.939747],[-111.220126,41.943372],[-111.210527,41.943294],[-111.210546,41.939676],[-111.205747,41.93964],[-111.205767,41.936025],[-111.191666,41.936333],[-111.191673,41.932719],[-111.186806,41.932826],[-111.186841,41.929212],[-111.19171,41.929104],[-111.191747,41.925489],[-111.181933,41.925729],[-111.181989,41.918466],[-111.186945,41.918369],[-111.18691,41.921983]]],[[[-111.186885,41.907361],[-111.201685,41.907177],[-111.201724,41.903561],[-111.206222,41.903514],[-111.205945,41.917936],[-111.186945,41.918369],[-111.186885,41.907361]]],[[[-111.186801,41.936439],[-111.181877,41.936602],[-111.181878,41.932992],[-111.186806,41.932826],[-111.186801,41.936439]]],[[[-111.181875,41.943821],[-111.176957,41.943975],[-111.176952,41.936764],[-111.181877,41.936602],[-111.181875,41.943821]]],[[[-111.176901,41.965627],[-111.172008,41.965755],[-111.172048,41.951331],[-111.167136,41.951478],[-111.167122,41.944283],[-111.176957,41.943975],[-111.176901,41.965627]]],[[[-111.171957,41.969381],[-111.167079,41.969498],[-111.167115,41.965883],[-111.172008,41.965755],[-111.171957,41.969381]]],[[[-111.365956,41.861738],[-111.367814,41.861728],[-111.36733,41.879782],[-111.372176,41.879771],[-111.372221,41.876146],[-111.377049,41.876124],[-111.37693,41.88705],[-111.367055,41.88706],[-111.367,41.895815],[-111.368139,41.898303],[-111.369762,41.900216],[-111.370071,41.902655],[-111.369578,41.905898],[-111.371428,41.907189],[-111.373219,41.907766],[-111.374537,41.907261],[-111.381663,41.909558],[-111.387273,41.912044],[-111.390465,41.914399],[-111.391767,41.916211],[-111.39161,41.919827],[-111.392835,41.920413],[-111.395755,41.924396],[-111.395748,41.928642],[-111.393897,41.935257],[-111.390479,41.941092],[-111.390897,41.949731],[-111.394509,41.954449],[-111.400324,41.959166],[-111.400058,41.96454],[-111.404902,41.964617],[-111.404895,41.966474],[-111.399995,41.966473],[-111.399958,41.967578],[-111.401972,41.969381],[-111.402965,41.977846],[-111.403763,41.979402],[-111.407527,41.982737],[-111.409527,41.98512],[-111.410644,41.989493],[-111.410934,41.993992],[-111.4083,42.000709],[-111.18721,42.001386],[-111.186846,41.990554],[-111.191661,41.990463],[-111.191576,41.987107],[-111.205759,41.986607],[-111.205723,41.98302],[-111.191484,41.983478],[-111.191391,41.979849],[-111.186521,41.97999],[-111.186686,41.96537],[-111.196419,41.965169],[-111.196342,41.96881],[-111.191468,41.96892],[-111.191298,41.976219],[-111.20108,41.975964],[-111.201148,41.972333],[-111.205654,41.972223],[-111.205657,41.9686],[-111.21045,41.968632],[-111.210469,41.961393],[-111.224889,41.961512],[-111.224897,41.954276],[-111.220094,41.954235],[-111.220107,41.946997],[-111.224906,41.947039],[-111.224925,41.943411],[-111.229735,41.94348],[-111.229756,41.939848],[-111.234569,41.939912],[-111.234545,41.943549],[-111.239354,41.943618],[-111.239382,41.939976],[-111.244194,41.940041],[-111.244224,41.936394],[-111.234593,41.936275],[-111.234618,41.932637],[-111.239436,41.932692],[-111.239506,41.921767],[-111.253976,41.921935],[-111.253928,41.925582],[-111.263534,41.9257],[-111.268375,41.925706],[-111.268425,41.922062],[-111.278085,41.922084],[-111.278058,41.925717],[-111.2829,41.925722],[-111.282884,41.929349],[-111.285529,41.929349],[-111.288869,41.925361],[-111.289087,41.914488],[-111.285734,41.90786],[-111.283985,41.901004],[-111.284851,41.899015],[-111.283881,41.897106],[-111.283922,41.895753],[-111.284835,41.894065],[-111.28956,41.889754],[-111.279424,41.889717],[-111.278259,41.903936],[-111.278185,41.911194],[-111.28298,41.911213],[-111.28293,41.918468],[-111.249208,41.918233],[-111.249316,41.914615],[-111.258924,41.914718],[-111.259009,41.91109],[-111.254216,41.911043],[-111.254407,41.903797],[-111.249638,41.903759],[-111.249423,41.910996],[-111.24463,41.910949],[-111.244947,41.90027],[-111.254576,41.90034],[-111.254752,41.89673],[-111.259612,41.89677],[-111.260054,41.889561],[-111.265005,41.889614],[-111.26484,41.875183],[-111.293468,41.875454],[-111.293561,41.871759],[-111.29564,41.871759],[-111.296026,41.867517],[-111.295888,41.855366],[-111.297054,41.853247],[-111.29895,41.851103],[-111.301066,41.85],[-111.355714,41.85],[-111.360964,41.852399],[-111.363114,41.854108],[-111.365956,41.861738]],[[-111.239298,41.950889],[-111.244096,41.950966],[-111.244164,41.943687],[-111.239354,41.943618],[-111.239298,41.950889]],[[-111.224734,41.983156],[-111.224751,41.97955],[-111.219985,41.979521],[-111.219982,41.983122],[-111.224734,41.983156]],[[-111.265801,41.984384],[-111.238996,41.983408],[-111.23895,41.987007],[-111.257971,41.987781],[-111.25782,41.990936],[-111.262548,41.991004],[-111.262711,41.994714],[-111.26072,41.998077],[-111.262861,41.998133],[-111.262869,41.999272],[-111.265636,41.996005],[-111.270562,41.992681],[-111.273513,41.988211],[-111.271005,41.976901],[-111.267401,41.976906],[-111.266519,41.982607],[-111.265801,41.984384]],[[-111.270101,41.882164],[-111.269836,41.882107],[-111.269756,41.882279],[-111.270101,41.882164]],[[-111.270285,41.882043],[-111.270218,41.882226],[-111.270457,41.882315],[-111.270285,41.882043]],[[-111.270371,41.881528],[-111.270446,41.88138],[-111.270308,41.881341],[-111.270371,41.881528]]],[[[-111.201217,41.9687],[-111.201354,41.961435],[-111.205663,41.961353],[-111.205657,41.9686],[-111.201217,41.9687]]],[[[-111.208609,42.125197],[-111.189015,42.125116],[-111.189327,42.110783],[-111.208917,42.110807],[-111.208609,42.125197]]],[[[-111.196501,41.950684],[-111.191643,41.950786],[-111.191645,41.947175],[-111.196503,41.94707],[-111.196501,41.950684]]],[[[-111.20617,41.885323],[-111.211084,41.885378],[-111.211126,41.889011],[-111.206194,41.888971],[-111.20617,41.885323]]],[[[-111.225289,41.910772],[-111.22564,41.903572],[-111.235254,41.903646],[-111.23496,41.910861],[-111.225289,41.910772]]],[[[-111.240382,41.889335],[-111.225923,41.889132],[-111.225828,41.885542],[-111.240381,41.885738],[-111.240382,41.889335]]],[[[-111.234653,41.921715],[-111.229801,41.921663],[-111.229802,41.918023],[-111.234665,41.918074],[-111.234653,41.921715]]],[[[-111.244511,41.914563],[-111.244392,41.918177],[-111.239529,41.918126],[-111.239662,41.914515],[-111.244511,41.914563]]],[[[-111.25997,42.004842],[-111.260585,42.01053],[-111.260027,42.018843],[-111.259074,42.021032],[-111.258586,42.02411],[-111.259099,42.026177],[-111.258847,42.033985],[-111.25278,42.033985],[-111.25278,42.03761],[-111.247922,42.03761],[-111.247908,42.001371],[-111.261649,42.001308],[-111.25997,42.004842]]],[[[-111.388621,42.113467],[-111.387398,42.113437],[-111.387453,42.112092],[-111.388674,42.112106],[-111.388621,42.113467]]],[[[-111.424159,41.986409],[-111.42346,41.985866],[-111.422739,41.986149],[-111.422653,41.9858],[-111.424001,41.985325],[-111.424159,41.986409]]],[[[-111.424226,41.982964],[-111.424333,41.975735],[-111.42925,41.975711],[-111.429214,41.979362],[-111.439738,41.979312],[-111.439594,42.000395],[-111.429098,42.000556],[-111.428826,41.994001],[-111.42396,41.994026],[-111.42414,41.986543],[-111.426582,41.986523],[-111.426673,41.982948],[-111.424226,41.982964]]],[[[-111.424861,42.125931],[-111.424907,42.111466],[-111.444363,42.111428],[-111.444242,42.125884],[-111.424861,42.125931]]],[[[-111.449196,41.936245],[-111.439635,41.936292],[-111.439527,41.921703],[-111.449108,41.921878],[-111.449196,41.936245]]]]}},{"type":"Feature","properties":{"id":"own-b-usfs","kind":"ownership","name":"USFS","acres":5723.4,"editable":false,"source":"BLM Surface Management Agency"},"geometry":{"type":"MultiPolygon","coordinates":[[[[-111.444203,42.068144],[-111.43934,42.068131],[-111.439553,42.000402],[-111.45,42.000197],[-111.45,42.096958],[-111.444344,42.096953],[-111.444203,42.068144]]],[[[-111.439594,42.000395],[-111.439635,41.936292],[-111.449196,41.936245],[-111.449108,41.921878],[-111.439527,41.921703],[-111.438875,41.909277],[-111.439683,41.909282],[-111.440211,41.85],[-111.45,41.85],[-111.45,42.000189],[-111.439594,42.000395]]],[[[-111.444374,42.107811],[-111.448445,42.107817],[-111.448535,42.111864],[-111.45,42.11197],[-111.45,42.15],[-111.444471,42.15],[-111.444374,42.107811]]],[[[-111.449361,42.107818],[-111.45,42.107819],[-111.45,42.107864],[-111.449361,42.107818]]]]}},{"type":"Feature","properties":{"id":"own-b-usfws","kind":"ownership","name":"USFWS","acres":6600.2,"editable":false,"source":"BLM Surface Management Agency"},"geometry":{"type":"Polygon","coordinates":[[[-111.264309,42.144168],[-111.259466,42.144167],[-111.259612,42.115196],[-111.264839,42.115197],[-111.265175,42.113309],[-111.264766,42.112461],[-111.26521,42.11158],[-111.2662,42.110379],[-111.267633,42.110238],[-111.274044,42.113557],[-111.274044,42.114184],[-111.276884,42.115631],[-111.28859,42.118987],[-111.294972,42.120161],[-111.309476,42.122119],[-111.320604,42.122758],[-111.322242,42.123094],[-111.322727,42.124114],[-111.324325,42.124545],[-111.32582,42.123865],[-111.327493,42.124397],[-111.328815,42.123598],[-111.330457,42.123256],[-111.331524,42.123996],[-111.333468,42.122905],[-111.337347,42.122652],[-111.338303,42.123911],[-111.34166,42.123469],[-111.342488,42.124975],[-111.343528,42.124159],[-111.344731,42.12404],[-111.347782,42.125818],[-111.349301,42.124642],[-111.35091,42.124228],[-111.351071,42.125994],[-111.350238,42.126369],[-111.349725,42.128136],[-111.351147,42.127901],[-111.353657,42.12931],[-111.353444,42.130201],[-111.355285,42.130658],[-111.356296,42.133068],[-111.360477,42.133959],[-111.359661,42.136043],[-111.361402,42.137297],[-111.360833,42.139425],[-111.358853,42.14045],[-111.359028,42.14318],[-111.361206,42.143326],[-111.361451,42.144074],[-111.366241,42.144072],[-111.366206,42.15],[-111.264342,42.15],[-111.264309,42.144168]]]}}]}