{"type":"FeatureCollection","features":[{"type":"Feature","properties":{"id":"spr-b1","kind":"spring","name":"Spring","acres":null,"editable":false,"source":"USGS 3DHP hydrolocations"},"geometry":{"type":"Point","coordinates":[-111.165044,41.851517]}},{"type":"Feature","properties":{"id":"spr-b2","kind":"spring","name":"Spring","acres":null,"editable":false,"source":"USGS 3DHP hydrolocations"},"geometry":{"type":"Point","coordinates":[-111.242436,41.863677]}},{"type":"Feature","properties":{"id":"spr-b3","kind":"spring","name":"Spring","acres":null,"editable":false,"source":"USGS 3DHP hydrolocations"},"geometry":{"type":"Point","coordinates":[-111.236908,41.867743]}},{"type":"Feature","properties":{"id":"spr-b4","kind":"spring","name":"Spring","acres":null,"editable":false,"source":"USGS 3DHP hydrolocations"},"geometry":{"type":"Point","coordinates":[-111.187398,41.870258]}},{"type":"Feature","properties":{"id":"spr-b5","kind":"spring","name":"Spring","acres":null,"editable":false,"source":"USGS 3DHP hydrolocations"},"geometry":{"type":"Point","coordinates":[-111.152633,41.865471]}},{"type":"Feature","properties":{"id":"spr-b6","kind":"spring","name":"Spring","acres":null,"editable":false,"source":"USGS 3DHP hydrolocations"},"geometry":{"type":"Point","coordinates":[-111.152417,41.870423]}},{"type":"Feature","properties":{"id":"spr-b7","kind":"spring","name":"Shirley Spring","acres":null,"editable":false,"source":"USGS 3DHP hydrolocations"},"geometry":{"type":"Point","coordinates":[-111.177587,41.894641]}},{"type":"Feature","properties":{"id":"spr-b8","kind":"spring","name":"Spring","acres":null,"editable":false,"source":"USGS 3DHP hydrolocations"},"geometry":{"type":"Point","coordinates":[-111.153753,41.884248]}},{"type":"Feature","properties":{"id":"spr-b9","kind":"spring","name":"Spring","acres":null,"editable":false,"source":"USGS 3DHP hydrolocations"},"geometry":{"type":"Point","coordinates":[-111.157057,41.889849]}},{"type":"Feature","properties":{"id":"spr-b10","kind":"spring","name":"Spring","acres":null,"editable":false,"source":"USGS 3DHP hydrolocations"},"geometry":{"type":"Point","coordinates":[-111.158269,41.89069]}},{"type":"Feature","properties":{"id":"spr-b11","kind":"spring","name":"Spring","acres":null,"editable":false,"source":"USGS 3DHP hydrolocations"},"geometry":{"type":"Point","coordinates":[-111.161911,41.897757]}},{"type":"Feature","properties":{"id":"spr-b12","kind":"spring","name":"Spring","acres":null,"editable":false,"source":"USGS 3DHP hydrolocations"},"geometry":{"type":"Point","coordinates":[-111.180212,41.881875]}},{"type":"Feature","properties":{"id":"spr-b13","kind":"spring","name":"Spring","acres":null,"editable":false,"source":"USGS 3DHP hydrolocations"},"geometry":{"type":"Point","coordinates":[-111.180294,42.112195]}},{"type":"Feature","properties":{"id":"spr-b14","kind":"spring","name":"Spring","acres":null,"editable":false,"source":"USGS 3DHP hydrolocations"},"geometry":{"type":"Point","coordinates":[-111.181902,42.104239]}},{"type":"Feature","properties":{"id":"spr-b15","kind":"spring","name":"Spring","acres":null,"editable":false,"source":"USGS 3DHP hydrolocations"},"geometry":{"type":"Point","coordinates":[-111.193872,42.057813]}},{"type":"Feature","properties":{"id":"spr-b16","kind":"spring","name":"Spring","acres":null,"editable":false,"source":"USGS 3DHP hydrolocations"},"geometry":{"type":"Point","coordinates":[-111.264307,42.114714]}},{"type":"Feature","properties":{"id":"spr-b17","kind":"spring","name":"Spring","acres":null,"editable":false,"source":"USGS 3DHP hydrolocations"},"geometry":{"type":"Point","coordinates":[-111.251131,42.07531]}},{"type":"Feature","properties":{"id":"spr-b18","kind":"spring","name":"Spring","acres":null,"editable":false,"source":"USGS 3DHP hydrolocations"},"geometry":{"type":"Point","coordinates":[-111.442547,41.886985]}},{"type":"Feature","properties":{"id":"spr-b19","kind":"spring","name":"Spring","acres":null,"editable":false,"source":"USGS 3DHP hydrolocations"},"geometry":{"type":"Point","coordinates":[-111.390137,41.85453]}},{"type":"Feature","properties":{"id":"spr-b20","kind":"spring","name":"Spring","acres":null,"editable":false,"source":"USGS 3DHP hydrolocations"},"geometry":{"type":"Point","coordinates":[-111.404184,42.145342]}},{"type":"Feature","properties":{"id":"spr-b21","kind":"spring","name":"Spring","acres":null,"editable":false,"source":"USGS 3DHP hydrolocations"},"geometry":{"type":"Point","coordinates":[-111.207642,42.01167]}},{"type":"Feature","properties":{"id":"spr-b22","kind":"spring","name":"Spring","acres":null,"editable":false,"source":"USGS 3DHP hydrolocations"},"geometry":{"type":"Point","coordinates":[-111.249595,42.037663]}},{"type":"Feature","properties":{"id":"spr-b23","kind":"spring","name":"Spring","acres":null,"editable":false,"source":"USGS 3DHP hydrolocations"},"geometry":{"type":"Point","coordinates":[-111.225252,42.06165]}},{"type":"Feature","properties":{"id":"spr-b24","kind":"spring","name":"Dune Spring","acres":null,"editable":false,"source":"USGS 3DHP hydrolocations"},"geometry":{"type":"Point","coordinates":[-111.44502,42.088768]}},{"type":"Feature","properties":{"id":"spr-b25","kind":"spring","name":"Spring","acres":null,"editable":false,"source":"USGS 3DHP hydrolocations"},"geometry":{"type":"Point","coordinates":[-111.442844,42.063535]}},{"type":"Feature","properties":{"id":"spr-b26","kind":"spring","name":"Sherma Spring","acres":null,"editable":false,"source":"USGS 3DHP hydrolocations"},"geometry":{"type":"Point","coordinates":[-111.44612,42.099068]}},{"type":"Feature","properties":{"id":"spr-b27","kind":"spring","name":"Spring","acres":null,"editable":false,"source":"USGS 3DHP hydrolocations"},"geometry":{"type":"Point","coordinates":[-111.210489,41.961128]}},{"type":"Feature","properties":{"id":"spr-b28","kind":"spring","name":"Spring","acres":null,"editable":false,"source":"USGS 3DHP hydrolocations"},"geometry":{"type":"Point","coordinates":[-111.190184,41.925849]}},{"type":"Feature","properties":{"id":"spr-b29","kind":"spring","name":"Spring","acres":null,"editable":false,"source":"USGS 3DHP hydrolocations"},"geometry":{"type":"Point","coordinates":[-111.182583,41.911491]}},{"type":"Feature","properties":{"id":"spr-b30","kind":"spring","name":"Cottonwood Spring","acres":null,"editable":false,"source":"USGS 3DHP hydrolocations"},"geometry":{"type":"Point","coordinates":[-111.239545,41.885377]}},{"type":"Feature","properties":{"id":"spr-b31","kind":"spring","name":"Spring","acres":null,"editable":false,"source":"USGS 3DHP hydrolocations"},"geometry":{"type":"Point","coordinates":[-111.176082,41.964699]}},{"type":"Feature","properties":{"id":"spr-b32","kind":"spring","name":"Spring","acres":null,"editable":false,"source":"USGS 3DHP hydrolocations"},"geometry":{"type":"Point","coordinates":[-111.169005,41.962716]}},{"type":"Feature","properties":{"id":"spr-b33","kind":"spring","name":"Spring","acres":null,"editable":false,"source":"USGS 3DHP hydrolocations"},"geometry":{"type":"Point","coordinates":[-111.152398,41.970141]}},{"type":"Feature","properties":{"id":"spr-b34","kind":"spring","name":"Spring","acres":null,"editable":false,"source":"USGS 3DHP hydrolocations"},"geometry":{"type":"Point","coordinates":[-111.220265,41.944775]}},{"type":"Feature","properties":{"id":"spr-b35","kind":"spring","name":"Spring","acres":null,"editable":false,"source":"USGS 3DHP hydrolocations"},"geometry":{"type":"Point","coordinates":[-111.228757,41.918012]}},{"type":"Feature","properties":{"id":"spr-b36","kind":"spring","name":"Spring","acres":null,"editable":false,"source":"USGS 3DHP hydrolocations"},"geometry":{"type":"Point","coordinates":[-111.190228,41.920918]}},{"type":"Feature","properties":{"id":"spr-b37","kind":"spring","name":"Spring","acres":null,"editable":false,"source":"USGS 3DHP hydrolocations"},"geometry":{"type":"Point","coordinates":[-111.220508,41.887641]}},{"type":"Feature","properties":{"id":"spr-b38","kind":"spring","name":"Spring","acres":null,"editable":false,"source":"USGS 3DHP hydrolocations"},"geometry":{"type":"Point","coordinates":[-111.428362,42.132307]}},{"type":"Feature","properties":{"id":"spr-b39","kind":"spring","name":"Spring","acres":null,"editable":false,"source":"USGS 3DHP hydrolocations"},"geometry":{"type":"Point","coordinates":[-111.23154,42.043398]}},{"type":"Feature","properties":{"id":"spr-b40","kind":"spring","name":"Spring","acres":null,"editable":false,"source":"USGS 3DHP hydrolocations"},"geometry":{"type":"Point","coordinates":[-111.161389,42.019147]}},{"type":"Feature","properties":{"id":"spr-b41","kind":"spring","name":"Spring","acres":null,"editable":false,"source":"USGS 3DHP hydrolocations"},"geometry":{"type":"Point","coordinates":[-111.225208,42.110964]}},{"type":"Feature","properties":{"id":"spr-b42","kind":"spring","name":"Spring","acres":null,"editable":false,"source":"USGS 3DHP hydrolocations"},"geometry":{"type":"Point","coordinates":[-111.442458,42.022929]}},{"type":"Feature","properties":{"id":"spr-b43","kind":"spring","name":"Spring","acres":null,"editable":false,"source":"USGS 3DHP hydrolocations"},"geometry":{"type":"Point","coordinates":[-111.43376,42.04085]}},{"type":"Feature","properties":{"id":"spr-b44","kind":"spring","name":"Spring","acres":null,"editable":false,"source":"USGS 3DHP hydrolocations"},"geometry":{"type":"Point","coordinates":[-111.443891,42.07456]}},{"type":"Feature","properties":{"id":"spr-b45","kind":"spring","name":"Coby Spring","acres":null,"editable":false,"source":"USGS 3DHP hydrolocations"},"geometry":{"type":"Point","coordinates":[-111.444953,42.085139]}},{"type":"Feature","properties":{"id":"spr-b46","kind":"spring","name":"Spring","acres":null,"editable":false,"source":"USGS 3DHP hydrolocations"},"geometry":{"type":"Point","coordinates":[-111.17865,41.963502]}},{"type":"Feature","properties":{"id":"spr-b47","kind":"spring","name":"Spring","acres":null,"editable":false,"source":"USGS 3DHP hydrolocations"},"geometry":{"type":"Point","coordinates":[-111.189566,41.920023]}},{"type":"Feature","properties":{"id":"spr-b48","kind":"spring","name":"Spring","acres":null,"editable":false,"source":"USGS 3DHP hydrolocations"},"geometry":{"type":"Point","coordinates":[-111.203381,41.893031]}},{"type":"Feature","properties":{"id":"spr-b49","kind":"spring","name":"Spring","acres":null,"editable":false,"source":"USGS 3DHP hydrolocations"},"geometry":{"type":"Point","coordinates":[-111.207701,41.962353]}},{"type":"Feature","properties":{"id":"spr-b50","kind":"spring","name":"Spring","acres":null,"editable":false,"source":"USGS 3DHP hydrolocations"},"geometry":{"type":"Point","coordinates":[-111.183351,41.958709]}},{"type":"Feature","properties":{"id":"spr-b51","kind":"spring","name":"Spring","acres":null,"editable":false,"source":"USGS 3DHP hydrolocations"},"geometry":{"type":"Point","coordinates":[-111.186772,41.963178]}},{"type":"Feature","properties":{"id":"spr-b52","kind":"spring","name":"Spring","acres":null,"editable":false,"source":"USGS 3DHP hydrolocations"},"geometry":{"type":"Point","coordinates":[-111.169806,41.96629]}},{"type":"Feature","properties":{"id":"spr-b53","kind":"spring","name":"Spring","acres":null,"editable":false,"source":"USGS 3DHP hydrolocations"},"geometry":{"type":"Point","coordinates":[-111.150202,41.987753]}},{"type":"Feature","properties":{"id":"spr-b54","kind":"spring","name":"Sheeppen Spring","acres":null,"editable":false,"source":"USGS 3DHP hydrolocations"},"geometry":{"type":"Point","coordinates":[-111.155633,41.959128]}},{"type":"Feature","properties":{"id":"spr-b55","kind":"spring","name":"Spring","acres":null,"editable":false,"source":"USGS 3DHP hydrolocations"},"geometry":{"type":"Point","coordinates":[-111.179799,41.948991]}},{"type":"Feature","properties":{"id":"spr-b56","kind":"spring","name":"Spring","acres":null,"editable":false,"source":"USGS 3DHP hydrolocations"},"geometry":{"type":"Point","coordinates":[-111.199154,41.926809]}},{"type":"Feature","properties":{"id":"spr-b57","kind":"spring","name":"Spring","acres":null,"editable":false,"source":"USGS 3DHP hydrolocations"},"geometry":{"type":"Point","coordinates":[-111.206581,41.904341]}},{"type":"Feature","properties":{"id":"spr-b58","kind":"spring","name":"Spring","acres":null,"editable":false,"source":"USGS 3DHP hydrolocations"},"geometry":{"type":"Point","coordinates":[-111.236588,41.939526]}},{"type":"Feature","properties":{"id":"spr-b59","kind":"spring","name":"Spring","acres":null,"editable":false,"source":"USGS 3DHP hydrolocations"},"geometry":{"type":"Point","coordinates":[-111.256094,42.105037]}},{"type":"Feature","properties":{"id":"spr-b60","kind":"spring","name":"Spring","acres":null,"editable":false,"source":"USGS 3DHP hydrolocations"},"geometry":{"type":"Point","coordinates":[-111.255119,41.912107]}},{"type":"Feature","properties":{"id":"spr-b61","kind":"spring","name":"Spring","acres":null,"editable":false,"source":"USGS 3DHP hydrolocations"},"geometry":{"type":"Point","coordinates":[-111.419652,41.862555]}},{"type":"Feature","properties":{"id":"spr-b62","kind":"spring","name":"Jebo Spring","acres":null,"editable":false,"source":"USGS 3DHP hydrolocations"},"geometry":{"type":"Point","coordinates":[-111.446925,41.857768]}},{"type":"Feature","properties":{"id":"spr-b63","kind":"spring","name":"Spring","acres":null,"editable":false,"source":"USGS 3DHP hydrolocations"},"geometry":{"type":"Point","coordinates":[-111.152691,41.852206]}},{"type":"Feature","properties":{"id":"spr-b64","kind":"spring","name":"Spring","acres":null,"editable":false,"source":"USGS 3DHP hydrolocations"},"geometry":{"type":"Point","coordinates":[-111.238647,41.865123]}},{"type":"Feature","properties":{"id":"spr-b65","kind":"spring","name":"Spring","acres":null,"editable":false,"source":"USGS 3DHP hydrolocations"},"geometry":{"type":"Point","coordinates":[-111.247679,41.853962]}},{"type":"Feature","properties":{"id":"spr-b66","kind":"spring","name":"Spring","acres":null,"editable":false,"source":"USGS 3DHP hydrolocations"},"geometry":{"type":"Point","coordinates":[-111.188633,41.869769]}},{"type":"Feature","properties":{"id":"spr-b67","kind":"spring","name":"Spring","acres":null,"editable":false,"source":"USGS 3DHP hydrolocations"},"geometry":{"type":"Point","coordinates":[-111.183571,41.867496]}},{"type":"Feature","properties":{"id":"spr-b68","kind":"spring","name":"Spring","acres":null,"editable":false,"source":"USGS 3DHP hydrolocations"},"geometry":{"type":"Point","coordinates":[-111.185951,41.86653]}},{"type":"Feature","properties":{"id":"spr-b69","kind":"spring","name":"Spring","acres":null,"editable":false,"source":"USGS 3DHP hydrolocations"},"geometry":{"type":"Point","coordinates":[-111.194214,41.852468]}},{"type":"Feature","properties":{"id":"spr-b70","kind":"spring","name":"Spring","acres":null,"editable":false,"source":"USGS 3DHP hydrolocations"},"geometry":{"type":"Point","coordinates":[-111.212091,41.858571]}},{"type":"Feature","properties":{"id":"spr-b71","kind":"spring","name":"Spring","acres":null,"editable":false,"source":"USGS 3DHP hydrolocations"},"geometry":{"type":"Point","coordinates":[-111.159966,41.891536]}},{"type":"Feature","properties":{"id":"spr-b72","kind":"spring","name":"Spring","acres":null,"editable":false,"source":"USGS 3DHP hydrolocations"},"geometry":{"type":"Point","coordinates":[-111.176685,41.884961]}},{"type":"Feature","properties":{"id":"spr-b73","kind":"spring","name":"Spring","acres":null,"editable":false,"source":"USGS 3DHP hydrolocations"},"geometry":{"type":"Point","coordinates":[-111.15415,41.883567]}},{"type":"Feature","properties":{"id":"spr-b74","kind":"spring","name":"Spring","acres":null,"editable":false,"source":"USGS 3DHP hydrolocations"},"geometry":{"type":"Point","coordinates":[-111.155044,41.88913]}},{"type":"Feature","properties":{"id":"spr-b75","kind":"spring","name":"Spring","acres":null,"editable":false,"source":"USGS 3DHP hydrolocations"},"geometry":{"type":"Point","coordinates":[-111.158636,41.891168]}},{"type":"Feature","properties":{"id":"spr-b76","kind":"spring","name":"Spring","acres":null,"editable":false,"source":"USGS 3DHP hydrolocations"},"geometry":{"type":"Point","coordinates":[-111.157872,41.890349]}},{"type":"Feature","properties":{"id":"spr-b77","kind":"spring","name":"Spring","acres":null,"editable":false,"source":"USGS 3DHP hydrolocations"},"geometry":{"type":"Point","coordinates":[-111.163446,41.899086]}},{"type":"Feature","properties":{"id":"spr-b78","kind":"spring","name":"Spring","acres":null,"editable":false,"source":"USGS 3DHP hydrolocations"},"geometry":{"type":"Point","coordinates":[-111.201479,42.145536]}},{"type":"Feature","properties":{"id":"spr-b79","kind":"spring","name":"Spring","acres":null,"editable":false,"source":"USGS 3DHP hydrolocations"},"geometry":{"type":"Point","coordinates":[-111.150571,42.059927]}},{"type":"Feature","properties":{"id":"spr-b80","kind":"spring","name":"Spring","acres":null,"editable":false,"source":"USGS 3DHP hydrolocations"},"geometry":{"type":"Point","coordinates":[-111.201275,42.123399]}},{"type":"Feature","properties":{"id":"spr-b81","kind":"spring","name":"Spring","acres":null,"editable":false,"source":"USGS 3DHP hydrolocations"},"geometry":{"type":"Point","coordinates":[-111.421875,41.937969]}},{"type":"Feature","properties":{"id":"spr-b82","kind":"spring","name":"Spring","acres":null,"editable":false,"source":"USGS 3DHP hydrolocations"},"geometry":{"type":"Point","coordinates":[-111.182727,41.867524]}},{"type":"Feature","properties":{"id":"spr-b83","kind":"spring","name":"Spring","acres":null,"editable":false,"source":"USGS 3DHP hydrolocations"},"geometry":{"type":"Point","coordinates":[-111.188213,42.065577]}},{"type":"Feature","properties":{"id":"spr-b84","kind":"spring","name":"Spring","acres":null,"editable":false,"source":"USGS 3DHP hydrolocations"},"geometry":{"type":"Point","coordinates":[-111.157571,41.89013]}},{"type":"Feature","properties":{"id":"spr-b85","kind":"spring","name":"Spring","acres":null,"editable":false,"source":"USGS 3DHP hydrolocations"},"geometry":{"type":"Point","coordinates":[-111.191842,41.852024]}},{"type":"Feature","properties":{"id":"spr-b86","kind":"spring","name":"Spring","acres":null,"editable":false,"source":"USGS 3DHP hydrolocations"},"geometry":{"type":"Point","coordinates":[-111.154609,41.864939]}},{"type":"Feature","properties":{"id":"spr-b87","kind":"spring","name":"Spring","acres":null,"editable":false,"source":"USGS 3DHP hydrolocations"},"geometry":{"type":"Point","coordinates":[-111.155874,41.889487]}},{"type":"Feature","properties":{"id":"spr-b88","kind":"spring","name":"Spring","acres":null,"editable":false,"source":"USGS 3DHP hydrolocations"},"geometry":{"type":"Point","coordinates":[-111.187142,41.861237]}},{"type":"Feature","properties":{"id":"spr-b89","kind":"spring","name":"Spring","acres":null,"editable":false,"source":"USGS 3DHP hydrolocations"},"geometry":{"type":"Point","coordinates":[-111.234216,41.954894]}},{"type":"Feature","properties":{"id":"spr-b90","kind":"spring","name":"Spring","acres":null,"editable":false,"source":"USGS 3DHP hydrolocations"},"geometry":{"type":"Point","coordinates":[-111.159478,41.946847]}},{"type":"Feature","properties":{"id":"spr-b91","kind":"spring","name":"Rock Spring","acres":null,"editable":false,"source":"USGS 3DHP hydrolocations"},"geometry":{"type":"Point","coordinates":[-111.25465,41.88595]}},{"type":"Feature","properties":{"id":"spr-b92","kind":"spring","name":"Swan Creek Spring","acres":null,"editable":false,"source":"USGS 3DHP hydrolocations"},"geometry":{"type":"Point","coordinates":[-111.428052,41.984397]}},{"type":"Feature","properties":{"id":"spr-b93","kind":"spring","name":"Spring","acres":null,"editable":false,"source":"USGS 3DHP hydrolocations"},"geometry":{"type":"Point","coordinates":[-111.250307,42.080399]}},{"type":"Feature","properties":{"id":"spr-b94","kind":"spring","name":"Spring","acres":null,"editable":false,"source":"USGS 3DHP hydrolocations"},"geometry":{"type":"Point","coordinates":[-111.428817,42.045412]}},{"type":"Feature","properties":{"id":"spr-b95","kind":"spring","name":"Spring","acres":null,"editable":false,"source":"USGS 3DHP hydrolocations"},"geometry":{"type":"Point","coordinates":[-111.196848,41.947299]}},{"type":"Feature","properties":{"id":"spr-b96","kind":"spring","name":"Spring","acres":null,"editable":false,"source":"USGS 3DHP hydrolocations"},"geometry":{"type":"Point","coordinates":[-111.179969,41.946526]}}]}