{"type":"FeatureCollection","features":[{"type":"Feature","properties":{"id":"wg-b1","kind":"water_gap","name":"Water gap 1","acres":null,"editable":true,"source":"hand-placed (pipeline heuristic)","width_m":30,"open":true,"role":"point"},"geometry":{"type":"Point","coordinates":[-111.39159,42.123936]}},{"type":"Feature","properties":{"id":"wg-b1-plug","kind":"water_gap","name":"Water gap 1","acres":0.1,"editable":true,"source":"hand-placed (pipeline heuristic)","width_m":30,"open":true,"role":"plug"},"geometry":{"type":"MultiPolygon","coordinates":[[[[-111.39165,42.124071],[-111.39165,42.12393],[-111.39165,42.123801],[-111.391832,42.123801],[-111.391832,42.124071],[-111.39165,42.124071]]],[[[-111.391469,42.1238],[-111.39153,42.123801],[-111.39153,42.12393],[-111.391529,42.124071],[-111.391469,42.124071],[-111.391469,42.1238]]]]}},{"type":"Feature","properties":{"id":"wg-b2","kind":"water_gap","name":"Water gap 2","acres":null,"editable":true,"source":"hand-placed (pipeline heuristic)","width_m":30,"open":true,"role":"point"},"geometry":{"type":"Point","coordinates":[-111.248843,41.938009]}},{"type":"Feature","properties":{"id":"wg-b2-plug","kind":"water_gap","name":"Water gap 2","acres":0.1,"editable":true,"source":"hand-placed (pipeline heuristic)","width_m":30,"open":true,"role":"plug"},"geometry":{"type":"MultiPolygon","coordinates":[[[[-111.248857,41.938151],[-111.248922,41.937961],[-111.248993,41.937898],[-111.249121,41.937922],[-111.249033,41.938184],[-111.248857,41.938151]]],[[[-111.248761,41.937883],[-111.248801,41.937862],[-111.248863,41.937873],[-111.248821,41.93791],[-111.248817,41.937914],[-111.248814,41.937917],[-111.248812,41.937921],[-111.24881,41.937925],[-111.248808,41.937928],[-111.24874,41.938129],[-111.248682,41.938118],[-111.248761,41.937883]]]]}},{"type":"Feature","properties":{"id":"wg-b3","kind":"water_gap","name":"Water gap 3","acres":null,"editable":true,"source":"hand-placed (pipeline heuristic)","width_m":30,"open":true,"role":"point"},"geometry":{"type":"Point","coordinates":[-111.22061,41.944308]}},{"type":"Feature","properties":{"id":"wg-b3-plug","kind":"water_gap","name":"Water gap 3","acres":0.1,"editable":true,"source":"hand-placed (pipeline heuristic)","width_m":30,"open":true,"role":"plug"},"geometry":{"type":"MultiPolygon","coordinates":[[[[-111.220373,41.944332],[-111.220554,41.944335],[-111.220728,41.94442],[-111.220628,41.944533],[-111.220326,41.944385],[-111.220373,41.944332]]],[[[-111.220827,41.944307],[-111.220794,41.944345],[-111.220606,41.944253],[-111.220601,41.944251],[-111.220596,41.944249],[-111.220591,41.944247],[-111.220586,41.944246],[-111.22058,41.944246],[-111.220575,41.944245],[-111.220451,41.944243],[-111.220525,41.944159],[-111.220827,41.944307]]]]}}]}