{"type":"FeatureCollection","features":[{"type":"Feature","properties":{"id":"rc-al-1","kind":"allotment","name":"Little Popo Agie AMP","acres":8541.0,"editable":false,"source":"stub (fake demo data)","allot_no":"WY01908"},"geometry":{"type":"Polygon","coordinates":[[[-108.652,42.6],[-108.56,42.6],[-108.56,42.7],[-108.652,42.7],[-108.652,42.6]]]}},{"type":"Feature","properties":{"id":"rc-al-2","kind":"allotment","name":"Red Canyon Rim","acres":6200.0,"editable":false,"source":"stub (fake demo data)","allot_no":"WY01934"},"geometry":{"type":"Polygon","coordinates":[[[-108.75,42.58],[-108.652,42.58],[-108.652,42.69],[-108.75,42.69],[-108.75,42.58]]]}}]}