{"type":"FeatureCollection","features":[{"type":"Feature","properties":{"id":"rc-ex-1","kind":"exclusion","name":"Red Canyon Creek \u2014 lower","acres":33.0,"editable":true,"source":"stub (fake demo data)","strm_type":"Perennial","veg_pct":82},"geometry":{"type":"Polygon","coordinates":[[[-108.664,42.6226],[-108.6528,42.6298],[-108.6528,42.6286],[-108.664,42.6214],[-108.664,42.6226]]]}},{"type":"Feature","properties":{"id":"rc-ex-2","kind":"exclusion","name":"Red Canyon Creek \u2014 middle","acres":24.0,"editable":true,"source":"stub (fake demo data)","strm_type":"Perennial","veg_pct":76},"geometry":{"type":"Polygon","coordinates":[[[-108.65224,42.63016],[-108.6444,42.6352],[-108.6444,42.634],[-108.65224,42.62896],[-108.65224,42.63016]]]}},{"type":"Feature","properties":{"id":"rc-ex-3","kind":"exclusion","name":"Red Canyon Creek \u2014 upper","acres":26.0,"editable":true,"source":"stub (fake demo data)","strm_type":"Intermittent","veg_pct":64},"geometry":{"type":"Polygon","coordinates":[[[-108.64384,42.63556],[-108.636,42.6406],[-108.636,42.6394],[-108.64384,42.63436],[-108.64384,42.63556]]]}}]}