{"type":"FeatureCollection","features":[{"type":"Feature","properties":{"id":"rc-own-1","kind":"ownership","name":"BLM","acres":5200.0,"editable":false,"source":"stub (fake demo data)","owner":"BLM"},"geometry":{"type":"Polygon","coordinates":[[[-108.75,42.58],[-108.66,42.58],[-108.66,42.7],[-108.75,42.7],[-108.75,42.58]]]}},{"type":"Feature","properties":{"id":"rc-own-2","kind":"ownership","name":"State","acres":640.0,"editable":false,"source":"stub (fake demo data)","owner":"State"},"geometry":{"type":"Polygon","coordinates":[[[-108.66,42.58],[-108.63,42.58],[-108.63,42.62],[-108.66,42.62],[-108.66,42.58]]]}},{"type":"Feature","properties":{"id":"rc-own-3","kind":"ownership","name":"Private","acres":3100.0,"editable":false,"source":"stub (fake demo data)","owner":"Private"},"geometry":{"type":"Polygon","coordinates":[[[-108.66,42.62],[-108.56,42.62],[-108.56,42.7],[-108.66,42.7],[-108.66,42.62]]]}}]}