{"type":"FeatureCollection","features":[{"type":"Feature","properties":{"id":"rc-gap-1","kind":"water_gap","name":"Lower crossing gap","acres":null,"editable":true,"source":"stub (fake demo data)","width_m":30,"open":true},"geometry":{"type":"Point","coordinates":[-108.65252,42.62938]}},{"type":"Feature","properties":{"id":"rc-gap-2","kind":"water_gap","name":"Flat bank gap","acres":null,"editable":true,"source":"stub (fake demo data)","width_m":30,"open":true},"geometry":{"type":"Point","coordinates":[-108.64412,42.63478]}}]}